{"type":"FeatureCollection","features":[{"type":"Feature","properties":{"id_hdad":1,"nombre":"La Borriquita","dia":"domingo-de-ramos"},"geometry":{"type":"LineString","coordinates":[[-5.992936,37.390028],[-5.993129,37.390002],[-5.993178,37.39017],[-5.99326,37.390287],[-5.993503,37.391365],[-5.993693,37.393394],[-5.993838,37.393693],[-5.994298,37.393596],[-5.994758,37.39352],[-5.994764,37.394303],[-5.995341,37.394358],[-5.995898,37.394472],[-5.995977,37.393794],[-5.995935,37.393602],[-5.996177,37.392707],[-5.995547,37.392722],[-5.994924,37.392751],[-5.994797,37.391803],[-5.994542,37.390976],[-5.994258,37.389845],[-5.994175,37.389143],[-5.994151,37.388605],[-5.994169,37.388187],[-5.994296,37.388071],[-5.9943041,37.3879286],[-5.9942267,37.38731],[-5.9941493,37.386713],[-5.9940679,37.3860718],[-5.9940344,37.3857616],[-5.993999,37.385447],[-5.9934331,37.3854932],[-5.9929686,37.3855304],[-5.992619,37.385552],[-5.9926646,37.3858225],[-5.99271,37.386038],[-5.992325,37.386077],[-5.992365,37.386288],[-5.992492,37.386409],[-5.9925251,37.3867423],[-5.9927475,37.3868044],[-5.993024,37.3867758],[-5.993042,37.3870002],[-5.9927836,37.3872438],[-5.9924891,37.38743],[-5.992542,37.387587],[-5.992718,37.387895],[-5.992766,37.388238],[-5.992748,37.388584],[-5.993008,37.388623],[-5.993264,37.388615],[-5.993288,37.389051],[-5.99338,37.389346],[-5.993302,37.389446],[-5.993263,37.389594],[-5.993197,37.389673],[-5.993105,37.389698],[-5.993128,37.389988],[-5.992949,37.390013]]}},{"type":"Feature","properties":{"id_hdad":1,"hermandad":"La Borriquita","calle":"Plaza del Salvador","osm":"Plaza del Salvador"},"geometry":{"type":"Point","coordinates":[-5.992935,37.390009]}},{"type":"Feature","properties":{"id_hdad":1,"hermandad":"La Borriquita","calle":"Calle Cuna","osm":"Calle Cuna"},"geometry":{"type":"Point","coordinates":[-5.993485,37.391461]}},{"type":"Feature","properties":{"id_hdad":1,"hermandad":"La Borriquita","calle":"Calle Orfila","osm":"Calle Orfila"},"geometry":{"type":"Point","coordinates":[-5.993729,37.393322]}},{"type":"Feature","properties":{"id_hdad":1,"hermandad":"La Borriquita","calle":"Calle Javier Lasso de la Vega","osm":"Calle Javier Lasso de la Vega"},"geometry":{"type":"Point","coordinates":[-5.994449,37.393596]}},{"type":"Feature","properties":{"id_hdad":1,"hermandad":"La Borriquita","calle":"Calle Amor de Dios","osm":"Calle Amor de Dios"},"geometry":{"type":"Point","coordinates":[-5.994758,37.393914]}},{"type":"Feature","properties":{"id_hdad":1,"hermandad":"La Borriquita","calle":"Calle San Miguel","osm":"Calle San Miguel"},"geometry":{"type":"Point","coordinates":[-5.995328,37.394392]}},{"type":"Feature","properties":{"id_hdad":1,"hermandad":"La Borriquita","calle":"Plaza del Duque de la Victoria","osm":"Plaza del Duque de la Victoria"},"geometry":{"type":"Point","coordinates":[-5.996046,37.393115]}},{"type":"Feature","properties":{"id_hdad":1,"hermandad":"La Borriquita","calle":"La Campana","osm":"Calle Campana"},"geometry":{"type":"Point","coordinates":[-5.995376,37.392725]}},{"type":"Feature","properties":{"id_hdad":1,"hermandad":"La Borriquita","calle":"Calle Sierpes","osm":"Calle Sierpes"},"geometry":{"type":"Point","coordinates":[-5.994788,37.390875]}},{"type":"Feature","properties":{"id_hdad":1,"hermandad":"La Borriquita","calle":"Plaza de San Francisco","osm":"Plaza de San Francisco"},"geometry":{"type":"Point","coordinates":[-5.994169,37.388614]}},{"type":"Feature","properties":{"id_hdad":1,"hermandad":"La Borriquita","calle":"Avenida de la Constitución","osm":"Avenida de la Constitución"},"geometry":{"type":"Point","coordinates":[-5.993515,37.384889]}},{"type":"Feature","properties":{"id_hdad":1,"hermandad":"La Borriquita","calle":"Calle Cardenal Carlos Amigo","osm":"Calle Cardenal Carlos Amigo"},"geometry":{"type":"Point","coordinates":[-5.992467,37.386496]}},{"type":"Feature","properties":{"id_hdad":1,"hermandad":"La Borriquita","calle":"Calle Álvarez Quintero","osm":"Calle Álvarez Quintero"},"geometry":{"type":"Point","coordinates":[-5.993273,37.38953]}},{"type":"Feature","properties":{"id_hdad":1,"hermandad":"La Borriquita","calle":"Calle Placentines","osm":"Calle Placentines"},"geometry":{"type":"Point","coordinates":[-5.9925303,37.3875673]}},{"type":"Feature","properties":{"id_hdad":1,"hermandad":"La Borriquita","calle":"Calle Francos","osm":"Calle Francos"},"geometry":{"type":"Point","coordinates":[-5.99271,37.388333]}},{"type":"Feature","properties":{"id_hdad":1,"hermandad":"La Borriquita","calle":"Calle Chapineros","osm":"Calle Chapineros"},"geometry":{"type":"Point","coordinates":[-5.992999,37.388611]}},{"type":"Feature","properties":{"id_hdad":1,"hermandad":"La Borriquita","calle":"Calle Álvarez Quintero","osm":"Calle Álvarez Quintero"},"geometry":{"type":"Point","coordinates":[-5.993273,37.38953]}},{"type":"Feature","properties":{"id_hdad":1,"hermandad":"La Borriquita","calle":"Plaza del Salvador","osm":"Plaza del Salvador"},"geometry":{"type":"Point","coordinates":[-5.992931,37.390014]}}]}