{
  "type": "FeatureCollection",
  "features": [
    {
      "type": "Feature",
      "properties": {
        "id_hdad": 2,
        "nombre": "La Cena",
        "dia": "domingo-de-ramos"
      },
      "geometry": {
        "type": "LineString",
        "coordinates": [
          [
            -5.9878229,
            37.3938327
          ],
          [
            -5.9880115,
            37.393698
          ],
          [
            -5.9882071,
            37.39353
          ],
          [
            -5.9882195,
            37.3934345
          ],
          [
            -5.9882221,
            37.3933162
          ],
          [
            -5.9883174,
            37.3932147
          ],
          [
            -5.9884444,
            37.3930256
          ],
          [
            -5.9885206,
            37.39288
          ],
          [
            -5.9886862,
            37.392856
          ],
          [
            -5.989031,
            37.392704
          ],
          [
            -5.989692,
            37.392505
          ],
          [
            -5.9899423,
            37.3924834
          ],
          [
            -5.9901595,
            37.3924887
          ],
          [
            -5.9905204,
            37.3925657
          ],
          [
            -5.99088,
            37.39261
          ],
          [
            -5.991499,
            37.3927
          ],
          [
            -5.9922302,
            37.392777
          ],
          [
            -5.992981,
            37.392804
          ],
          [
            -5.9933169,
            37.3928037
          ],
          [
            -5.9936593,
            37.3928157
          ],
          [
            -5.9936853,
            37.3929311
          ],
          [
            -5.993689,
            37.393287
          ],
          [
            -5.9936917,
            37.3934516
          ],
          [
            -5.9938521,
            37.3937374
          ],
          [
            -5.9940038,
            37.3939681
          ],
          [
            -5.994097,
            37.3940989
          ],
          [
            -5.994158,
            37.394243
          ],
          [
            -5.9941921,
            37.394338
          ],
          [
            -5.994239,
            37.3945012
          ],
          [
            -5.994448,
            37.3945001
          ],
          [
            -5.9946464,
            37.3944977
          ],
          [
            -5.9947188,
            37.3943658
          ],
          [
            -5.9947526,
            37.3942963
          ],
          [
            -5.9951221,
            37.3943326
          ],
          [
            -5.995349,
            37.3943531
          ],
          [
            -5.9956421,
            37.3944101
          ],
          [
            -5.9959065,
            37.3944789
          ],
          [
            -5.9959409,
            37.3942843
          ],
          [
            -5.995978500352905,
            37.3940198419956
          ],
          [
            -5.9959864,
            37.3938914
          ],
          [
            -5.9959496,
            37.3937209
          ],
          [
            -5.9959193,
            37.3936073
          ],
          [
            -5.9959583,
            37.3934438
          ],
          [
            -5.996046,
            37.393115
          ],
          [
            -5.9960975,
            37.392915
          ],
          [
            -5.9961387,
            37.3927242
          ],
          [
            -5.9958656,
            37.392719
          ],
          [
            -5.9955948,
            37.3927173
          ],
          [
            -5.9954756,
            37.3927173
          ],
          [
            -5.995376,
            37.392725
          ],
          [
            -5.994924,
            37.392751
          ],
          [
            -5.994861,
            37.3922847
          ],
          [
            -5.994797,
            37.391803
          ],
          [
            -5.9946698,
            37.3913397
          ],
          [
            -5.9945161,
            37.3909308
          ],
          [
            -5.9943917,
            37.3904014
          ],
          [
            -5.994327,
            37.3901151
          ],
          [
            -5.9942735,
            37.3898019
          ],
          [
            -5.9941991,
            37.3894656
          ],
          [
            -5.994175,
            37.389143
          ],
          [
            -5.994154,
            37.38867
          ],
          [
            -5.994169,
            37.388187
          ],
          [
            -5.994296,
            37.388071
          ],
          [
            -5.9943041,
            37.3879286
          ],
          [
            -5.9942267,
            37.38731
          ],
          [
            -5.9941493,
            37.386713
          ],
          [
            -5.9940679,
            37.3860718
          ],
          [
            -5.9940344,
            37.3857616
          ],
          [
            -5.993999,
            37.385447
          ],
          [
            -5.9934331,
            37.3854932
          ],
          [
            -5.9929686,
            37.3855304
          ],
          [
            -5.992619,
            37.385552
          ],
          [
            -5.9926646,
            37.3858225
          ],
          [
            -5.99271,
            37.386038
          ],
          [
            -5.992325,
            37.386077
          ],
          [
            -5.992365,
            37.386288
          ],
          [
            -5.9924408,
            37.3863144
          ],
          [
            -5.9924973,
            37.3863647
          ],
          [
            -5.9925107,
            37.3865266
          ],
          [
            -5.992515,
            37.38666
          ],
          [
            -5.992549,
            37.386763
          ],
          [
            -5.992807,
            37.386777
          ],
          [
            -5.993037,
            37.386751
          ],
          [
            -5.993054,
            37.386917
          ],
          [
            -5.9930245,
            37.3870101
          ],
          [
            -5.9929267,
            37.3871073
          ],
          [
            -5.992697,
            37.387288
          ],
          [
            -5.992489,
            37.387452
          ],
          [
            -5.992594,
            37.387654
          ],
          [
            -5.992704,
            37.387858
          ],
          [
            -5.99277,
            37.38804
          ],
          [
            -5.992784,
            37.388285
          ],
          [
            -5.992744,
            37.388583
          ],
          [
            -5.992621,
            37.388828
          ],
          [
            -5.992568,
            37.389176
          ],
          [
            -5.992542,
            37.389426
          ],
          [
            -5.992353,
            37.389737
          ],
          [
            -5.991765,
            37.389785
          ],
          [
            -5.9915301,
            37.3898039
          ],
          [
            -5.9913096,
            37.3898065
          ],
          [
            -5.991289194661936,
            37.389882871212365
          ],
          [
            -5.9912497,
            37.389973
          ],
          [
            -5.9912273,
            37.3900874
          ],
          [
            -5.9911748,
            37.3902722
          ],
          [
            -5.9911616,
            37.3904076
          ],
          [
            -5.9910099,
            37.3904447
          ],
          [
            -5.9908985,
            37.390408
          ],
          [
            -5.9907336,
            37.3905881
          ],
          [
            -5.9906173,
            37.3907816
          ],
          [
            -5.99043,
            37.3907369
          ],
          [
            -5.9903251,
            37.390862
          ],
          [
            -5.990158,
            37.3910193
          ],
          [
            -5.990001,
            37.3912177
          ],
          [
            -5.9899556,
            37.3912991
          ],
          [
            -5.9899202,
            37.3915564
          ],
          [
            -5.9898676,
            37.3921092
          ],
          [
            -5.9898384,
            37.3923782
          ],
          [
            -5.9897195,
            37.3928768
          ],
          [
            -5.9896104,
            37.3932572
          ],
          [
            -5.9895497,
            37.3934523
          ],
          [
            -5.9894588,
            37.3936786
          ],
          [
            -5.9893971,
            37.3938287
          ],
          [
            -5.9892255,
            37.3941674
          ],
          [
            -5.9891573,
            37.3941149
          ],
          [
            -5.9887906,
            37.393903
          ],
          [
            -5.9887193,
            37.3938134
          ],
          [
            -5.9885758,
            37.3936531
          ],
          [
            -5.988363,
            37.3934283
          ],
          [
            -5.9882202,
            37.3933177
          ],
          [
            -5.9882206,
            37.3935318
          ],
          [
            -5.9880077,
            37.393698
          ],
          [
            -5.9878299,
            37.3938438
          ]
        ]
      }
    },
    {
      "type": "Feature",
      "properties": {
        "id_hdad": 2,
        "hermandad": "La Cena",
        "calle": "Calle Sol",
        "osm": "Calle Sol"
      },
      "geometry": {
        "type": "Point",
        "coordinates": [
          -5.9878229,
          37.3938327
        ]
      }
    },
    {
      "type": "Feature",
      "properties": {
        "id_hdad": 2,
        "hermandad": "La Cena",
        "calle": "Plaza de Los Terceros",
        "osm": "Plaza de los Terceros"
      },
      "geometry": {
        "type": "Point",
        "coordinates": [
          -5.9880115,
          37.393698
        ]
      }
    },
    {
      "type": "Feature",
      "properties": {
        "id_hdad": 2,
        "hermandad": "La Cena",
        "calle": "Calle Capataz Manuel Santiago",
        "osm": "Calle Capataz Manuel Santiago"
      },
      "geometry": {
        "type": "Point",
        "coordinates": [
          -5.9882221,
          37.3933162
        ]
      }
    },
    {
      "type": "Feature",
      "properties": {
        "id_hdad": 2,
        "hermandad": "La Cena",
        "calle": "Calle Alhóndiga",
        "osm": "Calle Alhóndiga"
      },
      "geometry": {
        "type": "Point",
        "coordinates": [
          -5.9884444,
          37.3930256
        ]
      }
    },
    {
      "type": "Feature",
      "properties": {
        "id_hdad": 2,
        "hermandad": "La Cena",
        "calle": "Calle Almirante Apodaca",
        "osm": "Calle Almirante Apodaca"
      },
      "geometry": {
        "type": "Point",
        "coordinates": [
          -5.989031,
          37.392704
        ]
      }
    },
    {
      "type": "Feature",
      "properties": {
        "id_hdad": 2,
        "hermandad": "La Cena",
        "calle": "Plaza de San Pedro",
        "osm": "Plaza de San Pedro"
      },
      "geometry": {
        "type": "Point",
        "coordinates": [
          -5.989692,
          37.392505
        ]
      }
    },
    {
      "type": "Feature",
      "properties": {
        "id_hdad": 2,
        "hermandad": "La Cena",
        "calle": "Calle Imagen",
        "osm": "Calle Imagen"
      },
      "geometry": {
        "type": "Point",
        "coordinates": [
          -5.99088,
          37.39261
        ]
      }
    },
    {
      "type": "Feature",
      "properties": {
        "id_hdad": 2,
        "hermandad": "La Cena",
        "calle": "Plaza de la Encarnación",
        "osm": "Plaza de la Encarnación"
      },
      "geometry": {
        "type": "Point",
        "coordinates": [
          -5.991499,
          37.3927
        ]
      }
    },
    {
      "type": "Feature",
      "properties": {
        "id_hdad": 2,
        "hermandad": "La Cena",
        "calle": "Calle Laraña",
        "osm": "Calle Laraña"
      },
      "geometry": {
        "type": "Point",
        "coordinates": [
          -5.992981,
          37.392804
        ]
      }
    },
    {
      "type": "Feature",
      "properties": {
        "id_hdad": 2,
        "hermandad": "La Cena",
        "calle": "Calle Orfila",
        "osm": "Calle Orfila"
      },
      "geometry": {
        "type": "Point",
        "coordinates": [
          -5.993689,
          37.393287
        ]
      }
    },
    {
      "type": "Feature",
      "properties": {
        "id_hdad": 2,
        "hermandad": "La Cena",
        "calle": "Plaza Fernando de Herrera",
        "osm": "Plaza Fernando de Herrera"
      },
      "geometry": {
        "type": "Point",
        "coordinates": [
          -5.9940038,
          37.3939681
        ]
      }
    },
    {
      "type": "Feature",
      "properties": {
        "id_hdad": 2,
        "hermandad": "La Cena",
        "calle": "Plaza Fernando de Herrera",
        "osm": "Plaza Fernando de Herrera"
      },
      "geometry": {
        "type": "Point",
        "coordinates": [
          -5.994158,
          37.394243
        ]
      }
    },
    {
      "type": "Feature",
      "properties": {
        "id_hdad": 2,
        "hermandad": "La Cena",
        "calle": "Calle Daoiz",
        "osm": "Calle Daoiz"
      },
      "geometry": {
        "type": "Point",
        "coordinates": [
          -5.9941921,
          37.394338
        ]
      }
    },
    {
      "type": "Feature",
      "properties": {
        "id_hdad": 2,
        "hermandad": "La Cena",
        "calle": "Calle García Tassara",
        "osm": "Calle García Tassara"
      },
      "geometry": {
        "type": "Point",
        "coordinates": [
          -5.994448,
          37.3945001
        ]
      }
    },
    {
      "type": "Feature",
      "properties": {
        "id_hdad": 2,
        "hermandad": "La Cena",
        "calle": "Calle Amor de Dios",
        "osm": "Calle Amor de Dios"
      },
      "geometry": {
        "type": "Point",
        "coordinates": [
          -5.9947188,
          37.3943658
        ]
      }
    },
    {
      "type": "Feature",
      "properties": {
        "id_hdad": 2,
        "hermandad": "La Cena",
        "calle": "Calle San Miguel",
        "osm": "Calle San Miguel"
      },
      "geometry": {
        "type": "Point",
        "coordinates": [
          -5.9951221,
          37.3943326
        ]
      }
    },
    {
      "type": "Feature",
      "properties": {
        "id_hdad": 2,
        "hermandad": "La Cena",
        "calle": "Calle Jesús del Gran Poder",
        "osm": "Calle Jesús del Gran Poder"
      },
      "geometry": {
        "type": "Point",
        "coordinates": [
          -5.995978500352905,
          37.3940198419956
        ]
      }
    },
    {
      "type": "Feature",
      "properties": {
        "id_hdad": 2,
        "hermandad": "La Cena",
        "calle": "Plaza del Duque de la Victoria",
        "osm": "Plaza del Duque de la Victoria"
      },
      "geometry": {
        "type": "Point",
        "coordinates": [
          -5.996046,
          37.393115
        ]
      }
    },
    {
      "type": "Feature",
      "properties": {
        "id_hdad": 2,
        "hermandad": "La Cena",
        "calle": "La Campana",
        "osm": "Calle Campana"
      },
      "geometry": {
        "type": "Point",
        "coordinates": [
          -5.995376,
          37.392725
        ]
      }
    },
    {
      "type": "Feature",
      "properties": {
        "id_hdad": 2,
        "hermandad": "La Cena",
        "calle": "Calle Sierpes",
        "osm": "Calle Sierpes"
      },
      "geometry": {
        "type": "Point",
        "coordinates": [
          -5.9944693,
          37.390737
        ]
      }
    },
    {
      "type": "Feature",
      "properties": {
        "id_hdad": 2,
        "hermandad": "La Cena",
        "calle": "Plaza de San Francisco",
        "osm": "Plaza de San Francisco"
      },
      "geometry": {
        "type": "Point",
        "coordinates": [
          -5.994154,
          37.38867
        ]
      }
    },
    {
      "type": "Feature",
      "properties": {
        "id_hdad": 2,
        "hermandad": "La Cena",
        "calle": "Avenida de la Constitución",
        "osm": "Avenida de la Constitución"
      },
      "geometry": {
        "type": "Point",
        "coordinates": [
          -5.9941607,
          37.3867886
        ]
      }
    },
    {
      "type": "Feature",
      "properties": {
        "id_hdad": 2,
        "hermandad": "La Cena",
        "calle": "Calle Cardenal Carlos Amigo",
        "osm": "Calle Cardenal Carlos Amigo"
      },
      "geometry": {
        "type": "Point",
        "coordinates": [
          -5.9925109,
          37.3864843
        ]
      }
    },
    {
      "type": "Feature",
      "properties": {
        "id_hdad": 2,
        "hermandad": "La Cena",
        "calle": "Calle Alemanes",
        "osm": "Calle Alemanes"
      },
      "geometry": {
        "type": "Point",
        "coordinates": [
          -5.992807,
          37.386777
        ]
      }
    },
    {
      "type": "Feature",
      "properties": {
        "id_hdad": 2,
        "hermandad": "La Cena",
        "calle": "Calle Álvarez Quintero",
        "osm": "Calle Álvarez Quintero"
      },
      "geometry": {
        "type": "Point",
        "coordinates": [
          -5.993054,
          37.386917
        ]
      }
    },
    {
      "type": "Feature",
      "properties": {
        "id_hdad": 2,
        "hermandad": "La Cena",
        "calle": "Calle Argote de Molina",
        "osm": "Calle Argote de Molina"
      },
      "geometry": {
        "type": "Point",
        "coordinates": [
          -5.992697,
          37.387288
        ]
      }
    },
    {
      "type": "Feature",
      "properties": {
        "id_hdad": 2,
        "hermandad": "La Cena",
        "calle": "Calle Placentines",
        "osm": "Calle Placentines"
      },
      "geometry": {
        "type": "Point",
        "coordinates": [
          -5.992594,
          37.387654
        ]
      }
    },
    {
      "type": "Feature",
      "properties": {
        "id_hdad": 2,
        "hermandad": "La Cena",
        "calle": "Calle Francos",
        "osm": "Calle Francos"
      },
      "geometry": {
        "type": "Point",
        "coordinates": [
          -5.992784,
          37.388285
        ]
      }
    },
    {
      "type": "Feature",
      "properties": {
        "id_hdad": 2,
        "hermandad": "La Cena",
        "calle": "Cuesta del Rosario",
        "osm": "Calle Cuesta del Rosario"
      },
      "geometry": {
        "type": "Point",
        "coordinates": [
          -5.991765,
          37.389785
        ]
      }
    },
    {
      "type": "Feature",
      "properties": {
        "id_hdad": 2,
        "hermandad": "La Cena",
        "calle": "Plaza de la Pescadería",
        "osm": "Plaza de la Pescadería"
      },
      "geometry": {
        "type": "Point",
        "coordinates": [
          -5.991289194661936,
          37.389882871212365
        ]
      }
    },
    {
      "type": "Feature",
      "properties": {
        "id_hdad": 2,
        "hermandad": "La Cena",
        "calle": "Calle Ángel María Camacho",
        "osm": "Calle Ángel María Camacho"
      },
      "geometry": {
        "type": "Point",
        "coordinates": [
          -5.9912273,
          37.3900874
        ]
      }
    },
    {
      "type": "Feature",
      "properties": {
        "id_hdad": 2,
        "hermandad": "La Cena",
        "calle": "Plaza de La Alfalfa",
        "osm": "Calle Alfalfa"
      },
      "geometry": {
        "type": "Point",
        "coordinates": [
          -5.9908985,
          37.390408
        ]
      }
    },
    {
      "type": "Feature",
      "properties": {
        "id_hdad": 2,
        "hermandad": "La Cena",
        "calle": "Calle San Juan",
        "osm": "Calle San Juan"
      },
      "geometry": {
        "type": "Point",
        "coordinates": [
          -5.9907336,
          37.3905881
        ]
      }
    },
    {
      "type": "Feature",
      "properties": {
        "id_hdad": 2,
        "hermandad": "La Cena",
        "calle": "Calle Boteros",
        "osm": "Calle Boteros"
      },
      "geometry": {
        "type": "Point",
        "coordinates": [
          -5.99043,
          37.3907369
        ]
      }
    },
    {
      "type": "Feature",
      "properties": {
        "id_hdad": 2,
        "hermandad": "La Cena",
        "calle": "Calle Sales y Ferré",
        "osm": "Calle Sales y Ferré"
      },
      "geometry": {
        "type": "Point",
        "coordinates": [
          -5.990001,
          37.3912177
        ]
      }
    },
    {
      "type": "Feature",
      "properties": {
        "id_hdad": 2,
        "hermandad": "La Cena",
        "calle": "Plaza del Cristo de Burgos",
        "osm": "Plaza del Cristo de Burgos"
      },
      "geometry": {
        "type": "Point",
        "coordinates": [
          -5.9898676,
          37.3921092
        ]
      }
    },
    {
      "type": "Feature",
      "properties": {
        "id_hdad": 2,
        "hermandad": "La Cena",
        "calle": "Calle Doña María Coronel",
        "osm": "Calle Doña María Coronel"
      },
      "geometry": {
        "type": "Point",
        "coordinates": [
          -5.9893971,
          37.3938287
        ]
      }
    },
    {
      "type": "Feature",
      "properties": {
        "id_hdad": 2,
        "hermandad": "La Cena",
        "calle": "Calle Gerona",
        "osm": "Calle Gerona"
      },
      "geometry": {
        "type": "Point",
        "coordinates": [
          -5.9887193,
          37.3938134
        ]
      }
    },
    {
      "type": "Feature",
      "properties": {
        "id_hdad": 2,
        "hermandad": "La Cena",
        "calle": "Calle Capataz Manuel Santiago",
        "osm": "Calle Capataz Manuel Santiago"
      },
      "geometry": {
        "type": "Point",
        "coordinates": [
          -5.9882202,
          37.3933177
        ]
      }
    },
    {
      "type": "Feature",
      "properties": {
        "id_hdad": 2,
        "hermandad": "La Cena",
        "calle": "Plaza de Los Terceros",
        "osm": "Plaza de los Terceros"
      },
      "geometry": {
        "type": "Point",
        "coordinates": [
          -5.9880077,
          37.393698
        ]
      }
    },
    {
      "type": "Feature",
      "properties": {
        "id_hdad": 2,
        "hermandad": "La Cena",
        "calle": "Calle Sol",
        "osm": "Calle Sol"
      },
      "geometry": {
        "type": "Point",
        "coordinates": [
          -5.9878299,
          37.3938438
        ]
      }
    }
  ]
}