{"type":"FeatureCollection","features":[{"type":"Feature","properties":{"id_hdad":6,"nombre":"San Roque","dia":"domingo-de-ramos"},"geometry":{"type":"LineString","coordinates":[[-5.9834433,37.3907289],[-5.9840695,37.3917064],[-5.9844187,37.393179],[-5.9855565,37.3931279],[-5.9874545,37.393084],[-5.988267,37.392909],[-5.988666,37.39284],[-5.989031,37.392704],[-5.989692,37.392505],[-5.990142,37.392465],[-5.99088,37.39261],[-5.991499,37.3927],[-5.9922302,37.392777],[-5.992981,37.392804],[-5.9933169,37.3928037],[-5.9936593,37.3928157],[-5.9936853,37.3929311],[-5.993689,37.393287],[-5.993838,37.393693],[-5.994575,37.393545],[-5.995283,37.393895],[-5.99537,37.393742],[-5.995446,37.393623],[-5.995615,37.39345],[-5.995633,37.393113],[-5.995631,37.392901],[-5.995376,37.392725],[-5.994924,37.392751],[-5.994797,37.391803],[-5.9945202,37.3909414],[-5.994258,37.389845],[-5.994175,37.389143],[-5.994154,37.38867],[-5.994169,37.388187],[-5.994296,37.388071],[-5.9943041,37.3879286],[-5.9942267,37.38731],[-5.9941493,37.386713],[-5.9940679,37.3860718],[-5.9940344,37.3857616],[-5.993999,37.385447],[-5.9934331,37.3854932],[-5.9929686,37.3855304],[-5.992619,37.385552],[-5.9926646,37.3858225],[-5.99271,37.386038],[-5.992325,37.386077],[-5.992365,37.386288],[-5.9924527,37.3863161],[-5.9925164,37.3863997],[-5.992537,37.386555],[-5.992515,37.38666],[-5.992549,37.386763],[-5.992807,37.386777],[-5.993037,37.386751],[-5.993054,37.386917],[-5.9930245,37.3870101],[-5.9929267,37.3871073],[-5.992697,37.387288],[-5.992489,37.387452],[-5.992594,37.387654],[-5.992704,37.387858],[-5.99277,37.38804],[-5.992784,37.388285],[-5.992744,37.388583],[-5.992621,37.388828],[-5.992568,37.389176],[-5.992542,37.389426],[-5.992353,37.389737],[-5.991765,37.389785],[-5.991357,37.389798],[-5.991092,37.38979],[-5.990856,37.389772],[-5.990668,37.389983],[-5.990468,37.390211],[-5.990236,37.39008],[-5.989974,37.390022],[-5.99003,37.3895097],[-5.99075,37.3908772],[-5.988716,37.3905804],[-5.9877531,37.3901962],[-5.987031,37.389815],[-5.98665,37.389741],[-5.98593,37.389743],[-5.985625,37.389691],[-5.985444,37.389615],[-5.9863071,37.3899133],[-5.9876061,37.3909855],[-5.9864749,37.3904762],[-5.9859108,37.3905462],[-5.9847954,37.3905838],[-5.9840695,37.3917064],[-5.9834433,37.3907289]]}},{"type":"Feature","properties":{"id_hdad":6,"hermandad":"San Roque","calle":"Plaza Carmen Benítez","osm":"Plaza Carmen Benítez"},"geometry":{"type":"Point","coordinates":[-5.9834433,37.3907289]}},{"type":"Feature","properties":{"id_hdad":6,"hermandad":"San Roque","calle":"Calle Recaredo","osm":"Calle Recaredo"},"geometry":{"type":"Point","coordinates":[-5.9840695,37.3917064]}},{"type":"Feature","properties":{"id_hdad":6,"hermandad":"San Roque","calle":"Calle Puñonrostro","osm":"Calle Puñonrostro"},"geometry":{"type":"Point","coordinates":[-5.9844187,37.393179]}},{"type":"Feature","properties":{"id_hdad":6,"hermandad":"San Roque","calle":"Calle Jáuregui","osm":"Calle Jáuregui"},"geometry":{"type":"Point","coordinates":[-5.9855565,37.3931279]}},{"type":"Feature","properties":{"id_hdad":6,"hermandad":"San Roque","calle":"Plaza Ponce de León","osm":"Plaza Ponce de León"},"geometry":{"type":"Point","coordinates":[-5.9874545,37.393084]}},{"type":"Feature","properties":{"id_hdad":6,"hermandad":"San Roque","calle":"Calle Juan de Mesa","osm":"Calle Juan de Mesa"},"geometry":{"type":"Point","coordinates":[-5.988267,37.392909]}},{"type":"Feature","properties":{"id_hdad":6,"hermandad":"San Roque","calle":"Calle Almirante Apodaca","osm":"Calle Almirante Apodaca"},"geometry":{"type":"Point","coordinates":[-5.989031,37.392704]}},{"type":"Feature","properties":{"id_hdad":6,"hermandad":"San Roque","calle":"Plaza de San Pedro","osm":"Plaza de San Pedro"},"geometry":{"type":"Point","coordinates":[-5.989692,37.392505]}},{"type":"Feature","properties":{"id_hdad":6,"hermandad":"San Roque","calle":"Calle Imagen","osm":"Calle Imagen"},"geometry":{"type":"Point","coordinates":[-5.99088,37.39261]}},{"type":"Feature","properties":{"id_hdad":6,"hermandad":"San Roque","calle":"Plaza de la Encarnación","osm":"Plaza de la Encarnación"},"geometry":{"type":"Point","coordinates":[-5.991499,37.3927]}},{"type":"Feature","properties":{"id_hdad":6,"hermandad":"San Roque","calle":"Calle Laraña","osm":"Calle Laraña"},"geometry":{"type":"Point","coordinates":[-5.992981,37.392804]}},{"type":"Feature","properties":{"id_hdad":6,"hermandad":"San Roque","calle":"Calle Orfila","osm":"Calle Orfila"},"geometry":{"type":"Point","coordinates":[-5.993689,37.393287]}},{"type":"Feature","properties":{"id_hdad":6,"hermandad":"San Roque","calle":"Calle Javier Lasso de la Vega","osm":"Calle Javier Lasso de la Vega"},"geometry":{"type":"Point","coordinates":[-5.994575,37.393545]}},{"type":"Feature","properties":{"id_hdad":6,"hermandad":"San Roque","calle":"Calle Trajano","osm":"Calle Trajano"},"geometry":{"type":"Point","coordinates":[-5.99537,37.393742]}},{"type":"Feature","properties":{"id_hdad":6,"hermandad":"San Roque","calle":"Plaza del Duque de la Victoria (lado derecho)","osm":"Plaza del Duque de la Victoria (lado derecho)"},"geometry":{"type":"Point","coordinates":[-5.995633,37.393113]}},{"type":"Feature","properties":{"id_hdad":6,"hermandad":"San Roque","calle":"La Campana","osm":"Calle Campana"},"geometry":{"type":"Point","coordinates":[-5.995376,37.392725]}},{"type":"Feature","properties":{"id_hdad":6,"hermandad":"San Roque","calle":"Calle Sierpes","osm":"Calle Sierpes"},"geometry":{"type":"Point","coordinates":[-5.9947885,37.3908748]}},{"type":"Feature","properties":{"id_hdad":6,"hermandad":"San Roque","calle":"Plaza de San Francisco","osm":"Plaza de San Francisco"},"geometry":{"type":"Point","coordinates":[-5.994154,37.38867]}},{"type":"Feature","properties":{"id_hdad":6,"hermandad":"San Roque","calle":"Avenida de la Constitución","osm":"Avenida de la Constitución"},"geometry":{"type":"Point","coordinates":[-5.994185,37.386838]}},{"type":"Feature","properties":{"id_hdad":6,"hermandad":"San Roque","calle":"Calle Cardenal Carlos Amigo","osm":"Calle Cardenal Carlos Amigo"},"geometry":{"type":"Point","coordinates":[-5.992537,37.386555]}},{"type":"Feature","properties":{"id_hdad":6,"hermandad":"San Roque","calle":"Calle Alemanes","osm":"Calle Alemanes"},"geometry":{"type":"Point","coordinates":[-5.992807,37.386777]}},{"type":"Feature","properties":{"id_hdad":6,"hermandad":"San Roque","calle":"Calle Álvarez Quintero","osm":"Calle Álvarez Quintero"},"geometry":{"type":"Point","coordinates":[-5.993054,37.386917]}},{"type":"Feature","properties":{"id_hdad":6,"hermandad":"San Roque","calle":"Calle Argote de Molina","osm":"Calle Argote de Molina"},"geometry":{"type":"Point","coordinates":[-5.992697,37.387288]}},{"type":"Feature","properties":{"id_hdad":6,"hermandad":"San Roque","calle":"Calle Placentines","osm":"Calle Placentines"},"geometry":{"type":"Point","coordinates":[-5.992594,37.387654]}},{"type":"Feature","properties":{"id_hdad":6,"hermandad":"San Roque","calle":"Calle Francos","osm":"Calle Francos"},"geometry":{"type":"Point","coordinates":[-5.992784,37.388285]}},{"type":"Feature","properties":{"id_hdad":6,"hermandad":"San Roque","calle":"Cuesta del Rosario","osm":"Calle Cuesta del Rosario"},"geometry":{"type":"Point","coordinates":[-5.991765,37.389785]}},{"type":"Feature","properties":{"id_hdad":6,"hermandad":"San Roque","calle":"Calle Jesús de las Tres Caídas","osm":"Calle Jesús de las Tres Caídas"},"geometry":{"type":"Point","coordinates":[-5.990668,37.389983]}},{"type":"Feature","properties":{"id_hdad":6,"hermandad":"San Roque","calle":"Calle Alfalfa","osm":"Calle Alfalfa"},"geometry":{"type":"Point","coordinates":[-5.989974,37.390022]}},{"type":"Feature","properties":{"id_hdad":6,"hermandad":"San Roque","calle":"Calle Cabeza del Rey Don Pedro","osm":"Calle Cabeza del Rey Don Pedro"},"geometry":{"type":"Point","coordinates":[-5.99003,37.3895097]}},{"type":"Feature","properties":{"id_hdad":6,"hermandad":"San Roque","calle":"Calle Boteros","osm":"Calle Boteros"},"geometry":{"type":"Point","coordinates":[-5.99075,37.3908772]}},{"type":"Feature","properties":{"id_hdad":6,"hermandad":"San Roque","calle":"Plaza de San Ildefonso","osm":"Plaza de San Ildefonso"},"geometry":{"type":"Point","coordinates":[-5.988716,37.3905804]}},{"type":"Feature","properties":{"id_hdad":6,"hermandad":"San Roque","calle":"Calle Caballerizas","osm":"Calle de las Caballerizas"},"geometry":{"type":"Point","coordinates":[-5.9877531,37.3901962]}},{"type":"Feature","properties":{"id_hdad":6,"hermandad":"San Roque","calle":"Plaza de Pilatos","osm":"Plaza de Pilatos"},"geometry":{"type":"Point","coordinates":[-5.987031,37.389815]}},{"type":"Feature","properties":{"id_hdad":6,"hermandad":"San Roque","calle":"Calle San Esteban","osm":"Calle San Esteban"},"geometry":{"type":"Point","coordinates":[-5.985444,37.389615]}},{"type":"Feature","properties":{"id_hdad":6,"hermandad":"San Roque","calle":"Calle Medinaceli","osm":"Calle Medinaceli"},"geometry":{"type":"Point","coordinates":[-5.9863071,37.3899133]}},{"type":"Feature","properties":{"id_hdad":6,"hermandad":"San Roque","calle":"Calle Imperial","osm":"Calle Imperial"},"geometry":{"type":"Point","coordinates":[-5.9876061,37.3909855]}},{"type":"Feature","properties":{"id_hdad":6,"hermandad":"San Roque","calle":"Calle Calería","osm":"Calle Caleria"},"geometry":{"type":"Point","coordinates":[-5.9864749,37.3904762]}},{"type":"Feature","properties":{"id_hdad":6,"hermandad":"San Roque","calle":"Calle Juan de la Encina","osm":"Calle Juan de la Encina"},"geometry":{"type":"Point","coordinates":[-5.9859108,37.3905462]}},{"type":"Feature","properties":{"id_hdad":6,"hermandad":"San Roque","calle":"Calle Guadalupe","osm":"Calle Guadalupe"},"geometry":{"type":"Point","coordinates":[-5.9847954,37.3905838]}},{"type":"Feature","properties":{"id_hdad":6,"hermandad":"San Roque","calle":"Calle Recaredo","osm":"Calle Recaredo"},"geometry":{"type":"Point","coordinates":[-5.9840695,37.3917064]}},{"type":"Feature","properties":{"id_hdad":6,"hermandad":"San Roque","calle":"Plaza Carmen Benítez","osm":"Plaza Carmen Benítez"},"geometry":{"type":"Point","coordinates":[-5.9834433,37.3907289]}}]}