{"type":"FeatureCollection","features":[{"type":"Feature","properties":{"id_hdad":8,"nombre":"La Amargura","dia":"domingo-de-ramos"},"geometry":{"type":"LineString","coordinates":[[-5.991111,37.395244],[-5.991431,37.395371],[-5.99123,37.395909],[-5.991192,37.396013],[-5.991225,37.396198],[-5.991228,37.396383],[-5.991197,37.39665],[-5.99118,37.396772],[-5.991192,37.396979],[-5.9913,37.397247],[-5.992017,37.397086],[-5.992536,37.396987],[-5.993216,37.397106],[-5.993312,37.397015],[-5.993513,37.396894],[-5.993802,37.396749],[-5.993946,37.396744],[-5.994098,37.396773],[-5.994374,37.39685],[-5.994618,37.396413],[-5.994787,37.396096],[-5.994908,37.395763],[-5.995151,37.394856],[-5.995272,37.39437],[-5.995298,37.393904],[-5.995446,37.393623],[-5.995615,37.39345],[-5.995644,37.393115],[-5.995643,37.39272],[-5.994924,37.392751],[-5.994797,37.391803],[-5.994542,37.390976],[-5.994258,37.389845],[-5.994175,37.389143],[-5.994151,37.388605],[-5.994169,37.388187],[-5.994296,37.388071],[-5.9943041,37.3879286],[-5.9942267,37.38731],[-5.9941493,37.386713],[-5.9940679,37.3860718],[-5.9940344,37.3857616],[-5.993999,37.385447],[-5.9934331,37.3854932],[-5.9929686,37.3855304],[-5.992619,37.385552],[-5.9926646,37.3858225],[-5.99271,37.386038],[-5.992325,37.386077],[-5.992343,37.386298],[-5.992461,37.386331],[-5.992523,37.386502],[-5.99252,37.386657],[-5.992542,37.386755],[-5.992745,37.386784],[-5.993037,37.386751],[-5.993054,37.386952],[-5.992903,37.387134],[-5.992485,37.387448],[-5.992658,37.387808],[-5.99277,37.388079],[-5.992774,37.388353],[-5.992739,37.388594],[-5.992652,37.388762],[-5.992579,37.389047],[-5.992548,37.389396],[-5.992496,37.389533],[-5.992354,37.389739],[-5.992781,37.389701],[-5.993087,37.389679],[-5.993148,37.390077],[-5.993169,37.390185],[-5.993243,37.390261],[-5.993364,37.390816],[-5.993467,37.391235],[-5.993506,37.391594],[-5.993571,37.392188],[-5.993653,37.392822],[-5.992981,37.392804],[-5.992232,37.392791],[-5.991583,37.392717],[-5.991508,37.392727],[-5.991465,37.392787],[-5.991425,37.393054],[-5.991362,37.393635],[-5.990883,37.393616],[-5.990453,37.393595],[-5.990418,37.393942],[-5.990366,37.394231],[-5.990316,37.394559],[-5.99027,37.394863],[-5.991097,37.39524]]}},{"type":"Feature","properties":{"id_hdad":8,"hermandad":"La Amargura","calle":"Calle San Juan de la Palma","osm":"Calle San Juan de la Palma"},"geometry":{"type":"Point","coordinates":[-5.991095,37.39524]}},{"type":"Feature","properties":{"id_hdad":8,"hermandad":"La Amargura","calle":"Calle Feria","osm":"Calle Feria"},"geometry":{"type":"Point","coordinates":[-5.99132,37.395688]}},{"type":"Feature","properties":{"id_hdad":8,"hermandad":"La Amargura","calle":"Calle Conde de Torrejón","osm":"Calle Conde de Torrejón"},"geometry":{"type":"Point","coordinates":[-5.992704,37.397012]}},{"type":"Feature","properties":{"id_hdad":8,"hermandad":"La Amargura","calle":"Alameda de Hércules","osm":"Alameda de Hércules"},"geometry":{"type":"Point","coordinates":[-5.994027,37.396751]}},{"type":"Feature","properties":{"id_hdad":8,"hermandad":"La Amargura","calle":"Calle Trajano","osm":"Calle Trajano"},"geometry":{"type":"Point","coordinates":[-5.995298,37.393904]}},{"type":"Feature","properties":{"id_hdad":8,"hermandad":"La Amargura","calle":"Plaza del Duque de la Victoria (lado derecho)","osm":"Plaza del Duque de la Victoria (lado derecho)"},"geometry":{"type":"Point","coordinates":[-5.995633,37.393113]}},{"type":"Feature","properties":{"id_hdad":8,"hermandad":"La Amargura","calle":"La Campana","osm":"Calle Campana"},"geometry":{"type":"Point","coordinates":[-5.995376,37.392725]}},{"type":"Feature","properties":{"id_hdad":8,"hermandad":"La Amargura","calle":"Calle Sierpes","osm":"Calle Sierpes"},"geometry":{"type":"Point","coordinates":[-5.994521,37.390938]}},{"type":"Feature","properties":{"id_hdad":8,"hermandad":"La Amargura","calle":"Plaza de San Francisco","osm":"Plaza de San Francisco"},"geometry":{"type":"Point","coordinates":[-5.994167,37.388609]}},{"type":"Feature","properties":{"id_hdad":8,"hermandad":"La Amargura","calle":"Avenida de la Constitución","osm":"Avenida de la Constitución"},"geometry":{"type":"Point","coordinates":[-5.994185,37.386838]}},{"type":"Feature","properties":{"id_hdad":8,"hermandad":"La Amargura","calle":"Calle Cardenal Carlos Amigo","osm":"Calle Cardenal Carlos Amigo"},"geometry":{"type":"Point","coordinates":[-5.992537,37.386555]}},{"type":"Feature","properties":{"id_hdad":8,"hermandad":"La Amargura","calle":"Calle Alemanes","osm":"Calle Alemanes"},"geometry":{"type":"Point","coordinates":[-5.992807,37.386777]}},{"type":"Feature","properties":{"id_hdad":8,"hermandad":"La Amargura","calle":"Calle Álvarez Quintero","osm":"Calle Álvarez Quintero"},"geometry":{"type":"Point","coordinates":[-5.993054,37.386917]}},{"type":"Feature","properties":{"id_hdad":8,"hermandad":"La Amargura","calle":"Calle Argote de Molina","osm":"Calle Argote de Molina"},"geometry":{"type":"Point","coordinates":[-5.992697,37.387288]}},{"type":"Feature","properties":{"id_hdad":8,"hermandad":"La Amargura","calle":"Calle Placentines","osm":"Calle Placentines"},"geometry":{"type":"Point","coordinates":[-5.992594,37.387654]}},{"type":"Feature","properties":{"id_hdad":8,"hermandad":"La Amargura","calle":"Calle Francos","osm":"Calle Francos"},"geometry":{"type":"Point","coordinates":[-5.992765,37.388268]}},{"type":"Feature","properties":{"id_hdad":8,"hermandad":"La Amargura","calle":"Calle Villegas","osm":"Calle Villegas"},"geometry":{"type":"Point","coordinates":[-5.992781,37.389701]}},{"type":"Feature","properties":{"id_hdad":8,"hermandad":"La Amargura","calle":"Plaza del Salvador","osm":"Plaza del Salvador"},"geometry":{"type":"Point","coordinates":[-5.993152,37.390033]}},{"type":"Feature","properties":{"id_hdad":8,"hermandad":"La Amargura","calle":"Calle Cuna","osm":"Calle Cuna"},"geometry":{"type":"Point","coordinates":[-5.993467,37.391601]}},{"type":"Feature","properties":{"id_hdad":8,"hermandad":"La Amargura","calle":"Calle Laraña","osm":"Calle Laraña"},"geometry":{"type":"Point","coordinates":[-5.992981,37.392804]}},{"type":"Feature","properties":{"id_hdad":8,"hermandad":"La Amargura","calle":"Plaza de la Encarnación","osm":"Plaza de la Encarnación"},"geometry":{"type":"Point","coordinates":[-5.991857,37.392743]}},{"type":"Feature","properties":{"id_hdad":8,"hermandad":"La Amargura","calle":"Calle Alcázares","osm":"Calle Alcázares"},"geometry":{"type":"Point","coordinates":[-5.990883,37.393616]}},{"type":"Feature","properties":{"id_hdad":8,"hermandad":"La Amargura","calle":"Calle Santa Ángela de la Cruz","osm":"Calle Santa Ángela de la Cruz"},"geometry":{"type":"Point","coordinates":[-5.990366,37.394231]}},{"type":"Feature","properties":{"id_hdad":8,"hermandad":"La Amargura","calle":"Calle San Juan de la Palma","osm":"Calle San Juan de la Palma"},"geometry":{"type":"Point","coordinates":[-5.991095,37.39524]}}]}