{
  "type": "FeatureCollection",
  "features": [
    {
      "type": "Feature",
      "properties": {
        "id_hdad": 9,
        "nombre": "El Amor",
        "dia": "domingo-de-ramos"
      },
      "geometry": {
        "type": "LineString",
        "coordinates": [
          [
            -5.992936,
            37.390028
          ],
          [
            -5.993129,
            37.390002
          ],
          [
            -5.993178,
            37.39017
          ],
          [
            -5.99326,
            37.390287
          ],
          [
            -5.993503,
            37.391365
          ],
          [
            -5.993693,
            37.393394
          ],
          [
            -5.993838,
            37.393693
          ],
          [
            -5.994298,
            37.393596
          ],
          [
            -5.994758,
            37.39352
          ],
          [
            -5.994764,
            37.394303
          ],
          [
            -5.995341,
            37.394358
          ],
          [
            -5.995349,
            37.3943531
          ],
          [
            -5.9956421,
            37.3944101
          ],
          [
            -5.9959065,
            37.3944789
          ],
          [
            -5.9959409,
            37.3942843
          ],
          [
            -5.995978500352905,
            37.3940198419956
          ],
          [
            -5.9959864,
            37.3938914
          ],
          [
            -5.9959496,
            37.3937209
          ],
          [
            -5.9959193,
            37.3936073
          ],
          [
            -5.9959583,
            37.3934438
          ],
          [
            -5.996046,
            37.393115
          ],
          [
            -5.9960975,
            37.392915
          ],
          [
            -5.9961387,
            37.3927242
          ],
          [
            -5.9958656,
            37.392719
          ],
          [
            -5.9955948,
            37.3927173
          ],
          [
            -5.9954756,
            37.3927173
          ],
          [
            -5.995376,
            37.392725
          ],
          [
            -5.994924,
            37.392751
          ],
          [
            -5.994861,
            37.3922847
          ],
          [
            -5.994797,
            37.391803
          ],
          [
            -5.9946698,
            37.3913397
          ],
          [
            -5.9945161,
            37.3909308
          ],
          [
            -5.9943917,
            37.3904014
          ],
          [
            -5.994327,
            37.3901151
          ],
          [
            -5.9942735,
            37.3898019
          ],
          [
            -5.9941991,
            37.3894656
          ],
          [
            -5.994175,
            37.389143
          ],
          [
            -5.994154,
            37.38867
          ],
          [
            -5.994169,
            37.388187
          ],
          [
            -5.994296,
            37.388071
          ],
          [
            -5.9943041,
            37.3879286
          ],
          [
            -5.9942267,
            37.38731
          ],
          [
            -5.9941493,
            37.386713
          ],
          [
            -5.9940679,
            37.3860718
          ],
          [
            -5.9940344,
            37.3857616
          ],
          [
            -5.993999,
            37.385447
          ],
          [
            -5.9934331,
            37.3854932
          ],
          [
            -5.9929686,
            37.3855304
          ],
          [
            -5.992619,
            37.385552
          ],
          [
            -5.9926646,
            37.3858225
          ],
          [
            -5.99271,
            37.386038
          ],
          [
            -5.992325,
            37.386077
          ],
          [
            -5.992365,
            37.386288
          ],
          [
            -5.9924408,
            37.3863144
          ],
          [
            -5.9924973,
            37.3863647
          ],
          [
            -5.9925107,
            37.3865266
          ],
          [
            -5.992515,
            37.38666
          ],
          [
            -5.992549,
            37.386763
          ],
          [
            -5.992807,
            37.386777
          ],
          [
            -5.993037,
            37.386751
          ],
          [
            -5.993054,
            37.386917
          ],
          [
            -5.9930245,
            37.3870101
          ],
          [
            -5.9929267,
            37.3871073
          ],
          [
            -5.992697,
            37.387288
          ],
          [
            -5.992489,
            37.387452
          ],
          [
            -5.992594,
            37.387654
          ],
          [
            -5.992704,
            37.387858
          ],
          [
            -5.99277,
            37.38804
          ],
          [
            -5.99271,
            37.388333
          ],
          [
            -5.992748,
            37.388584
          ],
          [
            -5.992999,
            37.388611
          ]
        ]
      }
    },
    {
      "type": "Feature",
      "properties": {
        "id_hdad": 9,
        "hermandad": "El Amor",
        "calle": "Plaza del Salvador",
        "osm": "Plaza del Salvador"
      },
      "geometry": {
        "type": "Point",
        "coordinates": [
          -5.992935,
          37.390009
        ]
      }
    },
    {
      "type": "Feature",
      "properties": {
        "id_hdad": 9,
        "hermandad": "El Amor",
        "calle": "Calle Cuna",
        "osm": "Calle Cuna"
      },
      "geometry": {
        "type": "Point",
        "coordinates": [
          -5.9934667,
          37.3916005
        ]
      }
    },
    {
      "type": "Feature",
      "properties": {
        "id_hdad": 9,
        "hermandad": "El Amor",
        "calle": "Calle Orfila",
        "osm": "Calle Orfila"
      },
      "geometry": {
        "type": "Point",
        "coordinates": [
          -5.9937493,
          37.3932616
        ]
      }
    },
    {
      "type": "Feature",
      "properties": {
        "id_hdad": 9,
        "hermandad": "El Amor",
        "calle": "Calle Javier Lasso de la Vega",
        "osm": "Calle Javier Lasso de la Vega"
      },
      "geometry": {
        "type": "Point",
        "coordinates": [
          -5.994449,
          37.393596
        ]
      }
    },
    {
      "type": "Feature",
      "properties": {
        "id_hdad": 9,
        "hermandad": "El Amor",
        "calle": "Calle Amor de Dios",
        "osm": "Calle Amor de Dios"
      },
      "geometry": {
        "type": "Point",
        "coordinates": [
          -5.994758,
          37.393914
        ]
      }
    },
    {
      "type": "Feature",
      "properties": {
        "id_hdad": 9,
        "hermandad": "El Amor",
        "calle": "Calle San Miguel",
        "osm": "Calle San Miguel"
      },
      "geometry": {
        "type": "Point",
        "coordinates": [
          -5.995328,
          37.394392
        ]
      }
    },
    {
      "type": "Feature",
      "properties": {
        "id_hdad": 9,
        "hermandad": "El Amor",
        "calle": "Calle Jesús del Gran Poder",
        "osm": "Calle Jesús del Gran Poder"
      },
      "geometry": {
        "type": "Point",
        "coordinates": [
          -5.995978500352905,
          37.3940198419956
        ]
      }
    },
    {
      "type": "Feature",
      "properties": {
        "id_hdad": 9,
        "hermandad": "El Amor",
        "calle": "Plaza del Duque de la Victoria",
        "osm": "Plaza del Duque de la Victoria"
      },
      "geometry": {
        "type": "Point",
        "coordinates": [
          -5.996046,
          37.393115
        ]
      }
    },
    {
      "type": "Feature",
      "properties": {
        "id_hdad": 9,
        "hermandad": "El Amor",
        "calle": "La Campana",
        "osm": "Calle Campana"
      },
      "geometry": {
        "type": "Point",
        "coordinates": [
          -5.995376,
          37.392725
        ]
      }
    },
    {
      "type": "Feature",
      "properties": {
        "id_hdad": 9,
        "hermandad": "El Amor",
        "calle": "Calle Sierpes",
        "osm": "Calle Sierpes"
      },
      "geometry": {
        "type": "Point",
        "coordinates": [
          -5.9947885,
          37.3908748
        ]
      }
    },
    {
      "type": "Feature",
      "properties": {
        "id_hdad": 9,
        "hermandad": "El Amor",
        "calle": "Plaza de San Francisco",
        "osm": "Plaza de San Francisco"
      },
      "geometry": {
        "type": "Point",
        "coordinates": [
          -5.994154,
          37.38867
        ]
      }
    },
    {
      "type": "Feature",
      "properties": {
        "id_hdad": 9,
        "hermandad": "El Amor",
        "calle": "Avenida de la Constitución",
        "osm": "Avenida de la Constitución"
      },
      "geometry": {
        "type": "Point",
        "coordinates": [
          -5.994185,
          37.386838
        ]
      }
    },
    {
      "type": "Feature",
      "properties": {
        "id_hdad": 9,
        "hermandad": "El Amor",
        "calle": "Calle Cardenal Carlos Amigo",
        "osm": "Calle Cardenal Carlos Amigo"
      },
      "geometry": {
        "type": "Point",
        "coordinates": [
          -5.992537,
          37.386555
        ]
      }
    },
    {
      "type": "Feature",
      "properties": {
        "id_hdad": 9,
        "hermandad": "El Amor",
        "calle": "Calle Alemanes",
        "osm": "Calle Alemanes"
      },
      "geometry": {
        "type": "Point",
        "coordinates": [
          -5.992807,
          37.386777
        ]
      }
    },
    {
      "type": "Feature",
      "properties": {
        "id_hdad": 9,
        "hermandad": "El Amor",
        "calle": "Calle Álvarez Quintero",
        "osm": "Calle Álvarez Quintero"
      },
      "geometry": {
        "type": "Point",
        "coordinates": [
          -5.993054,
          37.386917
        ]
      }
    },
    {
      "type": "Feature",
      "properties": {
        "id_hdad": 9,
        "hermandad": "El Amor",
        "calle": "Calle Argote de Molina",
        "osm": "Calle Argote de Molina"
      },
      "geometry": {
        "type": "Point",
        "coordinates": [
          -5.992697,
          37.387288
        ]
      }
    },
    {
      "type": "Feature",
      "properties": {
        "id_hdad": 9,
        "hermandad": "El Amor",
        "calle": "Calle Placentines",
        "osm": "Calle Placentines"
      },
      "geometry": {
        "type": "Point",
        "coordinates": [
          -5.992594,
          37.387654
        ]
      }
    },
    {
      "type": "Feature",
      "properties": {
        "id_hdad": 9,
        "hermandad": "El Amor",
        "calle": "Calle Francos",
        "osm": "Calle Francos"
      },
      "geometry": {
        "type": "Point",
        "coordinates": [
          -5.99271,
          37.388333
        ]
      }
    },
    {
      "type": "Feature",
      "properties": {
        "id_hdad": 9,
        "hermandad": "El Amor",
        "calle": "Calle Chapineros",
        "osm": "Calle Chapineros"
      },
      "geometry": {
        "type": "Point",
        "coordinates": [
          -5.992999,
          37.388611
        ]
      }
    }
  ]
}
