{"type":"FeatureCollection","features":[{"type":"Feature","properties":{"id_hdad":10,"nombre":"San Pablo","dia":"lunes-santo"},"geometry":{"type":"LineString","coordinates":[[-5.9611599,37.3978305],[-5.98221,37.388102],[-5.983147,37.388664],[-5.984131,37.389047],[-5.984472,37.389187],[-5.9846,37.389231],[-5.985444,37.389615],[-5.987031,37.389815],[-5.987752,37.389879],[-5.989974,37.390022],[-5.990668,37.389983],[-5.991877737588801,37.389764333519445],[-5.99276171628195,37.38971492214055],[-5.993273,37.38953],[-5.99373,37.38936],[-5.9939092,37.3892628],[-5.994154,37.38867],[-5.994169,37.388187],[-5.994296,37.388071],[-5.9943041,37.3879286],[-5.9942267,37.38731],[-5.9941493,37.386713],[-5.9940679,37.3860718],[-5.9940344,37.3857616],[-5.993999,37.385447],[-5.9934331,37.3854932],[-5.9929686,37.3855304],[-5.992619,37.385552],[-5.9926646,37.3858225],[-5.99271,37.386038],[-5.992325,37.386077],[-5.992365,37.386288],[-5.992537,37.386555],[-5.992515,37.38666],[-5.992549,37.386763],[-5.992807,37.386777],[-5.993037,37.386751],[-5.993054,37.386917],[-5.9930245,37.3870101],[-5.9929267,37.3871073],[-5.992697,37.387288],[-5.992489,37.387452],[-5.992594,37.387654],[-5.992704,37.387858],[-5.99277,37.38804],[-5.99271,37.388333],[-5.9923836,37.3907074],[-5.991499,37.3927],[-5.99088,37.39261],[-5.989692,37.392505],[-5.989031,37.392704],[-5.988267,37.392909],[-5.9874545,37.393084],[-5.984483,37.3938976],[-5.9841545,37.3942804],[-5.9836419,37.3946234],[-5.9837122,37.3938292],[-5.9611599,37.3978305],[-5.9968379,37.390749]]}},{"type":"Feature","properties":{"id_hdad":10,"hermandad":"San Pablo","calle":"Avenida de Pedro Romero","osm":"Avenida de Pedro Romero"},"geometry":{"type":"Point","coordinates":[-5.9611599,37.3978305]}},{"type":"Feature","properties":{"id_hdad":10,"hermandad":"San Pablo","calle":"Calle Luis Montoto","osm":"Calle Luis Montoto"},"geometry":{"type":"Point","coordinates":[-5.98221,37.388102]}},{"type":"Feature","properties":{"id_hdad":10,"hermandad":"San Pablo","calle":"Calle Puerta de Carmona","osm":"Calle Puerta de Carmona"},"geometry":{"type":"Point","coordinates":[-5.9846,37.389231]}},{"type":"Feature","properties":{"id_hdad":10,"hermandad":"San Pablo","calle":"Calle San Esteban","osm":"Calle San Esteban"},"geometry":{"type":"Point","coordinates":[-5.985444,37.389615]}},{"type":"Feature","properties":{"id_hdad":10,"hermandad":"San Pablo","calle":"Plaza de Pilatos","osm":"Plaza de Pilatos"},"geometry":{"type":"Point","coordinates":[-5.987031,37.389815]}},{"type":"Feature","properties":{"id_hdad":10,"hermandad":"San Pablo","calle":"Calle Águilas","osm":"Calle Águilas"},"geometry":{"type":"Point","coordinates":[-5.987752,37.389879]}},{"type":"Feature","properties":{"id_hdad":10,"hermandad":"San Pablo","calle":"Calle Alfalfa","osm":"Calle Alfalfa"},"geometry":{"type":"Point","coordinates":[-5.989974,37.390022]}},{"type":"Feature","properties":{"id_hdad":10,"hermandad":"San Pablo","calle":"Calle Jesús de las Tres Caídas","osm":"Calle Jesús de las Tres Caídas"},"geometry":{"type":"Point","coordinates":[-5.990668,37.389983]}},{"type":"Feature","properties":{"id_hdad":10,"hermandad":"San Pablo","calle":"Cuesta del Rosario","osm":"Calle Cuesta del Rosario"},"geometry":{"type":"Point","coordinates":[-5.991877737588801,37.389764333519445]}},{"type":"Feature","properties":{"id_hdad":10,"hermandad":"San Pablo","calle":"Calle Villegas","osm":"Calle Villegas"},"geometry":{"type":"Point","coordinates":[-5.99276171628195,37.38971492214055]}},{"type":"Feature","properties":{"id_hdad":10,"hermandad":"San Pablo","calle":"Calle Álvarez Quintero","osm":"Calle Álvarez Quintero"},"geometry":{"type":"Point","coordinates":[-5.993273,37.38953]}},{"type":"Feature","properties":{"id_hdad":10,"hermandad":"San Pablo","calle":"Calle Entrecárceles","osm":"Calle Entrecárceles"},"geometry":{"type":"Point","coordinates":[-5.99373,37.38936]}},{"type":"Feature","properties":{"id_hdad":10,"hermandad":"San Pablo","calle":"Calle Francisco Bruna","osm":"Calle Francisco Bruna"},"geometry":{"type":"Point","coordinates":[-5.9939092,37.3892628]}},{"type":"Feature","properties":{"id_hdad":10,"hermandad":"San Pablo","calle":"Plaza de San Francisco","osm":"Plaza de San Francisco"},"geometry":{"type":"Point","coordinates":[-5.994154,37.38867]}},{"type":"Feature","properties":{"id_hdad":10,"hermandad":"San Pablo","calle":"Calle Granada","osm":"Calle Granada"},"geometry":{"type":"Point","coordinates":[-5.9944989,37.3890801]}},{"type":"Feature","properties":{"id_hdad":10,"hermandad":"San Pablo","calle":"Plaza Nueva","osm":"Plaza Nueva"},"geometry":{"type":"Point","coordinates":[-5.9949315,37.3886551]}},{"type":"Feature","properties":{"id_hdad":10,"hermandad":"San Pablo","calle":"Calle Tetuán","osm":"Calle Tetuán"},"geometry":{"type":"Point","coordinates":[-5.9951669,37.3902317]}},{"type":"Feature","properties":{"id_hdad":10,"hermandad":"San Pablo","calle":"Calle Velázquez","osm":"Calle Velázquez"},"geometry":{"type":"Point","coordinates":[-5.9954035,37.3911654]}},{"type":"Feature","properties":{"id_hdad":10,"hermandad":"San Pablo","calle":"Calle O'Donnell","osm":"Calle O'Donnell"},"geometry":{"type":"Point","coordinates":[-5.995454,37.392155]}},{"type":"Feature","properties":{"id_hdad":10,"hermandad":"San Pablo","calle":"Plaza del Duque de la Victoria (lado derecho)","osm":"Plaza del Duque de la Victoria (lado derecho"},"geometry":{"type":"Point","coordinates":[-5.99564,37.393105]}},{"type":"Feature","properties":{"id_hdad":10,"hermandad":"San Pablo","calle":"La Campana","osm":"Calle Campana"},"geometry":{"type":"Point","coordinates":[-5.995376,37.392725]}},{"type":"Feature","properties":{"id_hdad":10,"hermandad":"San Pablo","calle":"Calle Sierpes","osm":"Calle Sierpes"},"geometry":{"type":"Point","coordinates":[-5.9947885,37.3908748]}},{"type":"Feature","properties":{"id_hdad":10,"hermandad":"San Pablo","calle":"Plaza de San Francisco","osm":"Plaza de San Francisco"},"geometry":{"type":"Point","coordinates":[-5.994154,37.38867]}},{"type":"Feature","properties":{"id_hdad":10,"hermandad":"San Pablo","calle":"Avenida de la Constitución","osm":"Avenida de la Constitución"},"geometry":{"type":"Point","coordinates":[-5.994185,37.386838]}},{"type":"Feature","properties":{"id_hdad":10,"hermandad":"San Pablo","calle":"Calle Cardenal Carlos Amigo","osm":"Calle Cardenal Carlos Amigo"},"geometry":{"type":"Point","coordinates":[-5.992537,37.386555]}},{"type":"Feature","properties":{"id_hdad":10,"hermandad":"San Pablo","calle":"Calle Alemanes","osm":"Calle Alemanes"},"geometry":{"type":"Point","coordinates":[-5.992807,37.386777]}},{"type":"Feature","properties":{"id_hdad":10,"hermandad":"San Pablo","calle":"Calle Álvarez Quintero","osm":"Calle Álvarez Quintero"},"geometry":{"type":"Point","coordinates":[-5.993054,37.386917]}},{"type":"Feature","properties":{"id_hdad":10,"hermandad":"San Pablo","calle":"Calle Argote de Molina","osm":"Calle Argote de Molina"},"geometry":{"type":"Point","coordinates":[-5.992697,37.387288]}},{"type":"Feature","properties":{"id_hdad":10,"hermandad":"San Pablo","calle":"Calle Placentines","osm":"Calle Placentines"},"geometry":{"type":"Point","coordinates":[-5.992594,37.387654]}},{"type":"Feature","properties":{"id_hdad":10,"hermandad":"San Pablo","calle":"Calle Francos","osm":"Calle Francos"},"geometry":{"type":"Point","coordinates":[-5.99271,37.388333]}},{"type":"Feature","properties":{"id_hdad":10,"hermandad":"San Pablo","calle":"Calle Lineros","osm":"Calle Lineros"},"geometry":{"type":"Point","coordinates":[-5.9923836,37.3907074]}},{"type":"Feature","properties":{"id_hdad":10,"hermandad":"San Pablo","calle":"Plaza de la Encarnación","osm":"Plaza de la Encarnación"},"geometry":{"type":"Point","coordinates":[-5.991499,37.3927]}},{"type":"Feature","properties":{"id_hdad":10,"hermandad":"San Pablo","calle":"Calle Imagen","osm":"Calle Imagen"},"geometry":{"type":"Point","coordinates":[-5.99088,37.39261]}},{"type":"Feature","properties":{"id_hdad":10,"hermandad":"San Pablo","calle":"Plaza de San Pedro","osm":"Plaza de San Pedro"},"geometry":{"type":"Point","coordinates":[-5.989692,37.392505]}},{"type":"Feature","properties":{"id_hdad":10,"hermandad":"San Pablo","calle":"Calle Almirante Apodaca","osm":"Calle Almirante Apodaca"},"geometry":{"type":"Point","coordinates":[-5.989031,37.392704]}},{"type":"Feature","properties":{"id_hdad":10,"hermandad":"San Pablo","calle":"Calle Juan de Mesa","osm":"Calle Juan de Mesa"},"geometry":{"type":"Point","coordinates":[-5.988267,37.392909]}},{"type":"Feature","properties":{"id_hdad":10,"hermandad":"San Pablo","calle":"Plaza de Ponce de León","osm":"Plaza Ponce de León"},"geometry":{"type":"Point","coordinates":[-5.9874545,37.393084]}},{"type":"Feature","properties":{"id_hdad":10,"hermandad":"San Pablo","calle":"Calle Pinto","osm":"Calle Pinto"},"geometry":{"type":"Point","coordinates":[-5.984483,37.3938976]}},{"type":"Feature","properties":{"id_hdad":10,"hermandad":"San Pablo","calle":"Calle Valle","osm":"Calle Valle"},"geometry":{"type":"Point","coordinates":[-5.9841545,37.3942804]}},{"type":"Feature","properties":{"id_hdad":10,"hermandad":"San Pablo","calle":"Calle Mateos","osm":"Calle Mateos"},"geometry":{"type":"Point","coordinates":[-5.9836419,37.3946234]}},{"type":"Feature","properties":{"id_hdad":10,"hermandad":"San Pablo","calle":"Calle María Auxiliadora","osm":"Calle María Auxiliadora"},"geometry":{"type":"Point","coordinates":[-5.9837122,37.3938292]}},{"type":"Feature","properties":{"id_hdad":10,"hermandad":"San Pablo","calle":"Avenida de Pedro Romero","osm":"Avenida de Pedro Romero"},"geometry":{"type":"Point","coordinates":[-5.9611599,37.3978305]}},{"type":"Feature","properties":{"id_hdad":10,"hermandad":"San Pablo","calle":"Plaza de la Magdalena","osm":"Plaza de la Magdalena"},"geometry":{"type":"Point","coordinates":[-5.9968379,37.390749]}}]}