{"type":"FeatureCollection","features":[{"type":"Feature","properties":{"id_hdad":12,"nombre":"Santa Genoveva","dia":"lunes-santo"},"geometry":{"type":"LineString","coordinates":[[-5.9765845,37.3680814],[-5.9762186,37.3706933],[-5.9830462,37.3739611],[-5.9835757,37.3736588],[-5.9861333,37.3741971],[-5.9888909,37.3784208],[-5.9935431,37.3814606],[-5.9932803,37.3823377],[-5.9936639,37.3834745],[-5.994256,37.385126],[-5.9946016,37.3850918],[-5.9947139,37.3852071],[-5.9948075,37.3852443],[-5.9949572,37.3852368],[-5.995197,37.385176],[-5.9953598,37.3851215],[-5.9953224,37.3852665],[-5.9954066,37.3856467],[-5.9953972,37.3856197],[-5.9954957,37.3857758],[-5.9961928,37.3861699],[-5.9961737,37.3862092],[-5.9961081,37.3862154],[-5.9961784,37.3863579],[-5.9963303,37.3864856],[-5.9961075,37.3871925],[-5.9955391,37.3877253],[-5.995501,37.3879628],[-5.9949315,37.3886551],[-5.9951669,37.3902317],[-5.9953197,37.3907871],[-5.9954035,37.3911654],[-5.9954456,37.3918072],[-5.995454,37.392155],[-5.99564,37.393105],[-5.995631,37.392901],[-5.995376,37.392725],[-5.994924,37.392751],[-5.994797,37.391803],[-5.9945202,37.3909414],[-5.994258,37.389845],[-5.994175,37.389143],[-5.994154,37.38867],[-5.994185,37.386838],[-5.992479,37.3842205],[-5.992534,37.383679],[-5.9928723,37.383241],[-5.9932597,37.3823431],[-5.9909424,37.38181],[-5.9888887,37.3784226],[-5.9861333,37.3741971],[-5.9838521,37.3737036],[-5.9830462,37.3739611],[-5.9765845,37.3680814],[-5.9968379,37.390749],[-5.9977813,37.3878196],[-5.9976929,37.3878993]]}},{"type":"Feature","properties":{"id_hdad":12,"hermandad":"Santa Genoveva","calle":"Calle Romero de Torres","osm":"Calle Romero de Torres"},"geometry":{"type":"Point","coordinates":[-5.9765845,37.3680814]}},{"type":"Feature","properties":{"id_hdad":12,"hermandad":"Santa Genoveva","calle":"Calle Almirante Topete","osm":"Calle Almirante Topete"},"geometry":{"type":"Point","coordinates":[-5.9762186,37.3706933]}},{"type":"Feature","properties":{"id_hdad":12,"hermandad":"Santa Genoveva","calle":"Calle Río de la Plata","osm":"Calle Río de la Plata"},"geometry":{"type":"Point","coordinates":[-5.9830462,37.3739611]}},{"type":"Feature","properties":{"id_hdad":12,"hermandad":"Santa Genoveva","calle":"Calle Brasil","osm":"Calle Brasil"},"geometry":{"type":"Point","coordinates":[-5.9835757,37.3736588]}},{"type":"Feature","properties":{"id_hdad":12,"hermandad":"Santa Genoveva","calle":"Avenida de Covadonga","osm":"Glorieta Covadonga"},"geometry":{"type":"Point","coordinates":[-5.9861333,37.3741971]}},{"type":"Feature","properties":{"id_hdad":12,"hermandad":"Santa Genoveva","calle":"Avenida de Isabel la Católica","osm":"Avenida Isabel la Católica"},"geometry":{"type":"Point","coordinates":[-5.9888909,37.3784208]}},{"type":"Feature","properties":{"id_hdad":12,"hermandad":"Santa Genoveva","calle":"Avenida de Roma","osm":"Avenida de Roma"},"geometry":{"type":"Point","coordinates":[-5.9935431,37.3814606]}},{"type":"Feature","properties":{"id_hdad":12,"hermandad":"Santa Genoveva","calle":"Plaza Puerta de Jerez","osm":"Plaza Puerta de Jerez"},"geometry":{"type":"Point","coordinates":[-5.9932803,37.3823377]}},{"type":"Feature","properties":{"id_hdad":12,"hermandad":"Santa Genoveva","calle":"Avenida de la Constitución","osm":"Avenida de la Constitución"},"geometry":{"type":"Point","coordinates":[-5.9936639,37.3834745]}},{"type":"Feature","properties":{"id_hdad":12,"hermandad":"Santa Genoveva","calle":"Calle Almirantazgo","osm":"Calle Almirantazgo"},"geometry":{"type":"Point","coordinates":[-5.994256,37.385126]}},{"type":"Feature","properties":{"id_hdad":12,"hermandad":"Santa Genoveva","calle":"Calle Arco del Postigo","osm":"Calle Arco del Postigo"},"geometry":{"type":"Point","coordinates":[-5.9949572,37.3852368]}},{"type":"Feature","properties":{"id_hdad":12,"hermandad":"Santa Genoveva","calle":"Calle Dos de Mayo","osm":"Calle Dos de Mayo"},"geometry":{"type":"Point","coordinates":[-5.995197,37.385176]}},{"type":"Feature","properties":{"id_hdad":12,"hermandad":"Santa Genoveva","calle":"Calle Arfe","osm":"Calle Arfe"},"geometry":{"type":"Point","coordinates":[-5.9954066,37.3856467]}},{"type":"Feature","properties":{"id_hdad":12,"hermandad":"Santa Genoveva","calle":"Calle Puerta del Arenal","osm":"Calle Puerta del Arenal"},"geometry":{"type":"Point","coordinates":[-5.9961081,37.3862154]}},{"type":"Feature","properties":{"id_hdad":12,"hermandad":"Santa Genoveva","calle":"Calle Castelar","osm":"Calle Castelar"},"geometry":{"type":"Point","coordinates":[-5.9963303,37.3864856]}},{"type":"Feature","properties":{"id_hdad":12,"hermandad":"Santa Genoveva","calle":"Calle Gamazo","osm":"Calle Gamazo"},"geometry":{"type":"Point","coordinates":[-5.9961075,37.3871925]}},{"type":"Feature","properties":{"id_hdad":12,"hermandad":"Santa Genoveva","calle":"Calle Joaquín Guichot","osm":"Calle Joaquín Guichot"},"geometry":{"type":"Point","coordinates":[-5.9955391,37.3877253]}},{"type":"Feature","properties":{"id_hdad":12,"hermandad":"Santa Genoveva","calle":"Calle Barcelona","osm":"Calle Barcelona"},"geometry":{"type":"Point","coordinates":[-5.995501,37.3879628]}},{"type":"Feature","properties":{"id_hdad":12,"hermandad":"Santa Genoveva","calle":"Plaza Nueva","osm":"Plaza Nueva"},"geometry":{"type":"Point","coordinates":[-5.9949315,37.3886551]}},{"type":"Feature","properties":{"id_hdad":12,"hermandad":"Santa Genoveva","calle":"Calle Tetuán","osm":"Calle Tetuán"},"geometry":{"type":"Point","coordinates":[-5.9951669,37.3902317]}},{"type":"Feature","properties":{"id_hdad":12,"hermandad":"Santa Genoveva","calle":"Calle Velázquez","osm":"Calle Velázquez"},"geometry":{"type":"Point","coordinates":[-5.9954035,37.3911654]}},{"type":"Feature","properties":{"id_hdad":12,"hermandad":"Santa Genoveva","calle":"Calle O'Donnell","osm":"Calle O'Donnell"},"geometry":{"type":"Point","coordinates":[-5.995454,37.392155]}},{"type":"Feature","properties":{"id_hdad":12,"hermandad":"Santa Genoveva","calle":"Plaza del Duque de la Victoria (lado derecho)","osm":"Plaza del Duque de la Victoria (lado derecho"},"geometry":{"type":"Point","coordinates":[-5.99564,37.393105]}},{"type":"Feature","properties":{"id_hdad":12,"hermandad":"Santa Genoveva","calle":"La Campana","osm":"Calle Campana"},"geometry":{"type":"Point","coordinates":[-5.995376,37.392725]}},{"type":"Feature","properties":{"id_hdad":12,"hermandad":"Santa Genoveva","calle":"Calle Sierpes","osm":"Calle Sierpes"},"geometry":{"type":"Point","coordinates":[-5.9947885,37.3908748]}},{"type":"Feature","properties":{"id_hdad":12,"hermandad":"Santa Genoveva","calle":"Plaza de San Francisco","osm":"Plaza de San Francisco"},"geometry":{"type":"Point","coordinates":[-5.994154,37.38867]}},{"type":"Feature","properties":{"id_hdad":12,"hermandad":"Santa Genoveva","calle":"Avenida de la Constitución","osm":"Avenida de la Constitución"},"geometry":{"type":"Point","coordinates":[-5.994185,37.386838]}},{"type":"Feature","properties":{"id_hdad":12,"hermandad":"Santa Genoveva","calle":"Calle Miguel Mañara","osm":"Calle Miguel Mañara"},"geometry":{"type":"Point","coordinates":[-5.992479,37.3842205]}},{"type":"Feature","properties":{"id_hdad":12,"hermandad":"Santa Genoveva","calle":"Plaza de La Contratación","osm":"Plaza de la Contratación"},"geometry":{"type":"Point","coordinates":[-5.992534,37.383679]}},{"type":"Feature","properties":{"id_hdad":12,"hermandad":"Santa Genoveva","calle":"Calle San Gregorio","osm":"Plaza de San Gregorio"},"geometry":{"type":"Point","coordinates":[-5.9928723,37.383241]}},{"type":"Feature","properties":{"id_hdad":12,"hermandad":"Santa Genoveva","calle":"Plaza Puerta de Jerez","osm":"Plaza Puerta de Jerez"},"geometry":{"type":"Point","coordinates":[-5.9932597,37.3823431]}},{"type":"Feature","properties":{"id_hdad":12,"hermandad":"Santa Genoveva","calle":"Calle San Fernando","osm":"Calle San Fernando"},"geometry":{"type":"Point","coordinates":[-5.9909424,37.38181]}},{"type":"Feature","properties":{"id_hdad":12,"hermandad":"Santa Genoveva","calle":"Avenida de Isabel la Católica","osm":"Avenida Isabel la Católica"},"geometry":{"type":"Point","coordinates":[-5.9888887,37.3784226]}},{"type":"Feature","properties":{"id_hdad":12,"hermandad":"Santa Genoveva","calle":"Avenida de Covadonga","osm":"Glorieta Covadonga"},"geometry":{"type":"Point","coordinates":[-5.9861333,37.3741971]}},{"type":"Feature","properties":{"id_hdad":12,"hermandad":"Santa Genoveva","calle":"Calle Brasil","osm":"Calle Brasil"},"geometry":{"type":"Point","coordinates":[-5.9838521,37.3737036]}},{"type":"Feature","properties":{"id_hdad":12,"hermandad":"Santa Genoveva","calle":"Calle Río de la Plata","osm":"Calle Río de la Plata"},"geometry":{"type":"Point","coordinates":[-5.9830462,37.3739611]}},{"type":"Feature","properties":{"id_hdad":12,"hermandad":"Santa Genoveva","calle":"Calle Romero de Torres","osm":"Calle Romero de Torres"},"geometry":{"type":"Point","coordinates":[-5.9765845,37.3680814]}},{"type":"Feature","properties":{"id_hdad":12,"hermandad":"Santa Genoveva","calle":"Plaza de la Magdalena","osm":"Plaza de la Magdalena"},"geometry":{"type":"Point","coordinates":[-5.9968379,37.390749]}},{"type":"Feature","properties":{"id_hdad":12,"hermandad":"Santa Genoveva","calle":"Plaza de Molviedro","osm":"Plaza de Molviedro"},"geometry":{"type":"Point","coordinates":[-5.9977813,37.3878196]}},{"type":"Feature","properties":{"id_hdad":12,"hermandad":"Santa Genoveva","calle":"Calle Doña Guiomar","osm":"Calle Doña Guiomar"},"geometry":{"type":"Point","coordinates":[-5.9976929,37.3878993]}}]}