{"type":"FeatureCollection","features":[{"type":"Feature","properties":{"id_hdad":16,"nombre":"Las Penas","dia":"lunes-santo"},"geometry":{"type":"LineString","coordinates":[[-5.9989654,37.3941809],[-5.998851,37.3976815],[-5.9965356,37.3927513],[-5.996046,37.393115],[-5.9960975,37.392915],[-5.9961387,37.3927242],[-5.9958656,37.392719],[-5.9955948,37.3927173],[-5.9954756,37.3927173],[-5.995376,37.392725],[-5.994924,37.392751],[-5.994797,37.391803],[-5.9945202,37.3909414],[-5.994258,37.389845],[-5.994175,37.389143],[-5.994154,37.38867],[-5.994169,37.388187],[-5.994296,37.388071],[-5.9943041,37.3879286],[-5.9942267,37.38731],[-5.9941493,37.386713],[-5.9940679,37.3860718],[-5.9940344,37.3857616],[-5.993999,37.385447],[-5.9934331,37.3854932],[-5.9929686,37.3855304],[-5.992619,37.385552],[-5.9926646,37.3858225],[-5.99271,37.386038],[-5.992325,37.386077],[-5.992365,37.386288],[-5.992537,37.386555],[-5.992515,37.38666],[-5.992549,37.386763],[-5.992807,37.386777],[-5.993037,37.386751],[-5.993054,37.386917],[-5.9930245,37.3870101],[-5.9929267,37.3871073],[-5.992697,37.387288],[-5.992489,37.387452],[-5.992594,37.387654],[-5.992704,37.387858],[-5.99277,37.38804],[-5.992765,37.388268],[-5.992739,37.388594],[-5.992652,37.388762],[-5.992579,37.389047],[-5.992548,37.389396],[-5.992496,37.389533],[-5.992354,37.389739],[-5.992781,37.389701],[-5.993087,37.389679],[-5.993152,37.390033],[-5.9937797,37.3901395],[-5.9947086,37.3899991],[-5.9951669,37.3902317],[-5.9953197,37.3907871],[-5.9954035,37.3911654],[-5.9954456,37.3918072],[-5.9954302,37.3922483],[-5.9953759,37.3927251],[-5.9965356,37.3927513],[-5.9976096,37.3933619],[-5.9979445,37.3939831],[-5.9989654,37.3941809],[-5.9968379,37.390749]]}},{"type":"Feature","properties":{"id_hdad":16,"hermandad":"Las Penas","calle":"Calle Cardenal Cisneros","osm":"Calle Cardenal Cisneros"},"geometry":{"type":"Point","coordinates":[-5.9989654,37.3941809]}},{"type":"Feature","properties":{"id_hdad":16,"hermandad":"Las Penas","calle":"Calle San Vicente","osm":"Calle San Vicente"},"geometry":{"type":"Point","coordinates":[-5.998851,37.3976815]}},{"type":"Feature","properties":{"id_hdad":16,"hermandad":"Las Penas","calle":"Calle Alfonso XII","osm":"Calle Alfonso XII"},"geometry":{"type":"Point","coordinates":[-5.9965356,37.3927513]}},{"type":"Feature","properties":{"id_hdad":16,"hermandad":"Las Penas","calle":"Plaza del Duque de la Victoria","osm":"Plaza del Duque de la Victoria"},"geometry":{"type":"Point","coordinates":[-5.996046,37.393115]}},{"type":"Feature","properties":{"id_hdad":16,"hermandad":"Las Penas","calle":"La Campana","osm":"Calle Campana"},"geometry":{"type":"Point","coordinates":[-5.995376,37.392725]}},{"type":"Feature","properties":{"id_hdad":16,"hermandad":"Las Penas","calle":"Calle Sierpes","osm":"Calle Sierpes"},"geometry":{"type":"Point","coordinates":[-5.9947885,37.3908748]}},{"type":"Feature","properties":{"id_hdad":16,"hermandad":"Las Penas","calle":"Plaza de San Francisco","osm":"Plaza de San Francisco"},"geometry":{"type":"Point","coordinates":[-5.994154,37.38867]}},{"type":"Feature","properties":{"id_hdad":16,"hermandad":"Las Penas","calle":"Avenida de la Constitución","osm":"Avenida de la Constitución"},"geometry":{"type":"Point","coordinates":[-5.994185,37.386838]}},{"type":"Feature","properties":{"id_hdad":16,"hermandad":"Las Penas","calle":"Calle Cardenal Carlos Amigo","osm":"Calle Cardenal Carlos Amigo"},"geometry":{"type":"Point","coordinates":[-5.992537,37.386555]}},{"type":"Feature","properties":{"id_hdad":16,"hermandad":"Las Penas","calle":"Calle Alemanes","osm":"Calle Alemanes"},"geometry":{"type":"Point","coordinates":[-5.992807,37.386777]}},{"type":"Feature","properties":{"id_hdad":16,"hermandad":"Las Penas","calle":"Calle Álvarez Quintero","osm":"Calle Álvarez Quintero"},"geometry":{"type":"Point","coordinates":[-5.993054,37.386917]}},{"type":"Feature","properties":{"id_hdad":16,"hermandad":"Las Penas","calle":"Calle Argote de Molina","osm":"Calle Argote de Molina"},"geometry":{"type":"Point","coordinates":[-5.992697,37.387288]}},{"type":"Feature","properties":{"id_hdad":16,"hermandad":"Las Penas","calle":"Calle Placentines","osm":"Calle Placentines"},"geometry":{"type":"Point","coordinates":[-5.992594,37.387654]}},{"type":"Feature","properties":{"id_hdad":16,"hermandad":"Las Penas","calle":"Calle Francos","osm":"Calle Francos"},"geometry":{"type":"Point","coordinates":[-5.992765,37.388268]}},{"type":"Feature","properties":{"id_hdad":16,"hermandad":"Las Penas","calle":"Calle Villegas","osm":"Calle Villegas"},"geometry":{"type":"Point","coordinates":[-5.992781,37.389701]}},{"type":"Feature","properties":{"id_hdad":16,"hermandad":"Las Penas","calle":"Plaza del Salvador","osm":"Plaza del Salvador"},"geometry":{"type":"Point","coordinates":[-5.993152,37.390033]}},{"type":"Feature","properties":{"id_hdad":16,"hermandad":"Las Penas","calle":"Calle Sagasta","osm":"Calle Sagasta"},"geometry":{"type":"Point","coordinates":[-5.9937797,37.3901395]}},{"type":"Feature","properties":{"id_hdad":16,"hermandad":"Las Penas","calle":"Calle Jovellanos","osm":"Calle Jovellanos"},"geometry":{"type":"Point","coordinates":[-5.9947086,37.3899991]}},{"type":"Feature","properties":{"id_hdad":16,"hermandad":"Las Penas","calle":"Calle Tetuán","osm":"Calle Tetuán"},"geometry":{"type":"Point","coordinates":[-5.9951669,37.3902317]}},{"type":"Feature","properties":{"id_hdad":16,"hermandad":"Las Penas","calle":"Calle Velázquez","osm":"Calle Velázquez"},"geometry":{"type":"Point","coordinates":[-5.9954035,37.3911654]}},{"type":"Feature","properties":{"id_hdad":16,"hermandad":"Las Penas","calle":"Calle O'Donnell","osm":"Calle O'Donnell"},"geometry":{"type":"Point","coordinates":[-5.9954302,37.3922483]}},{"type":"Feature","properties":{"id_hdad":16,"hermandad":"Las Penas","calle":"La Campana","osm":"Calle Campana"},"geometry":{"type":"Point","coordinates":[-5.9953759,37.3927251]}},{"type":"Feature","properties":{"id_hdad":16,"hermandad":"Las Penas","calle":"Calle Alfonso XII","osm":"Calle Alfonso XII"},"geometry":{"type":"Point","coordinates":[-5.9965356,37.3927513]}},{"type":"Feature","properties":{"id_hdad":16,"hermandad":"Las Penas","calle":"Calle Santa Vicenta María","osm":"Calle Santa Vicenta María"},"geometry":{"type":"Point","coordinates":[-5.9976096,37.3933619]}},{"type":"Feature","properties":{"id_hdad":16,"hermandad":"Las Penas","calle":"Calle Virgen de los Buenos Libros","osm":"Calle Virgen de los Buenos Libros"},"geometry":{"type":"Point","coordinates":[-5.9979445,37.3939831]}},{"type":"Feature","properties":{"id_hdad":16,"hermandad":"Las Penas","calle":"Calle Cardenal Cisneros","osm":"Calle Cardenal Cisneros"},"geometry":{"type":"Point","coordinates":[-5.9989654,37.3941809]}},{"type":"Feature","properties":{"id_hdad":16,"hermandad":"Las Penas","calle":"Plaza de la Magdalena","osm":"Plaza de la Magdalena"},"geometry":{"type":"Point","coordinates":[-5.9968379,37.390749]}}]}