{"type":"FeatureCollection","features":[{"type":"Feature","properties":{"id_hdad":17,"nombre":"Las Aguas","dia":"lunes-santo"},"geometry":{"type":"LineString","coordinates":[[-5.9952494,37.3851593],[-5.9953598,37.3851215],[-5.9953224,37.3852665],[-5.9954066,37.3856467],[-5.9953972,37.3856197],[-5.9954957,37.3857758],[-5.9961928,37.3861699],[-5.9961737,37.3862092],[-5.9961393,37.3862162],[-5.9961784,37.3863579],[-5.9972329,37.3872018],[-5.9978829,37.3877064],[-5.9977813,37.3878196],[-5.9976929,37.3878993],[-5.9974462,37.3881554],[-5.997383,37.3883309],[-5.9977618,37.38845],[-5.9980142,37.3885566],[-5.9986533,37.3888826],[-5.9989897,37.3890495],[-5.9994237,37.3893473],[-5.9990725,37.3897046],[-5.9985321,37.3900494],[-5.9987771,37.3898861],[-5.9984141,37.3901157],[-5.9981357,37.3903005],[-5.9977972,37.390502],[-5.9974906,37.3905804],[-5.996838,37.390749],[-5.9962283,37.3909095],[-5.996081,37.390949],[-5.9953857,37.3910684],[-5.9954323,37.3915334],[-5.9954456,37.3918072],[-5.9954255,37.3922558],[-5.99564,37.393105],[-5.995631,37.392901],[-5.995376,37.392725],[-5.994924,37.392751],[-5.994797,37.391803],[-5.9945202,37.3909414],[-5.994258,37.389845],[-5.994175,37.389143],[-5.994154,37.38867],[-5.994185,37.386838],[-5.9930211,37.38433],[-5.9939801,37.3837872],[-5.9943261,37.383794],[-5.9944694,37.3845251],[-5.994698,37.3852033],[-5.9946016,37.3850918],[-5.9947139,37.3852071],[-5.9948075,37.3852443],[-5.9949623,37.3852335],[-5.9951972,37.385176]]}},{"type":"Feature","properties":{"id_hdad":17,"hermandad":"Las Aguas","calle":"Calle Dos de Mayo","osm":"Calle Dos de Mayo"},"geometry":{"type":"Point","coordinates":[-5.9952494,37.3851593]}},{"type":"Feature","properties":{"id_hdad":17,"hermandad":"Las Aguas","calle":"Calle Arfe","osm":"Calle Arfe"},"geometry":{"type":"Point","coordinates":[-5.9954066,37.3856467]}},{"type":"Feature","properties":{"id_hdad":17,"hermandad":"Las Aguas","calle":"Calle Puerta del Arenal","osm":"Calle Puerta del Arenal"},"geometry":{"type":"Point","coordinates":[-5.9961393,37.3862162]}},{"type":"Feature","properties":{"id_hdad":17,"hermandad":"Las Aguas","calle":"Calle Castelar","osm":"Calle Castelar"},"geometry":{"type":"Point","coordinates":[-5.9972329,37.3872018]}},{"type":"Feature","properties":{"id_hdad":17,"hermandad":"Las Aguas","calle":"Plaza de Molviedro","osm":"Plaza de Molviedro"},"geometry":{"type":"Point","coordinates":[-5.9977813,37.3878196]}},{"type":"Feature","properties":{"id_hdad":17,"hermandad":"Las Aguas","calle":"Calle Doña Guiomar","osm":"Calle Doña Guiomar"},"geometry":{"type":"Point","coordinates":[-5.9976929,37.3878993]}},{"type":"Feature","properties":{"id_hdad":17,"hermandad":"Las Aguas","calle":"Calle Zaragoza","osm":"Calle Zaragoza"},"geometry":{"type":"Point","coordinates":[-5.9980142,37.3885566]}},{"type":"Feature","properties":{"id_hdad":17,"hermandad":"Las Aguas","calle":"Calle San Pablo","osm":"Calle San Pablo"},"geometry":{"type":"Point","coordinates":[-5.9987771,37.3898861]}},{"type":"Feature","properties":{"id_hdad":17,"hermandad":"Las Aguas","calle":"Plaza de la Magdalena","osm":"Plaza de la Magdalena"},"geometry":{"type":"Point","coordinates":[-5.996838,37.390749]}},{"type":"Feature","properties":{"id_hdad":17,"hermandad":"Las Aguas","calle":"Calle Rioja","osm":"Calle Rioja"},"geometry":{"type":"Point","coordinates":[-5.996081,37.390949]}},{"type":"Feature","properties":{"id_hdad":17,"hermandad":"Las Aguas","calle":"Calle Velázquez","osm":"Calle Velázquez"},"geometry":{"type":"Point","coordinates":[-5.9954323,37.3915334]}},{"type":"Feature","properties":{"id_hdad":17,"hermandad":"Las Aguas","calle":"Calle O'Donnell","osm":"Calle O'Donnell"},"geometry":{"type":"Point","coordinates":[-5.9954255,37.3922558]}},{"type":"Feature","properties":{"id_hdad":17,"hermandad":"Las Aguas","calle":"Plaza del Duque de la Victoria (lado derecho)","osm":"Plaza del Duque de la Victoria (lado derecho"},"geometry":{"type":"Point","coordinates":[-5.99564,37.393105]}},{"type":"Feature","properties":{"id_hdad":17,"hermandad":"Las Aguas","calle":"La Campana","osm":"Calle Campana"},"geometry":{"type":"Point","coordinates":[-5.995376,37.392725]}},{"type":"Feature","properties":{"id_hdad":17,"hermandad":"Las Aguas","calle":"Calle Sierpes","osm":"Calle Sierpes"},"geometry":{"type":"Point","coordinates":[-5.9947885,37.3908748]}},{"type":"Feature","properties":{"id_hdad":17,"hermandad":"Las Aguas","calle":"Plaza de San Francisco","osm":"Plaza de San Francisco"},"geometry":{"type":"Point","coordinates":[-5.994154,37.38867]}},{"type":"Feature","properties":{"id_hdad":17,"hermandad":"Las Aguas","calle":"Avenida de la Constitución","osm":"Avenida de la Constitución"},"geometry":{"type":"Point","coordinates":[-5.994185,37.386838]}},{"type":"Feature","properties":{"id_hdad":17,"hermandad":"Las Aguas","calle":"Calle Santo Tomás","osm":"Calle Santo Tomás"},"geometry":{"type":"Point","coordinates":[-5.9930211,37.38433]}},{"type":"Feature","properties":{"id_hdad":17,"hermandad":"Las Aguas","calle":"Calle Adolfo Rodríguez Jurado","osm":"Calle Adolfo Rodríguez Jurado"},"geometry":{"type":"Point","coordinates":[-5.9939801,37.3837872]}},{"type":"Feature","properties":{"id_hdad":17,"hermandad":"Las Aguas","calle":"Plaza Ministro Indalecio Prieto","osm":"Plaza Ministro Indalecio Prieto"},"geometry":{"type":"Point","coordinates":[-5.9943261,37.383794]}},{"type":"Feature","properties":{"id_hdad":17,"hermandad":"Las Aguas","calle":"Calle Tomás de Ibarra","osm":"Calle Tomás de Ibarra"},"geometry":{"type":"Point","coordinates":[-5.9944694,37.3845251]}},{"type":"Feature","properties":{"id_hdad":17,"hermandad":"Las Aguas","calle":"Calle Almirantazgo","osm":"Calle Almirantazgo"},"geometry":{"type":"Point","coordinates":[-5.994698,37.3852033]}},{"type":"Feature","properties":{"id_hdad":17,"hermandad":"Las Aguas","calle":"Calle Arco del Postigo","osm":"Calle Arco del Postigo"},"geometry":{"type":"Point","coordinates":[-5.9949623,37.3852335]}},{"type":"Feature","properties":{"id_hdad":17,"hermandad":"Las Aguas","calle":"Calle Dos de Mayo","osm":"Calle Dos de Mayo"},"geometry":{"type":"Point","coordinates":[-5.9951972,37.385176]}}]}