{
  "type": "FeatureCollection",
  "features": [
    {
      "type": "Feature",
      "properties": {
        "id_hdad": 18,
        "nombre": "El Museo",
        "dia": "lunes-santo"
      },
      "geometry": {
        "type": "LineString",
        "coordinates": [
          [
            -5.9999529,
            37.3929536
          ],
          [
            -5.9997294,
            37.3929827
          ],
          [
            -5.9996318,
            37.3926767
          ],
          [
            -5.9995415,
            37.3923136
          ],
          [
            -5.9995017,
            37.392189
          ],
          [
            -5.9993716,
            37.3922665
          ],
          [
            -5.9993351,
            37.3925217
          ],
          [
            -5.9992375,
            37.3930247
          ],
          [
            -5.9980223,
            37.3929092
          ],
          [
            -5.9966641,
            37.3927681
          ],
          [
            -5.9962468,
            37.3927121
          ],
          [
            -5.996094,
            37.3927308
          ],
          [
            -5.9956336,
            37.3927225
          ],
          [
            -5.995376,
            37.392725
          ],
          [
            -5.994924,
            37.392751
          ],
          [
            -5.994861,
            37.3922847
          ],
          [
            -5.994797,
            37.391803
          ],
          [
            -5.9946698,
            37.3913397
          ],
          [
            -5.994503,
            37.3908739
          ],
          [
            -5.994258,
            37.389845
          ],
          [
            -5.994175,
            37.389143
          ],
          [
            -5.994154,
            37.38867
          ],
          [
            -5.994169,
            37.388187
          ],
          [
            -5.994296,
            37.388071
          ],
          [
            -5.9943041,
            37.3879286
          ],
          [
            -5.9942267,
            37.38731
          ],
          [
            -5.994185,
            37.386838
          ],
          [
            -5.9940679,
            37.3860718
          ],
          [
            -5.9940344,
            37.3857616
          ],
          [
            -5.993999,
            37.385447
          ],
          [
            -5.9934331,
            37.3854932
          ],
          [
            -5.9929686,
            37.3855304
          ],
          [
            -5.992619,
            37.385552
          ],
          [
            -5.9926646,
            37.3858225
          ],
          [
            -5.99271,
            37.386038
          ],
          [
            -5.992325,
            37.386077
          ],
          [
            -5.992365,
            37.386288
          ],
          [
            -5.9924408,
            37.3863144
          ],
          [
            -5.9924973,
            37.3863647
          ],
          [
            -5.992537,
            37.386555
          ],
          [
            -5.992515,
            37.38666
          ],
          [
            -5.992549,
            37.386763
          ],
          [
            -5.992807,
            37.386777
          ],
          [
            -5.9935673,
            37.386718
          ],
          [
            -5.9940063,
            37.3866857
          ],
          [
            -5.9945754,
            37.3865565
          ],
          [
            -5.9954374,
            37.3863949
          ],
          [
            -5.9960274,
            37.3862463
          ],
          [
            -5.9961784,
            37.3863579
          ],
          [
            -5.9972329,
            37.3872018
          ],
          [
            -5.9978829,
            37.3877064
          ],
          [
            -5.9977813,
            37.3878196
          ],
          [
            -5.9976929,
            37.3878993
          ],
          [
            -5.9974462,
            37.3881554
          ],
          [
            -5.997383,
            37.3883309
          ],
          [
            -5.9977618,
            37.38845
          ],
          [
            -5.9980142,
            37.3885566
          ],
          [
            -5.9988694,
            37.3889823
          ],
          [
            -5.9997037,
            37.3895567
          ],
          [
            -6.000182,
            37.3899957
          ],
          [
            -6.0007123,
            37.3906174
          ],
          [
            -6.0009054,
            37.3911905
          ],
          [
            -6.0010463,
            37.3916857
          ],
          [
            -6.0008064,
            37.3917265
          ],
          [
            -6.000465,
            37.3918423
          ],
          [
            -6.000236,
            37.3919713
          ],
          [
            -6.0000403,
            37.3920639
          ],
          [
            -5.9998695,
            37.3918456
          ],
          [
            -5.9996079,
            37.3920772
          ],
          [
            -5.9995247,
            37.3921749
          ],
          [
            -5.9996228,
            37.3925816
          ],
          [
            -5.999728,
            37.3929751
          ],
          [
            -5.9999577,
            37.3929523
          ]
        ]
      }
    },
    {
      "type": "Feature",
      "properties": {
        "id_hdad": 18,
        "hermandad": "El Museo",
        "calle": "Plaza del Museo",
        "osm": "Plaza del Museo"
      },
      "geometry": {
        "type": "Point",
        "coordinates": [
          -5.9992782,
          37.3928309
        ]
      }
    },
    {
      "type": "Feature",
      "properties": {
        "id_hdad": 18,
        "hermandad": "El Museo",
        "calle": "Calle Alfonso XII",
        "osm": "Calle Alfonso XII"
      },
      "geometry": {
        "type": "Point",
        "coordinates": [
          -5.9965356,
          37.3927513
        ]
      }
    },
    {
      "type": "Feature",
      "properties": {
        "id_hdad": 18,
        "hermandad": "El Museo",
        "calle": "La Campana",
        "osm": "Calle Campana"
      },
      "geometry": {
        "type": "Point",
        "coordinates": [
          -5.995376,
          37.392725
        ]
      }
    },
    {
      "type": "Feature",
      "properties": {
        "id_hdad": 18,
        "hermandad": "El Museo",
        "calle": "Calle Sierpes",
        "osm": "Calle Sierpes"
      },
      "geometry": {
        "type": "Point",
        "coordinates": [
          -5.994503,
          37.3908932
        ]
      }
    },
    {
      "type": "Feature",
      "properties": {
        "id_hdad": 18,
        "hermandad": "El Museo",
        "calle": "Plaza de San Francisco",
        "osm": "Plaza de San Francisco"
      },
      "geometry": {
        "type": "Point",
        "coordinates": [
          -5.994154,
          37.38867
        ]
      }
    },
    {
      "type": "Feature",
      "properties": {
        "id_hdad": 18,
        "hermandad": "El Museo",
        "calle": "Avenida de la Constitución",
        "osm": "Avenida de la Constitución"
      },
      "geometry": {
        "type": "Point",
        "coordinates": [
          -5.994185,
          37.386838
        ]
      }
    },
    {
      "type": "Feature",
      "properties": {
        "id_hdad": 18,
        "hermandad": "El Museo",
        "calle": "Calle Cardenal Carlos Amigo",
        "osm": "Calle Cardenal Carlos Amigo"
      },
      "geometry": {
        "type": "Point",
        "coordinates": [
          -5.992537,
          37.386555
        ]
      }
    },
    {
      "type": "Feature",
      "properties": {
        "id_hdad": 18,
        "hermandad": "El Museo",
        "calle": "Calle Alemanes",
        "osm": "Calle Alemanes"
      },
      "geometry": {
        "type": "Point",
        "coordinates": [
          -5.992807,
          37.386777
        ]
      }
    },
    {
      "type": "Feature",
      "properties": {
        "id_hdad": 18,
        "hermandad": "El Museo",
        "calle": "Calle García de Vinuesa",
        "osm": "Calle García de Vinuesa"
      },
      "geometry": {
        "type": "Point",
        "coordinates": [
          -5.9942014,
          37.3866357
        ]
      }
    },
    {
      "type": "Feature",
      "properties": {
        "id_hdad": 18,
        "hermandad": "El Museo",
        "calle": "Calle Puerta del Arenal",
        "osm": "Calle Puerta del Arenal"
      },
      "geometry": {
        "type": "Point",
        "coordinates": [
          -5.9960356,
          37.386256
        ]
      }
    },
    {
      "type": "Feature",
      "properties": {
        "id_hdad": 18,
        "hermandad": "El Museo",
        "calle": "Calle Castelar",
        "osm": "Calle Castelar"
      },
      "geometry": {
        "type": "Point",
        "coordinates": [
          -5.9972329,
          37.3872018
        ]
      }
    },
    {
      "type": "Feature",
      "properties": {
        "id_hdad": 18,
        "hermandad": "El Museo",
        "calle": "Plaza de Molviedro",
        "osm": "Plaza de Molviedro"
      },
      "geometry": {
        "type": "Point",
        "coordinates": [
          -5.9977813,
          37.3878196
        ]
      }
    },
    {
      "type": "Feature",
      "properties": {
        "id_hdad": 18,
        "hermandad": "El Museo",
        "calle": "Calle Doña Guiomar",
        "osm": "Calle Doña Guiomar"
      },
      "geometry": {
        "type": "Point",
        "coordinates": [
          -5.9976929,
          37.3878993
        ]
      }
    },
    {
      "type": "Feature",
      "properties": {
        "id_hdad": 18,
        "hermandad": "El Museo",
        "calle": "Calle Zaragoza",
        "osm": "Calle Zaragoza"
      },
      "geometry": {
        "type": "Point",
        "coordinates": [
          -5.9980142,
          37.3885566
        ]
      }
    },
    {
      "type": "Feature",
      "properties": {
        "id_hdad": 18,
        "hermandad": "El Museo",
        "calle": "Calle Gravina",
        "osm": "Calle Gravina"
      },
      "geometry": {
        "type": "Point",
        "coordinates": [
          -6.0006702,
          37.3905315
        ]
      }
    },
    {
      "type": "Feature",
      "properties": {
        "id_hdad": 18,
        "hermandad": "El Museo",
        "calle": "Calle Pedro del Toro",
        "osm": "Calle Pedro del Toro"
      },
      "geometry": {
        "type": "Point",
        "coordinates": [
          -6.0004685,
          37.391847
        ]
      }
    },
    {
      "type": "Feature",
      "properties": {
        "id_hdad": 18,
        "hermandad": "El Museo",
        "calle": "Calle Bailén",
        "osm": "Calle Bailén"
      },
      "geometry": {
        "type": "Point",
        "coordinates": [
          -5.9999526,
          37.3919801
        ]
      }
    },
    {
      "type": "Feature",
      "properties": {
        "id_hdad": 18,
        "hermandad": "El Museo",
        "calle": "Calle Miguel de Carvajal",
        "osm": "Calle Miguel de Carvajal"
      },
      "geometry": {
        "type": "Point",
        "coordinates": [
          -5.9996079,
          37.3920772
        ]
      }
    },
    {
      "type": "Feature",
      "properties": {
        "id_hdad": 18,
        "hermandad": "El Museo",
        "calle": "Plaza del Museo",
        "osm": "Plaza del Museo"
      },
      "geometry": {
        "type": "Point",
        "coordinates": [
          -5.99927,
          37.3928309
        ]
      }
    }
  ]
}