{"type":"FeatureCollection","features":[{"type":"Feature","properties":{"id_hdad":19,"nombre":"El Cerro","dia":"martes-santo"},"geometry":{"type":"LineString","coordinates":[[-5.9576125,37.3721245],[-5.959843,37.3763047],[-5.9637423,37.3729388],[-5.9654765,37.3737708],[-5.9813265,37.3791377],[-5.9842341,37.3799597],[-5.9884405,37.3812823],[-5.9909424,37.38181],[-5.9932803,37.3823377],[-5.9936639,37.3834745],[-5.9943022,37.385129],[-5.9954066,37.3856467],[-5.9953972,37.3856197],[-5.9954957,37.3857758],[-5.9961928,37.3861699],[-5.9961737,37.3862092],[-5.9961081,37.3862154],[-5.9942014,37.3866357],[-5.9945664,37.3872952],[-5.9949315,37.3886551],[-5.9951669,37.3902317],[-5.9953197,37.3907871],[-5.9954035,37.3911654],[-5.9954456,37.3918072],[-5.995454,37.392155],[-5.99564,37.393105],[-5.995631,37.392901],[-5.995376,37.392725],[-5.994924,37.392751],[-5.994797,37.391803],[-5.9945202,37.3909414],[-5.994258,37.389845],[-5.994175,37.389143],[-5.994154,37.38867],[-5.994185,37.386838],[-5.993515,37.384889],[-5.9932597,37.3823431],[-5.9935377,37.381465],[-5.9926354,37.3803808],[-5.9813265,37.3791377],[-5.9654765,37.3737708],[-5.9637423,37.3729388],[-5.9576125,37.3721245],[-5.9968379,37.390749]]}},{"type":"Feature","properties":{"id_hdad":19,"hermandad":"El Cerro","calle":"Calle Afán de Ribera","osm":"Calle Afán de Ribera"},"geometry":{"type":"Point","coordinates":[-5.9576125,37.3721245]}},{"type":"Feature","properties":{"id_hdad":19,"hermandad":"El Cerro","calle":"Calle Aragón","osm":"Calle Aragón"},"geometry":{"type":"Point","coordinates":[-5.959843,37.3763047]}},{"type":"Feature","properties":{"id_hdad":19,"hermandad":"El Cerro","calle":"Avenida de Hytasa","osm":"Avenida de Hytasa"},"geometry":{"type":"Point","coordinates":[-5.9637423,37.3729388]}},{"type":"Feature","properties":{"id_hdad":19,"hermandad":"El Cerro","calle":"Calle Ramón y Cajal","osm":"Avenida Ramón y Cajal"},"geometry":{"type":"Point","coordinates":[-5.9654765,37.3737708]}},{"type":"Feature","properties":{"id_hdad":19,"hermandad":"El Cerro","calle":"Calle Enramadilla","osm":"Calle Enramadilla"},"geometry":{"type":"Point","coordinates":[-5.9813265,37.3791377]}},{"type":"Feature","properties":{"id_hdad":19,"hermandad":"El Cerro","calle":"Avenida de Carlos V","osm":"Avenida de Carlos V"},"geometry":{"type":"Point","coordinates":[-5.9842341,37.3799597]}},{"type":"Feature","properties":{"id_hdad":19,"hermandad":"El Cerro","calle":"Plaza de Don Juan de Austria","osm":"Plaza Don Juan de Austria"},"geometry":{"type":"Point","coordinates":[-5.9884405,37.3812823]}},{"type":"Feature","properties":{"id_hdad":19,"hermandad":"El Cerro","calle":"Calle San Fernando","osm":"Calle San Fernando"},"geometry":{"type":"Point","coordinates":[-5.9909424,37.38181]}},{"type":"Feature","properties":{"id_hdad":19,"hermandad":"El Cerro","calle":"Plaza Puerta de Jerez","osm":"Plaza Puerta de Jerez"},"geometry":{"type":"Point","coordinates":[-5.9932803,37.3823377]}},{"type":"Feature","properties":{"id_hdad":19,"hermandad":"El Cerro","calle":"Avenida de la Constitución","osm":"Avenida de la Constitución"},"geometry":{"type":"Point","coordinates":[-5.9936639,37.3834745]}},{"type":"Feature","properties":{"id_hdad":19,"hermandad":"El Cerro","calle":"Calle Almirantazgo","osm":"Calle Almirantazgo"},"geometry":{"type":"Point","coordinates":[-5.9943022,37.385129]}},{"type":"Feature","properties":{"id_hdad":19,"hermandad":"El Cerro","calle":"Calle Arfe","osm":"Calle Arfe"},"geometry":{"type":"Point","coordinates":[-5.9954066,37.3856467]}},{"type":"Feature","properties":{"id_hdad":19,"hermandad":"El Cerro","calle":"Calle Puerta del Arenal","osm":"Calle Puerta del Arenal"},"geometry":{"type":"Point","coordinates":[-5.9961081,37.3862154]}},{"type":"Feature","properties":{"id_hdad":19,"hermandad":"El Cerro","calle":"Calle García de Vinuesa","osm":"Calle García de Vinuesa"},"geometry":{"type":"Point","coordinates":[-5.9942014,37.3866357]}},{"type":"Feature","properties":{"id_hdad":19,"hermandad":"El Cerro","calle":"Calle Fernández y González","osm":"Calle Fernández y González"},"geometry":{"type":"Point","coordinates":[-5.9945664,37.3872952]}},{"type":"Feature","properties":{"id_hdad":19,"hermandad":"El Cerro","calle":"Plaza Nueva","osm":"Plaza Nueva"},"geometry":{"type":"Point","coordinates":[-5.9949315,37.3886551]}},{"type":"Feature","properties":{"id_hdad":19,"hermandad":"El Cerro","calle":"Calle Tetuán","osm":"Calle Tetuán"},"geometry":{"type":"Point","coordinates":[-5.9951669,37.3902317]}},{"type":"Feature","properties":{"id_hdad":19,"hermandad":"El Cerro","calle":"Calle Velázquez","osm":"Calle Velázquez"},"geometry":{"type":"Point","coordinates":[-5.9954035,37.3911654]}},{"type":"Feature","properties":{"id_hdad":19,"hermandad":"El Cerro","calle":"Calle O'Donnell","osm":"Calle O'Donnell"},"geometry":{"type":"Point","coordinates":[-5.995454,37.392155]}},{"type":"Feature","properties":{"id_hdad":19,"hermandad":"El Cerro","calle":"Plaza del Duque de la Victoria (lado derecho)","osm":"Plaza del Duque de la Victoria (lado derecho"},"geometry":{"type":"Point","coordinates":[-5.99564,37.393105]}},{"type":"Feature","properties":{"id_hdad":19,"hermandad":"El Cerro","calle":"La Campana","osm":"Calle Campana"},"geometry":{"type":"Point","coordinates":[-5.995376,37.392725]}},{"type":"Feature","properties":{"id_hdad":19,"hermandad":"El Cerro","calle":"Calle Sierpes","osm":"Calle Sierpes"},"geometry":{"type":"Point","coordinates":[-5.9947885,37.3908748]}},{"type":"Feature","properties":{"id_hdad":19,"hermandad":"El Cerro","calle":"Plaza de San Francisco","osm":"Plaza de San Francisco"},"geometry":{"type":"Point","coordinates":[-5.994154,37.38867]}},{"type":"Feature","properties":{"id_hdad":19,"hermandad":"El Cerro","calle":"Avenida de la Constitución","osm":"Avenida de la Constitución"},"geometry":{"type":"Point","coordinates":[-5.994185,37.386838]}},{"type":"Feature","properties":{"id_hdad":19,"hermandad":"El Cerro","calle":"Avenida de la Constitución","osm":"Avenida de la Constitución"},"geometry":{"type":"Point","coordinates":[-5.993515,37.384889]}},{"type":"Feature","properties":{"id_hdad":19,"hermandad":"El Cerro","calle":"Plaza Puerta de Jerez","osm":"Plaza Puerta de Jerez"},"geometry":{"type":"Point","coordinates":[-5.9932597,37.3823431]}},{"type":"Feature","properties":{"id_hdad":19,"hermandad":"El Cerro","calle":"Avenida de Roma","osm":"Avenida de Roma"},"geometry":{"type":"Point","coordinates":[-5.9935377,37.381465]}},{"type":"Feature","properties":{"id_hdad":19,"hermandad":"El Cerro","calle":"Calle Palos de la Frontera","osm":"Calle Palos de la Frontera"},"geometry":{"type":"Point","coordinates":[-5.9926354,37.3803808]}},{"type":"Feature","properties":{"id_hdad":19,"hermandad":"El Cerro","calle":"Calle Enramadilla","osm":"Calle Enramadilla"},"geometry":{"type":"Point","coordinates":[-5.9813265,37.3791377]}},{"type":"Feature","properties":{"id_hdad":19,"hermandad":"El Cerro","calle":"Calle Ramón y Cajal","osm":"Avenida Ramón y Cajal"},"geometry":{"type":"Point","coordinates":[-5.9654765,37.3737708]}},{"type":"Feature","properties":{"id_hdad":19,"hermandad":"El Cerro","calle":"Avenida de Hytasa","osm":"Avenida de Hytasa"},"geometry":{"type":"Point","coordinates":[-5.9637423,37.3729388]}},{"type":"Feature","properties":{"id_hdad":19,"hermandad":"El Cerro","calle":"Calle Afán de Ribera","osm":"Calle Afán de Ribera"},"geometry":{"type":"Point","coordinates":[-5.9576125,37.3721245]}},{"type":"Feature","properties":{"id_hdad":19,"hermandad":"El Cerro","calle":"Plaza de la Magdalena","osm":"Plaza de la Magdalena"},"geometry":{"type":"Point","coordinates":[-5.9968379,37.390749]}}]}