{
  "type": "FeatureCollection",
  "features": [
    {
      "type": "Feature",
      "properties": {
        "id_hdad": 20,
        "nombre": "San Esteban",
        "dia": "martes-santo"
      },
      "geometry": {
        "type": "LineString",
        "coordinates": [
          [
            -5.9861896,
            37.3897375
          ],
          [
            -5.9866564,
            37.3897449
          ],
          [
            -5.987031,
            37.389815
          ],
          [
            -5.9884282,
            37.3899237
          ],
          [
            -5.9884395,
            37.390019
          ],
          [
            -5.9883381,
            37.3902204
          ],
          [
            -5.98833,
            37.3903
          ],
          [
            -5.9882732,
            37.3905538
          ],
          [
            -5.9883454,
            37.3905724
          ],
          [
            -5.9885569,
            37.3906583
          ],
          [
            -5.9885691,
            37.3906814
          ],
          [
            -5.9885597,
            37.3907089
          ],
          [
            -5.9884604,
            37.3908097
          ],
          [
            -5.9883825,
            37.3908975
          ],
          [
            -5.9883422,
            37.390969
          ],
          [
            -5.9886115,
            37.3911048
          ],
          [
            -5.9887958,
            37.391201
          ],
          [
            -5.9888224,
            37.3912324
          ],
          [
            -5.9888246,
            37.391295
          ],
          [
            -5.9887936,
            37.3914968
          ],
          [
            -5.9890437,
            37.3915441
          ],
          [
            -5.9892187,
            37.3915365
          ],
          [
            -5.9895996,
            37.3914692
          ],
          [
            -5.9898997,
            37.3914792
          ],
          [
            -5.9898805,
            37.3919843
          ],
          [
            -5.9898285,
            37.3924875
          ],
          [
            -5.9899423,
            37.3924834
          ],
          [
            -5.9901595,
            37.3924887
          ],
          [
            -5.9905204,
            37.3925657
          ],
          [
            -5.99088,
            37.39261
          ],
          [
            -5.991499,
            37.3927
          ],
          [
            -5.9922302,
            37.392777
          ],
          [
            -5.992981,
            37.392804
          ],
          [
            -5.9933169,
            37.3928037
          ],
          [
            -5.9936593,
            37.3928157
          ],
          [
            -5.9936853,
            37.3929311
          ],
          [
            -5.993689,
            37.393287
          ],
          [
            -5.9936844,
            37.3934442
          ],
          [
            -5.993838,
            37.393693
          ],
          [
            -5.9940973,
            37.3936496
          ],
          [
            -5.9942892,
            37.3936065
          ],
          [
            -5.994575,
            37.393545
          ],
          [
            -5.9947522,
            37.3935137
          ],
          [
            -5.99499,
            37.3936695
          ],
          [
            -5.995283,
            37.393895
          ],
          [
            -5.99537,
            37.393742
          ],
          [
            -5.995446,
            37.393623
          ],
          [
            -5.995615,
            37.39345
          ],
          [
            -5.995633,
            37.393113
          ],
          [
            -5.995631,
            37.392901
          ],
          [
            -5.9956336,
            37.3927225
          ],
          [
            -5.995376,
            37.392725
          ],
          [
            -5.994924,
            37.392751
          ],
          [
            -5.994861,
            37.3922847
          ],
          [
            -5.994797,
            37.391803
          ],
          [
            -5.9946698,
            37.3913397
          ],
          [
            -5.9944997,
            37.3908591
          ],
          [
            -5.994258,
            37.389845
          ],
          [
            -5.994175,
            37.389143
          ],
          [
            -5.994154,
            37.38867
          ],
          [
            -5.994169,
            37.388187
          ],
          [
            -5.994296,
            37.388071
          ],
          [
            -5.9943041,
            37.3879286
          ],
          [
            -5.9942267,
            37.38731
          ],
          [
            -5.994185,
            37.386838
          ],
          [
            -5.9940679,
            37.3860718
          ],
          [
            -5.9940344,
            37.3857616
          ],
          [
            -5.993999,
            37.385447
          ],
          [
            -5.9934331,
            37.3854932
          ],
          [
            -5.9929686,
            37.3855304
          ],
          [
            -5.992619,
            37.385552
          ],
          [
            -5.9926646,
            37.3858225
          ],
          [
            -5.99271,
            37.386038
          ],
          [
            -5.992325,
            37.386077
          ],
          [
            -5.992365,
            37.386288
          ],
          [
            -5.9924408,
            37.3863144
          ],
          [
            -5.9924973,
            37.3863647
          ],
          [
            -5.992537,
            37.386555
          ],
          [
            -5.992515,
            37.38666
          ],
          [
            -5.992549,
            37.386763
          ],
          [
            -5.992807,
            37.386777
          ],
          [
            -5.993037,
            37.386751
          ],
          [
            -5.993054,
            37.386917
          ],
          [
            -5.9930245,
            37.3870101
          ],
          [
            -5.9929267,
            37.3871073
          ],
          [
            -5.992697,
            37.387288
          ],
          [
            -5.992489,
            37.387452
          ],
          [
            -5.992594,
            37.387654
          ],
          [
            -5.992704,
            37.387858
          ],
          [
            -5.99277,
            37.38804
          ],
          [
            -5.992784,
            37.388285
          ],
          [
            -5.992744,
            37.388583
          ],
          [
            -5.992621,
            37.388828
          ],
          [
            -5.992568,
            37.389176
          ],
          [
            -5.992542,
            37.389426
          ],
          [
            -5.992353,
            37.389737
          ],
          [
            -5.991765,
            37.389785
          ],
          [
            -5.9915301,
            37.3898039
          ],
          [
            -5.9913096,
            37.3898065
          ],
          [
            -5.991289194661936,
            37.389882871212365
          ],
          [
            -5.9912497,
            37.389973
          ],
          [
            -5.9912273,
            37.3900874
          ],
          [
            -5.9911748,
            37.3902722
          ],
          [
            -5.9911616,
            37.3904076
          ],
          [
            -5.9910099,
            37.3904447
          ],
          [
            -5.9907029,
            37.390336
          ],
          [
            -5.9905128,
            37.3902596
          ],
          [
            -5.9904402,
            37.3901881
          ],
          [
            -5.9902431,
            37.3900755
          ],
          [
            -5.989974,
            37.390022
          ],
          [
            -5.989687,
            37.389964
          ],
          [
            -5.989119,
            37.389864
          ],
          [
            -5.988967,
            37.389833
          ],
          [
            -5.988735,
            37.389857
          ],
          [
            -5.988358,
            37.389922
          ],
          [
            -5.9881695,
            37.3899028
          ],
          [
            -5.987031,
            37.389815
          ],
          [
            -5.98665,
            37.389741
          ],
          [
            -5.9861952,
            37.389736
          ]
        ]
      }
    },
    {
      "type": "Feature",
      "properties": {
        "id_hdad": 20,
        "hermandad": "San Esteban",
        "calle": "Calle San Esteban",
        "osm": "Calle San Esteban"
      },
      "geometry": {
        "type": "Point",
        "coordinates": [
          -5.986199,
          37.3897434
        ]
      }
    },
    {
      "type": "Feature",
      "properties": {
        "id_hdad": 20,
        "hermandad": "San Esteban",
        "calle": "Plaza de Pilatos",
        "osm": "Plaza de Pilatos"
      },
      "geometry": {
        "type": "Point",
        "coordinates": [
          -5.987031,
          37.389815
        ]
      }
    },
    {
      "type": "Feature",
      "properties": {
        "id_hdad": 20,
        "hermandad": "San Esteban",
        "calle": "Calle Águilas",
        "osm": "Calle Águilas"
      },
      "geometry": {
        "type": "Point",
        "coordinates": [
          -5.9877026,
          37.389876
        ]
      }
    },
    {
      "type": "Feature",
      "properties": {
        "id_hdad": 20,
        "hermandad": "San Esteban",
        "calle": "Calle Rodríguez Marín",
        "osm": "Calle Rodríguez Marín"
      },
      "geometry": {
        "type": "Point",
        "coordinates": [
          -5.98833,
          37.3903
        ]
      }
    },
    {
      "type": "Feature",
      "properties": {
        "id_hdad": 20,
        "hermandad": "San Esteban",
        "calle": "Plaza de San Ildefonso",
        "osm": "Plaza de San Ildefonso"
      },
      "geometry": {
        "type": "Point",
        "coordinates": [
          -5.9884827,
          37.3906275
        ]
      }
    },
    {
      "type": "Feature",
      "properties": {
        "id_hdad": 20,
        "hermandad": "San Esteban",
        "calle": "Calle Zamudio",
        "osm": "Calle Zamudio"
      },
      "geometry": {
        "type": "Point",
        "coordinates": [
          -5.9884604,
          37.3908097
        ]
      }
    },
    {
      "type": "Feature",
      "properties": {
        "id_hdad": 20,
        "hermandad": "San Esteban",
        "calle": "Plaza de San Leandro",
        "osm": "Plaza de San Leandro"
      },
      "geometry": {
        "type": "Point",
        "coordinates": [
          -5.9886865,
          37.3911454
        ]
      }
    },
    {
      "type": "Feature",
      "properties": {
        "id_hdad": 20,
        "hermandad": "San Esteban",
        "calle": "Calle Alhóndiga",
        "osm": "Calle Alhóndiga"
      },
      "geometry": {
        "type": "Point",
        "coordinates": [
          -5.9888211,
          37.3913768
        ]
      }
    },
    {
      "type": "Feature",
      "properties": {
        "id_hdad": 20,
        "hermandad": "San Esteban",
        "calle": "Calle Dormitorio",
        "osm": "Calle Dormitorio"
      },
      "geometry": {
        "type": "Point",
        "coordinates": [
          -5.989222,
          37.3915317
        ]
      }
    },
    {
      "type": "Feature",
      "properties": {
        "id_hdad": 20,
        "hermandad": "San Esteban",
        "calle": "Plaza del Cristo de Burgos",
        "osm": "Plaza del Cristo de Burgos"
      },
      "geometry": {
        "type": "Point",
        "coordinates": [
          -5.9898767,
          37.3919583
        ]
      }
    },
    {
      "type": "Feature",
      "properties": {
        "id_hdad": 20,
        "hermandad": "San Esteban",
        "calle": "Plaza de San Pedro",
        "osm": "Plaza de San Pedro"
      },
      "geometry": {
        "type": "Point",
        "coordinates": [
          -5.989692,
          37.392505
        ]
      }
    },
    {
      "type": "Feature",
      "properties": {
        "id_hdad": 20,
        "hermandad": "San Esteban",
        "calle": "Calle Imagen",
        "osm": "Calle Imagen"
      },
      "geometry": {
        "type": "Point",
        "coordinates": [
          -5.99088,
          37.39261
        ]
      }
    },
    {
      "type": "Feature",
      "properties": {
        "id_hdad": 20,
        "hermandad": "San Esteban",
        "calle": "Plaza de la Encarnación",
        "osm": "Plaza de la Encarnación"
      },
      "geometry": {
        "type": "Point",
        "coordinates": [
          -5.991499,
          37.3927
        ]
      }
    },
    {
      "type": "Feature",
      "properties": {
        "id_hdad": 20,
        "hermandad": "San Esteban",
        "calle": "Calle Laraña",
        "osm": "Calle Laraña"
      },
      "geometry": {
        "type": "Point",
        "coordinates": [
          -5.992981,
          37.392804
        ]
      }
    },
    {
      "type": "Feature",
      "properties": {
        "id_hdad": 20,
        "hermandad": "San Esteban",
        "calle": "Calle Orfila",
        "osm": "Calle Orfila"
      },
      "geometry": {
        "type": "Point",
        "coordinates": [
          -5.993689,
          37.393287
        ]
      }
    },
    {
      "type": "Feature",
      "properties": {
        "id_hdad": 20,
        "hermandad": "San Esteban",
        "calle": "Calle Javier Lasso de la Vega",
        "osm": "Calle Javier Lasso de la Vega"
      },
      "geometry": {
        "type": "Point",
        "coordinates": [
          -5.994575,
          37.393545
        ]
      }
    },
    {
      "type": "Feature",
      "properties": {
        "id_hdad": 20,
        "hermandad": "San Esteban",
        "calle": "Calle Trajano",
        "osm": "Calle Trajano"
      },
      "geometry": {
        "type": "Point",
        "coordinates": [
          -5.99537,
          37.393742
        ]
      }
    },
    {
      "type": "Feature",
      "properties": {
        "id_hdad": 20,
        "hermandad": "San Esteban",
        "calle": "Plaza del Duque de la Victoria (lado derecho)",
        "osm": "Plaza del Duque de la Victoria (lado derecho)"
      },
      "geometry": {
        "type": "Point",
        "coordinates": [
          -5.995633,
          37.393113
        ]
      }
    },
    {
      "type": "Feature",
      "properties": {
        "id_hdad": 20,
        "hermandad": "San Esteban",
        "calle": "La Campana",
        "osm": "Calle Campana"
      },
      "geometry": {
        "type": "Point",
        "coordinates": [
          -5.995376,
          37.392725
        ]
      }
    },
    {
      "type": "Feature",
      "properties": {
        "id_hdad": 20,
        "hermandad": "San Esteban",
        "calle": "Calle Sierpes",
        "osm": "Calle Sierpes"
      },
      "geometry": {
        "type": "Point",
        "coordinates": [
          -5.9944997,
          37.3908543
        ]
      }
    },
    {
      "type": "Feature",
      "properties": {
        "id_hdad": 20,
        "hermandad": "San Esteban",
        "calle": "Plaza de San Francisco",
        "osm": "Plaza de San Francisco"
      },
      "geometry": {
        "type": "Point",
        "coordinates": [
          -5.994154,
          37.38867
        ]
      }
    },
    {
      "type": "Feature",
      "properties": {
        "id_hdad": 20,
        "hermandad": "San Esteban",
        "calle": "Avenida de la Constitución",
        "osm": "Avenida de la Constitución"
      },
      "geometry": {
        "type": "Point",
        "coordinates": [
          -5.994185,
          37.386838
        ]
      }
    },
    {
      "type": "Feature",
      "properties": {
        "id_hdad": 20,
        "hermandad": "San Esteban",
        "calle": "Calle Cardenal Carlos Amigo",
        "osm": "Calle Cardenal Carlos Amigo"
      },
      "geometry": {
        "type": "Point",
        "coordinates": [
          -5.992537,
          37.386555
        ]
      }
    },
    {
      "type": "Feature",
      "properties": {
        "id_hdad": 20,
        "hermandad": "San Esteban",
        "calle": "Calle Alemanes",
        "osm": "Calle Alemanes"
      },
      "geometry": {
        "type": "Point",
        "coordinates": [
          -5.992807,
          37.386777
        ]
      }
    },
    {
      "type": "Feature",
      "properties": {
        "id_hdad": 20,
        "hermandad": "San Esteban",
        "calle": "Calle Álvarez Quintero",
        "osm": "Calle Álvarez Quintero"
      },
      "geometry": {
        "type": "Point",
        "coordinates": [
          -5.993054,
          37.386917
        ]
      }
    },
    {
      "type": "Feature",
      "properties": {
        "id_hdad": 20,
        "hermandad": "San Esteban",
        "calle": "Calle Argote de Molina",
        "osm": "Calle Argote de Molina"
      },
      "geometry": {
        "type": "Point",
        "coordinates": [
          -5.992697,
          37.387288
        ]
      }
    },
    {
      "type": "Feature",
      "properties": {
        "id_hdad": 20,
        "hermandad": "San Esteban",
        "calle": "Calle Placentines",
        "osm": "Calle Placentines"
      },
      "geometry": {
        "type": "Point",
        "coordinates": [
          -5.992594,
          37.387654
        ]
      }
    },
    {
      "type": "Feature",
      "properties": {
        "id_hdad": 20,
        "hermandad": "San Esteban",
        "calle": "Calle Francos",
        "osm": "Calle Francos"
      },
      "geometry": {
        "type": "Point",
        "coordinates": [
          -5.992784,
          37.388285
        ]
      }
    },
    {
      "type": "Feature",
      "properties": {
        "id_hdad": 20,
        "hermandad": "San Esteban",
        "calle": "Cuesta del Rosario",
        "osm": "Calle Cuesta del Rosario"
      },
      "geometry": {
        "type": "Point",
        "coordinates": [
          -5.991765,
          37.389785
        ]
      }
    },
    {
      "type": "Feature",
      "properties": {
        "id_hdad": 20,
        "hermandad": "San Esteban",
        "calle": "Plaza de la Pescadería",
        "osm": "Plaza de la Pescadería"
      },
      "geometry": {
        "type": "Point",
        "coordinates": [
          -5.991289194661936,
          37.389882871212365
        ]
      }
    },
    {
      "type": "Feature",
      "properties": {
        "id_hdad": 20,
        "hermandad": "San Esteban",
        "calle": "Calle Ángel María Camacho",
        "osm": "Calle Ángel María Camacho"
      },
      "geometry": {
        "type": "Point",
        "coordinates": [
          -5.9912273,
          37.3900874
        ]
      }
    },
    {
      "type": "Feature",
      "properties": {
        "id_hdad": 20,
        "hermandad": "San Esteban",
        "calle": "Plaza de La Alfalfa",
        "osm": "Calle Alfalfa"
      },
      "geometry": {
        "type": "Point",
        "coordinates": [
          -5.9907029,
          37.390336
        ]
      }
    },
    {
      "type": "Feature",
      "properties": {
        "id_hdad": 20,
        "hermandad": "San Esteban",
        "calle": "Calle Alfalfa",
        "osm": "Calle Alfalfa"
      },
      "geometry": {
        "type": "Point",
        "coordinates": [
          -5.989974,
          37.390022
        ]
      }
    },
    {
      "type": "Feature",
      "properties": {
        "id_hdad": 20,
        "hermandad": "San Esteban",
        "calle": "Calle Águilas",
        "osm": "Calle Águilas"
      },
      "geometry": {
        "type": "Point",
        "coordinates": [
          -5.9876989,
          37.389876
        ]
      }
    },
    {
      "type": "Feature",
      "properties": {
        "id_hdad": 20,
        "hermandad": "San Esteban",
        "calle": "Plaza de Pilatos",
        "osm": "Plaza de Pilatos"
      },
      "geometry": {
        "type": "Point",
        "coordinates": [
          -5.987031,
          37.389815
        ]
      }
    },
    {
      "type": "Feature",
      "properties": {
        "id_hdad": 20,
        "hermandad": "San Esteban",
        "calle": "Calle San Esteban",
        "osm": "Calle San Esteban"
      },
      "geometry": {
        "type": "Point",
        "coordinates": [
          -5.986199,
          37.3897419
        ]
      }
    }
  ]
}