{
  "type": "FeatureCollection",
  "features": [
    {
      "type": "Feature",
      "properties": {
        "id_hdad": 24,
        "nombre": "Los Javieres",
        "dia": "martes-santo"
      },
      "geometry": {
        "type": "LineString",
        "coordinates": [
          [
            -5.9915331,
            37.3991562
          ],
          [
            -5.9916905,
            37.3991266
          ],
          [
            -5.9916209,
            37.398663
          ],
          [
            -5.9915513,
            37.3980464
          ],
          [
            -5.9921938,
            37.3978421
          ],
          [
            -5.9927511,
            37.3974111
          ],
          [
            -5.9930346,
            37.3971997
          ],
          [
            -5.9937504,
            37.3967656
          ],
          [
            -5.994027,
            37.396751
          ],
          [
            -5.994374,
            37.39685
          ],
          [
            -5.9945818,
            37.3964877
          ],
          [
            -5.9949458,
            37.3965871
          ],
          [
            -5.9953954,
            37.3966949
          ],
          [
            -5.9955433,
            37.3959405
          ],
          [
            -5.9956855,
            37.395326
          ],
          [
            -5.9958679,
            37.3946535
          ],
          [
            -5.995978500352905,
            37.3940198419956
          ],
          [
            -5.9959864,
            37.3938914
          ],
          [
            -5.9959496,
            37.3937209
          ],
          [
            -5.9959193,
            37.3936073
          ],
          [
            -5.9959583,
            37.3934438
          ],
          [
            -5.996046,
            37.393115
          ],
          [
            -5.9960975,
            37.392915
          ],
          [
            -5.9961387,
            37.3927242
          ],
          [
            -5.9958656,
            37.392719
          ],
          [
            -5.9955948,
            37.3927173
          ],
          [
            -5.9954756,
            37.3927173
          ],
          [
            -5.995376,
            37.392725
          ],
          [
            -5.994924,
            37.392751
          ],
          [
            -5.994861,
            37.3922847
          ],
          [
            -5.994797,
            37.391803
          ],
          [
            -5.9946698,
            37.3913397
          ],
          [
            -5.994483,
            37.3908325
          ],
          [
            -5.994258,
            37.389845
          ],
          [
            -5.994175,
            37.389143
          ],
          [
            -5.994154,
            37.38867
          ],
          [
            -5.994169,
            37.388187
          ],
          [
            -5.994296,
            37.388071
          ],
          [
            -5.9943041,
            37.3879286
          ],
          [
            -5.9942267,
            37.38731
          ],
          [
            -5.994185,
            37.386838
          ],
          [
            -5.9940679,
            37.3860718
          ],
          [
            -5.9940344,
            37.3857616
          ],
          [
            -5.993999,
            37.385447
          ],
          [
            -5.9934331,
            37.3854932
          ],
          [
            -5.9929686,
            37.3855304
          ],
          [
            -5.992619,
            37.385552
          ],
          [
            -5.9926646,
            37.3858225
          ],
          [
            -5.99271,
            37.386038
          ],
          [
            -5.992325,
            37.386077
          ],
          [
            -5.992365,
            37.386288
          ],
          [
            -5.9924408,
            37.3863144
          ],
          [
            -5.9924973,
            37.3863647
          ],
          [
            -5.992537,
            37.386555
          ],
          [
            -5.992515,
            37.38666
          ],
          [
            -5.992549,
            37.386763
          ],
          [
            -5.992807,
            37.386777
          ],
          [
            -5.993037,
            37.386751
          ],
          [
            -5.993054,
            37.386917
          ],
          [
            -5.9930245,
            37.3870101
          ],
          [
            -5.9929267,
            37.3871073
          ],
          [
            -5.992697,
            37.387288
          ],
          [
            -5.992489,
            37.387452
          ],
          [
            -5.992594,
            37.387654
          ],
          [
            -5.992704,
            37.387858
          ],
          [
            -5.99277,
            37.38804
          ],
          [
            -5.99271,
            37.388333
          ],
          [
            -5.992748,
            37.388584
          ],
          [
            -5.992999,
            37.388611
          ],
          [
            -5.993264,
            37.388615
          ],
          [
            -5.993288,
            37.389051
          ],
          [
            -5.99338,
            37.389346
          ],
          [
            -5.993302,
            37.389446
          ],
          [
            -5.993273,
            37.38953
          ],
          [
            -5.993197,
            37.389673
          ],
          [
            -5.993105,
            37.389698
          ],
          [
            -5.993128,
            37.389988
          ],
          [
            -5.993132428703218,
            37.39005314738425
          ],
          [
            -5.993169,
            37.390185
          ],
          [
            -5.993243,
            37.390261
          ],
          [
            -5.993364,
            37.390816
          ],
          [
            -5.993467,
            37.391235
          ],
          [
            -5.9935162,
            37.3916043
          ],
          [
            -5.9936242,
            37.3924401
          ],
          [
            -5.9936672,
            37.3928396
          ],
          [
            -5.99369,
            37.3932417
          ],
          [
            -5.9936917,
            37.3934516
          ],
          [
            -5.9938521,
            37.3937374
          ],
          [
            -5.994097,
            37.3940989
          ],
          [
            -5.9941725,
            37.3942415
          ],
          [
            -5.9941921,
            37.394338
          ],
          [
            -5.994239,
            37.3945012
          ],
          [
            -5.994448,
            37.3945001
          ],
          [
            -5.9946464,
            37.3944977
          ],
          [
            -5.9944911,
            37.3952727
          ],
          [
            -5.9943144,
            37.3960095
          ],
          [
            -5.993934,
            37.3965607
          ],
          [
            -5.9936362,
            37.3968369
          ],
          [
            -5.9929965,
            37.3972244
          ],
          [
            -5.9927442,
            37.3974166
          ],
          [
            -5.9921885,
            37.3978378
          ],
          [
            -5.9915567,
            37.3980591
          ],
          [
            -5.9916263,
            37.3986503
          ],
          [
            -5.9916852,
            37.3991309
          ],
          [
            -5.9915164,
            37.3991595
          ]
        ]
      }
    },
    {
      "type": "Feature",
      "properties": {
        "id_hdad": 24,
        "hermandad": "Los Javieres",
        "calle": "Calle Feria",
        "osm": "Calle Feria"
      },
      "geometry": {
        "type": "Point",
        "coordinates": [
          -5.991619,
          37.3982926
        ]
      }
    },
    {
      "type": "Feature",
      "properties": {
        "id_hdad": 24,
        "hermandad": "Los Javieres",
        "calle": "Calle Correduría",
        "osm": "Calle Correduría"
      },
      "geometry": {
        "type": "Point",
        "coordinates": [
          -5.9926129,
          37.397499
        ]
      }
    },
    {
      "type": "Feature",
      "properties": {
        "id_hdad": 24,
        "hermandad": "Los Javieres",
        "calle": "Calle Amor de Dios",
        "osm": "Calle Amor de Dios"
      },
      "geometry": {
        "type": "Point",
        "coordinates": [
          -5.994758,
          37.393914
        ]
      }
    },
    {
      "type": "Feature",
      "properties": {
        "id_hdad": 24,
        "hermandad": "Los Javieres",
        "calle": "Alameda de Hércules",
        "osm": "Alameda de Hércules"
      },
      "geometry": {
        "type": "Point",
        "coordinates": [
          -5.994027,
          37.396751
        ]
      }
    },
    {
      "type": "Feature",
      "properties": {
        "id_hdad": 24,
        "hermandad": "Los Javieres",
        "calle": "Calle Trajano",
        "osm": "Calle Trajano"
      },
      "geometry": {
        "type": "Point",
        "coordinates": [
          -5.9944954,
          37.3966282
        ]
      }
    },
    {
      "type": "Feature",
      "properties": {
        "id_hdad": 24,
        "hermandad": "Los Javieres",
        "calle": "Calle Conde de Barajas",
        "osm": "Calle Conde de Barajas"
      },
      "geometry": {
        "type": "Point",
        "coordinates": [
          -5.9950538,
          37.3966322
        ]
      }
    },
    {
      "type": "Feature",
      "properties": {
        "id_hdad": 24,
        "hermandad": "Los Javieres",
        "calle": "Calle Jesús del Gran Poder",
        "osm": "Calle Jesús del Gran Poder"
      },
      "geometry": {
        "type": "Point",
        "coordinates": [
          -5.995978500352905,
          37.3940198419956
        ]
      }
    },
    {
      "type": "Feature",
      "properties": {
        "id_hdad": 24,
        "hermandad": "Los Javieres",
        "calle": "Plaza del Duque de la Victoria",
        "osm": "Plaza del Duque de la Victoria"
      },
      "geometry": {
        "type": "Point",
        "coordinates": [
          -5.996046,
          37.393115
        ]
      }
    },
    {
      "type": "Feature",
      "properties": {
        "id_hdad": 24,
        "hermandad": "Los Javieres",
        "calle": "La Campana",
        "osm": "Calle Campana"
      },
      "geometry": {
        "type": "Point",
        "coordinates": [
          -5.995376,
          37.392725
        ]
      }
    },
    {
      "type": "Feature",
      "properties": {
        "id_hdad": 24,
        "hermandad": "Los Javieres",
        "calle": "Calle Sierpes",
        "osm": "Calle Sierpes"
      },
      "geometry": {
        "type": "Point",
        "coordinates": [
          -5.9944854,
          37.3907836
        ]
      }
    },
    {
      "type": "Feature",
      "properties": {
        "id_hdad": 24,
        "hermandad": "Los Javieres",
        "calle": "Plaza de San Francisco",
        "osm": "Plaza de San Francisco"
      },
      "geometry": {
        "type": "Point",
        "coordinates": [
          -5.994154,
          37.38867
        ]
      }
    },
    {
      "type": "Feature",
      "properties": {
        "id_hdad": 24,
        "hermandad": "Los Javieres",
        "calle": "Avenida de la Constitución",
        "osm": "Avenida de la Constitución"
      },
      "geometry": {
        "type": "Point",
        "coordinates": [
          -5.994185,
          37.386838
        ]
      }
    },
    {
      "type": "Feature",
      "properties": {
        "id_hdad": 24,
        "hermandad": "Los Javieres",
        "calle": "Calle Cardenal Carlos Amigo",
        "osm": "Calle Cardenal Carlos Amigo"
      },
      "geometry": {
        "type": "Point",
        "coordinates": [
          -5.992537,
          37.386555
        ]
      }
    },
    {
      "type": "Feature",
      "properties": {
        "id_hdad": 24,
        "hermandad": "Los Javieres",
        "calle": "Calle Alemanes",
        "osm": "Calle Alemanes"
      },
      "geometry": {
        "type": "Point",
        "coordinates": [
          -5.992807,
          37.386777
        ]
      }
    },
    {
      "type": "Feature",
      "properties": {
        "id_hdad": 24,
        "hermandad": "Los Javieres",
        "calle": "Calle Álvarez Quintero",
        "osm": "Calle Álvarez Quintero"
      },
      "geometry": {
        "type": "Point",
        "coordinates": [
          -5.993054,
          37.386917
        ]
      }
    },
    {
      "type": "Feature",
      "properties": {
        "id_hdad": 24,
        "hermandad": "Los Javieres",
        "calle": "Calle Argote de Molina",
        "osm": "Calle Argote de Molina"
      },
      "geometry": {
        "type": "Point",
        "coordinates": [
          -5.992697,
          37.387288
        ]
      }
    },
    {
      "type": "Feature",
      "properties": {
        "id_hdad": 24,
        "hermandad": "Los Javieres",
        "calle": "Calle Placentines",
        "osm": "Calle Placentines"
      },
      "geometry": {
        "type": "Point",
        "coordinates": [
          -5.992594,
          37.387654
        ]
      }
    },
    {
      "type": "Feature",
      "properties": {
        "id_hdad": 24,
        "hermandad": "Los Javieres",
        "calle": "Calle Francos",
        "osm": "Calle Francos"
      },
      "geometry": {
        "type": "Point",
        "coordinates": [
          -5.99271,
          37.388333
        ]
      }
    },
    {
      "type": "Feature",
      "properties": {
        "id_hdad": 24,
        "hermandad": "Los Javieres",
        "calle": "Calle Chapineros",
        "osm": "Calle Chapineros"
      },
      "geometry": {
        "type": "Point",
        "coordinates": [
          -5.992999,
          37.388611
        ]
      }
    },
    {
      "type": "Feature",
      "properties": {
        "id_hdad": 24,
        "hermandad": "Los Javieres",
        "calle": "Calle Álvarez Quintero",
        "osm": "Calle Álvarez Quintero"
      },
      "geometry": {
        "type": "Point",
        "coordinates": [
          -5.993273,
          37.38953
        ]
      }
    },
    {
      "type": "Feature",
      "properties": {
        "id_hdad": 24,
        "hermandad": "Los Javieres",
        "calle": "Plaza del Salvador",
        "osm": "Plaza del Salvador"
      },
      "geometry": {
        "type": "Point",
        "coordinates": [
          -5.993132428703218,
          37.39005314738425
        ]
      }
    },
    {
      "type": "Feature",
      "properties": {
        "id_hdad": 24,
        "hermandad": "Los Javieres",
        "calle": "Calle Cuna",
        "osm": "Calle Cuna"
      },
      "geometry": {
        "type": "Point",
        "coordinates": [
          -5.9935646,
          37.3917399
        ]
      }
    },
    {
      "type": "Feature",
      "properties": {
        "id_hdad": 24,
        "hermandad": "Los Javieres",
        "calle": "Calle Orfila",
        "osm": "Calle Orfila"
      },
      "geometry": {
        "type": "Point",
        "coordinates": [
          -5.9936843,
          37.3931245
        ]
      }
    },
    {
      "type": "Feature",
      "properties": {
        "id_hdad": 24,
        "hermandad": "Los Javieres",
        "calle": "Plaza Fernando de Herrera",
        "osm": "Plaza Fernando de Herrera"
      },
      "geometry": {
        "type": "Point",
        "coordinates": [
          -5.9939565,
          37.3938836
        ]
      }
    },
    {
      "type": "Feature",
      "properties": {
        "id_hdad": 24,
        "hermandad": "Los Javieres",
        "calle": "Plaza Fernando de Herrera",
        "osm": "Plaza Fernando de Herrera"
      },
      "geometry": {
        "type": "Point",
        "coordinates": [
          -5.994158,
          37.394243
        ]
      }
    },
    {
      "type": "Feature",
      "properties": {
        "id_hdad": 24,
        "hermandad": "Los Javieres",
        "calle": "Calle Daoiz",
        "osm": "Calle Daoiz"
      },
      "geometry": {
        "type": "Point",
        "coordinates": [
          -5.9941921,
          37.394338
        ]
      }
    },
    {
      "type": "Feature",
      "properties": {
        "id_hdad": 24,
        "hermandad": "Los Javieres",
        "calle": "Calle García Tassara",
        "osm": "Calle García Tassara"
      },
      "geometry": {
        "type": "Point",
        "coordinates": [
          -5.994448,
          37.3945001
        ]
      }
    },
    {
      "type": "Feature",
      "properties": {
        "id_hdad": 24,
        "hermandad": "Los Javieres",
        "calle": "Calle Amor de Dios",
        "osm": "Calle Amor de Dios"
      },
      "geometry": {
        "type": "Point",
        "coordinates": [
          -5.994758,
          37.393914
        ]
      }
    },
    {
      "type": "Feature",
      "properties": {
        "id_hdad": 24,
        "hermandad": "Los Javieres",
        "calle": "Calle Correduría",
        "osm": "Calle Correduría"
      },
      "geometry": {
        "type": "Point",
        "coordinates": [
          -5.9926025,
          37.39751
        ]
      }
    },
    {
      "type": "Feature",
      "properties": {
        "id_hdad": 24,
        "hermandad": "Los Javieres",
        "calle": "Calle Feria",
        "osm": "Calle Feria"
      },
      "geometry": {
        "type": "Point",
        "coordinates": [
          -5.991619,
          37.3982812
        ]
      }
    }
  ]
}