{
  "type": "FeatureCollection",
  "features": [
    {
      "type": "Feature",
      "properties": {
        "id_hdad": 26,
        "nombre": "Santa Cruz",
        "dia": "martes-santo"
      },
      "geometry": {
        "type": "LineString",
        "coordinates": [
          [
            -5.9896543,
            37.3868316
          ],
          [
            -5.9902033,
            37.3862552
          ],
          [
            -5.990847,
            37.3860961
          ],
          [
            -5.9907887,
            37.3859353
          ],
          [
            -5.9907607,
            37.3859147
          ],
          [
            -5.9907004,
            37.3856958
          ],
          [
            -5.9908155,
            37.385505
          ],
          [
            -5.9909244,
            37.385406
          ],
          [
            -5.9909726,
            37.3853801
          ],
          [
            -5.9910709,
            37.3854701
          ],
          [
            -5.9911357,
            37.385469
          ],
          [
            -5.9912283,
            37.3854406
          ],
          [
            -5.9913379,
            37.3853794
          ],
          [
            -5.9914201,
            37.3853353
          ],
          [
            -5.991467,
            37.3852958
          ],
          [
            -5.9917345,
            37.3851446
          ],
          [
            -5.9920788,
            37.384965
          ],
          [
            -5.9922093,
            37.3848971
          ],
          [
            -5.992339,
            37.3848257
          ],
          [
            -5.9924405,
            37.3847697
          ],
          [
            -5.9924208,
            37.3845748
          ],
          [
            -5.9934855,
            37.3841428
          ],
          [
            -5.9937738,
            37.3839993
          ],
          [
            -5.9940213,
            37.3837221
          ],
          [
            -5.9942985,
            37.3836437
          ],
          [
            -5.9943624,
            37.3840916
          ],
          [
            -5.9944069,
            37.384307
          ],
          [
            -5.9944694,
            37.3845251
          ],
          [
            -5.9945896,
            37.3849635
          ],
          [
            -5.9946287,
            37.3851411
          ],
          [
            -5.9946902,
            37.3852055
          ],
          [
            -5.9948215,
            37.3852433
          ],
          [
            -5.9949385,
            37.3852331
          ],
          [
            -5.9951972,
            37.385176
          ],
          [
            -5.9953598,
            37.3851215
          ],
          [
            -5.9953224,
            37.3852665
          ],
          [
            -5.9953317,
            37.385378
          ],
          [
            -5.9953636,
            37.3855735
          ],
          [
            -5.9953972,
            37.3856197
          ],
          [
            -5.9955058,
            37.3857639
          ],
          [
            -5.9956256,
            37.3858536
          ],
          [
            -5.9958343,
            37.3859713
          ],
          [
            -5.9961928,
            37.3861699
          ],
          [
            -5.9961737,
            37.3862092
          ],
          [
            -5.9960848,
            37.3862575
          ],
          [
            -5.9961067,
            37.3863118
          ],
          [
            -5.9961784,
            37.3863579
          ],
          [
            -5.9965793,
            37.3866923
          ],
          [
            -5.9962965,
            37.3869465
          ],
          [
            -5.9961977,
            37.3870583
          ],
          [
            -5.9961075,
            37.3871925
          ],
          [
            -5.996004,
            37.3874004
          ],
          [
            -5.9959001,
            37.3874989
          ],
          [
            -5.9956627,
            37.3876764
          ],
          [
            -5.9955776,
            37.3877204
          ],
          [
            -5.9954727,
            37.3877391
          ],
          [
            -5.995501,
            37.3879628
          ],
          [
            -5.9955332,
            37.3882039
          ],
          [
            -5.9948981,
            37.3882476
          ],
          [
            -5.994966,
            37.3889104
          ],
          [
            -5.9949637,
            37.3890421
          ],
          [
            -5.9949711,
            37.3891511
          ],
          [
            -5.9950228,
            37.3895868
          ],
          [
            -5.9950661,
            37.3898297
          ],
          [
            -5.9951205,
            37.3900547
          ],
          [
            -5.9953197,
            37.3907871
          ],
          [
            -5.9953894,
            37.3910495
          ],
          [
            -5.9953968,
            37.3912662
          ],
          [
            -5.9954116,
            37.3914982
          ],
          [
            -5.9954449,
            37.391797
          ],
          [
            -5.9954684,
            37.3920069
          ],
          [
            -5.9954721,
            37.3920354
          ],
          [
            -5.9954771,
            37.3920835
          ],
          [
            -5.9954277,
            37.3922984
          ],
          [
            -5.9953931,
            37.392467
          ],
          [
            -5.995414,
            37.392722
          ],
          [
            -5.994924,
            37.392751
          ],
          [
            -5.994861,
            37.3922847
          ],
          [
            -5.994797,
            37.391803
          ],
          [
            -5.9946698,
            37.3913397
          ],
          [
            -5.9945265,
            37.3909721
          ],
          [
            -5.9942789,
            37.389891
          ],
          [
            -5.994175,
            37.389143
          ],
          [
            -5.994151,
            37.388605
          ],
          [
            -5.994169,
            37.388187
          ],
          [
            -5.994296,
            37.388071
          ],
          [
            -5.9943041,
            37.3879286
          ],
          [
            -5.9942267,
            37.38731
          ],
          [
            -5.9941493,
            37.386713
          ],
          [
            -5.9940344,
            37.3857616
          ],
          [
            -5.993999,
            37.385447
          ],
          [
            -5.9934331,
            37.3854932
          ],
          [
            -5.9929686,
            37.3855304
          ],
          [
            -5.992619,
            37.385552
          ],
          [
            -5.9926646,
            37.3858225
          ],
          [
            -5.99271,
            37.386038
          ],
          [
            -5.992325,
            37.386077
          ],
          [
            -5.9922162,
            37.3855949
          ],
          [
            -5.9921519,
            37.3853995
          ],
          [
            -5.9920345,
            37.385324
          ],
          [
            -5.9919283,
            37.3852485
          ],
          [
            -5.9918437,
            37.3851521
          ],
          [
            -5.9918045,
            37.38511
          ],
          [
            -5.9917395,
            37.3851449
          ],
          [
            -5.9914629,
            37.3852947
          ],
          [
            -5.9914197,
            37.3853342
          ],
          [
            -5.9913366,
            37.3853857
          ],
          [
            -5.9912283,
            37.3854427
          ],
          [
            -5.9911357,
            37.385469
          ],
          [
            -5.9910736,
            37.3854701
          ],
          [
            -5.9909748,
            37.3853784
          ],
          [
            -5.9909188,
            37.3854092
          ],
          [
            -5.9908198,
            37.3855033
          ],
          [
            -5.9906983,
            37.3856855
          ],
          [
            -5.9907564,
            37.3859079
          ],
          [
            -5.9908081,
            37.3859404
          ],
          [
            -5.9908599,
            37.3861046
          ],
          [
            -5.9901947,
            37.3862535
          ],
          [
            -5.9896522,
            37.3868334
          ]
        ]
      }
    },
    {
      "type": "Feature",
      "properties": {
        "id_hdad": 26,
        "hermandad": "Santa Cruz",
        "calle": "Calle Mateos Gago",
        "osm": "Calle Mateos Gago"
      },
      "geometry": {
        "type": "Point",
        "coordinates": [
          -5.989989,
          37.3864843
        ]
      }
    },
    {
      "type": "Feature",
      "properties": {
        "id_hdad": 26,
        "hermandad": "Santa Cruz",
        "calle": "Calle Rodrigo Caro",
        "osm": "Calle Rodrigo Caro"
      },
      "geometry": {
        "type": "Point",
        "coordinates": [
          -5.9907288,
          37.3857993
        ]
      }
    },
    {
      "type": "Feature",
      "properties": {
        "id_hdad": 26,
        "hermandad": "Santa Cruz",
        "calle": "Plaza de La Alianza",
        "osm": "Plaza de La Alianza"
      },
      "geometry": {
        "type": "Point",
        "coordinates": [
          -5.9911357,
          37.385469
        ]
      }
    },
    {
      "type": "Feature",
      "properties": {
        "id_hdad": 26,
        "hermandad": "Santa Cruz",
        "calle": "Calle Joaquín Romero Murube",
        "osm": "Calle Joaquín Romero Murube"
      },
      "geometry": {
        "type": "Point",
        "coordinates": [
          -5.9915151,
          37.3852751
        ]
      }
    },
    {
      "type": "Feature",
      "properties": {
        "id_hdad": 26,
        "hermandad": "Santa Cruz",
        "calle": "Calle Santo Tomás",
        "osm": "Calle Santo Tomás"
      },
      "geometry": {
        "type": "Point",
        "coordinates": [
          -5.9930211,
          37.38433
        ]
      }
    },
    {
      "type": "Feature",
      "properties": {
        "id_hdad": 26,
        "hermandad": "Santa Cruz",
        "calle": "Calle Santander",
        "osm": "Calle Santander"
      },
      "geometry": {
        "type": "Point",
        "coordinates": [
          -5.9942211,
          37.3836637
        ]
      }
    },
    {
      "type": "Feature",
      "properties": {
        "id_hdad": 26,
        "hermandad": "Santa Cruz",
        "calle": "Calle Tomás de Ibarra",
        "osm": "Calle Tomás de Ibarra"
      },
      "geometry": {
        "type": "Point",
        "coordinates": [
          -5.9944694,
          37.3845251
        ]
      }
    },
    {
      "type": "Feature",
      "properties": {
        "id_hdad": 26,
        "hermandad": "Santa Cruz",
        "calle": "Calle Almirantazgo",
        "osm": "Calle Almirantazgo"
      },
      "geometry": {
        "type": "Point",
        "coordinates": [
          -5.994698,
          37.3852033
        ]
      }
    },
    {
      "type": "Feature",
      "properties": {
        "id_hdad": 26,
        "hermandad": "Santa Cruz",
        "calle": "Calle Arco del Postigo",
        "osm": "Calle Arco del Postigo"
      },
      "geometry": {
        "type": "Point",
        "coordinates": [
          -5.9949623,
          37.3852335
        ]
      }
    },
    {
      "type": "Feature",
      "properties": {
        "id_hdad": 26,
        "hermandad": "Santa Cruz",
        "calle": "Calle Dos de Mayo",
        "osm": "Calle Dos de Mayo"
      },
      "geometry": {
        "type": "Point",
        "coordinates": [
          -5.995197,
          37.385176
        ]
      }
    },
    {
      "type": "Feature",
      "properties": {
        "id_hdad": 26,
        "hermandad": "Santa Cruz",
        "calle": "Calle Arfe",
        "osm": "Calle Arfe"
      },
      "geometry": {
        "type": "Point",
        "coordinates": [
          -5.9954066,
          37.3856467
        ]
      }
    },
    {
      "type": "Feature",
      "properties": {
        "id_hdad": 26,
        "hermandad": "Santa Cruz",
        "calle": "Calle Puerta del Arenal",
        "osm": "Calle Puerta del Arenal"
      },
      "geometry": {
        "type": "Point",
        "coordinates": [
          -5.9961081,
          37.3862154
        ]
      }
    },
    {
      "type": "Feature",
      "properties": {
        "id_hdad": 26,
        "hermandad": "Santa Cruz",
        "calle": "Calle Castelar",
        "osm": "Calle Castelar"
      },
      "geometry": {
        "type": "Point",
        "coordinates": [
          -5.9963303,
          37.3864856
        ]
      }
    },
    {
      "type": "Feature",
      "properties": {
        "id_hdad": 26,
        "hermandad": "Santa Cruz",
        "calle": "Calle Gamazo",
        "osm": "Calle Gamazo"
      },
      "geometry": {
        "type": "Point",
        "coordinates": [
          -5.9961075,
          37.3871925
        ]
      }
    },
    {
      "type": "Feature",
      "properties": {
        "id_hdad": 26,
        "hermandad": "Santa Cruz",
        "calle": "Calle Joaquín Guichot",
        "osm": "Calle Joaquín Guichot"
      },
      "geometry": {
        "type": "Point",
        "coordinates": [
          -5.9955391,
          37.3877253
        ]
      }
    },
    {
      "type": "Feature",
      "properties": {
        "id_hdad": 26,
        "hermandad": "Santa Cruz",
        "calle": "Calle Barcelona",
        "osm": "Calle Barcelona"
      },
      "geometry": {
        "type": "Point",
        "coordinates": [
          -5.995501,
          37.3879628
        ]
      }
    },
    {
      "type": "Feature",
      "properties": {
        "id_hdad": 26,
        "hermandad": "Santa Cruz",
        "calle": "Plaza Nueva",
        "osm": "Plaza Nueva"
      },
      "geometry": {
        "type": "Point",
        "coordinates": [
          -5.9949315,
          37.3886551
        ]
      }
    },
    {
      "type": "Feature",
      "properties": {
        "id_hdad": 26,
        "hermandad": "Santa Cruz",
        "calle": "Calle Tetuán",
        "osm": "Calle Tetuán"
      },
      "geometry": {
        "type": "Point",
        "coordinates": [
          -5.9951669,
          37.3902317
        ]
      }
    },
    {
      "type": "Feature",
      "properties": {
        "id_hdad": 26,
        "hermandad": "Santa Cruz",
        "calle": "Calle Velázquez",
        "osm": "Calle Velázquez"
      },
      "geometry": {
        "type": "Point",
        "coordinates": [
          -5.9954035,
          37.3911654
        ]
      }
    },
    {
      "type": "Feature",
      "properties": {
        "id_hdad": 26,
        "hermandad": "Santa Cruz",
        "calle": "Calle O'Donnell",
        "osm": "Calle O'Donnell"
      },
      "geometry": {
        "type": "Point",
        "coordinates": [
          -5.995454,
          37.392155
        ]
      }
    },
    {
      "type": "Feature",
      "properties": {
        "id_hdad": 26,
        "hermandad": "Santa Cruz",
        "calle": "La Campana",
        "osm": "La Campana"
      },
      "geometry": {
        "type": "Point",
        "coordinates": [
          -5.995376,
          37.392725
        ]
      }
    },
    {
      "type": "Feature",
      "properties": {
        "id_hdad": 26,
        "hermandad": "Santa Cruz",
        "calle": "Calle Sierpes",
        "osm": "Calle Sierpes"
      },
      "geometry": {
        "type": "Point",
        "coordinates": [
          -5.9947885,
          37.3908748
        ]
      }
    },
    {
      "type": "Feature",
      "properties": {
        "id_hdad": 26,
        "hermandad": "Santa Cruz",
        "calle": "Plaza de San Francisco",
        "osm": "Plaza de San Francisco"
      },
      "geometry": {
        "type": "Point",
        "coordinates": [
          -5.994167,
          37.388609
        ]
      }
    },
    {
      "type": "Feature",
      "properties": {
        "id_hdad": 26,
        "hermandad": "Santa Cruz",
        "calle": "Avenida de la Constitución",
        "osm": "Avenida de la Constitución"
      },
      "geometry": {
        "type": "Point",
        "coordinates": [
          -5.9936639,
          37.3834745
        ]
      }
    }
  ]
}
