{
  "type": "FeatureCollection",
  "features": [
    {
      "type": "Feature",
      "properties": {
        "id_hdad": 28,
        "nombre": "El Buen Fin",
        "dia": "miercoles-santo"
      },
      "geometry": {
        "type": "LineString",
        "coordinates": [
          [
            -5.9987039,
            37.3982335
          ],
          [
            -5.998756,
            37.3980134
          ],
          [
            -5.9984639,
            37.3979538
          ],
          [
            -5.9978161,
            37.3978498
          ],
          [
            -5.9975297,
            37.3978028
          ],
          [
            -5.9974871,
            37.3977539
          ],
          [
            -5.9971676,
            37.3977034
          ],
          [
            -5.9968259,
            37.397652
          ],
          [
            -5.9969244,
            37.3973259
          ],
          [
            -5.996964,
            37.3971765
          ],
          [
            -5.9966657,
            37.3971708
          ],
          [
            -5.9963958,
            37.3971896
          ],
          [
            -5.9964384,
            37.396883
          ],
          [
            -5.9953967,
            37.3966968
          ],
          [
            -5.9954179,
            37.3966026
          ],
          [
            -5.995406,
            37.3965273
          ],
          [
            -5.9954487,
            37.3963562
          ],
          [
            -5.9955694,
            37.3958784
          ],
          [
            -5.9957881,
            37.394978
          ],
          [
            -5.9958994,
            37.3945048
          ],
          [
            -5.995978500352905,
            37.3940198419956
          ],
          [
            -5.9959864,
            37.3938914
          ],
          [
            -5.9959496,
            37.3937209
          ],
          [
            -5.9959193,
            37.3936073
          ],
          [
            -5.9959583,
            37.3934438
          ],
          [
            -5.996046,
            37.393115
          ],
          [
            -5.9960975,
            37.392915
          ],
          [
            -5.9961387,
            37.3927242
          ],
          [
            -5.9958656,
            37.392719
          ],
          [
            -5.9955948,
            37.3927173
          ],
          [
            -5.9954756,
            37.3927173
          ],
          [
            -5.995376,
            37.392725
          ],
          [
            -5.994924,
            37.392751
          ],
          [
            -5.994861,
            37.3922847
          ],
          [
            -5.994797,
            37.391803
          ],
          [
            -5.9946698,
            37.3913397
          ],
          [
            -5.9945161,
            37.3909308
          ],
          [
            -5.9943917,
            37.3904014
          ],
          [
            -5.994327,
            37.3901151
          ],
          [
            -5.9942735,
            37.3898019
          ],
          [
            -5.9941991,
            37.3894656
          ],
          [
            -5.994175,
            37.389143
          ],
          [
            -5.994154,
            37.38867
          ],
          [
            -5.994169,
            37.388187
          ],
          [
            -5.994296,
            37.388071
          ],
          [
            -5.9943041,
            37.3879286
          ],
          [
            -5.9942267,
            37.38731
          ],
          [
            -5.9941493,
            37.386713
          ],
          [
            -5.9941493,
            37.386713
          ],
          [
            -5.9940679,
            37.3860718
          ],
          [
            -5.9940344,
            37.3857616
          ],
          [
            -5.993999,
            37.385447
          ],
          [
            -5.9934331,
            37.3854932
          ],
          [
            -5.9929686,
            37.3855304
          ],
          [
            -5.992619,
            37.385552
          ],
          [
            -5.9926646,
            37.3858225
          ],
          [
            -5.99271,
            37.386038
          ],
          [
            -5.992325,
            37.386077
          ],
          [
            -5.992216,
            37.385687
          ],
          [
            -5.9921637,
            37.385285
          ],
          [
            -5.9923838,
            37.3851924
          ],
          [
            -5.9926817,
            37.385159
          ],
          [
            -5.9928824,
            37.3851487
          ],
          [
            -5.993126,
            37.38514
          ],
          [
            -5.993709,
            37.3851
          ],
          [
            -5.9938858,
            37.3851177
          ],
          [
            -5.9939991,
            37.3851692
          ],
          [
            -5.994367,
            37.385114
          ],
          [
            -5.9946016,
            37.3850918
          ],
          [
            -5.9946503,
            37.385173
          ],
          [
            -5.9947139,
            37.3852071
          ],
          [
            -5.9948075,
            37.3852443
          ],
          [
            -5.9949385,
            37.3852331
          ],
          [
            -5.9951972,
            37.385176
          ],
          [
            -5.9953598,
            37.3851215
          ],
          [
            -5.9953224,
            37.3852665
          ],
          [
            -5.9953317,
            37.385378
          ],
          [
            -5.9953972,
            37.3856197
          ],
          [
            -5.9954957,
            37.3857758
          ],
          [
            -5.9961928,
            37.3861699
          ],
          [
            -5.9961737,
            37.3862092
          ],
          [
            -5.9960848,
            37.3862575
          ],
          [
            -5.9961784,
            37.3863579
          ],
          [
            -5.9972329,
            37.3872018
          ],
          [
            -5.9978829,
            37.3877064
          ],
          [
            -5.9976929,
            37.3878993
          ],
          [
            -5.9974462,
            37.3881554
          ],
          [
            -5.997383,
            37.3883309
          ],
          [
            -5.9977618,
            37.38845
          ],
          [
            -5.9980142,
            37.3885566
          ],
          [
            -5.9988694,
            37.3889823
          ],
          [
            -5.999267,
            37.3892465
          ],
          [
            -5.9997037,
            37.3895567
          ],
          [
            -6.000154,
            37.3899893
          ],
          [
            -6.0003549,
            37.3902403
          ],
          [
            -6.0004937,
            37.3903489
          ],
          [
            -6.0007123,
            37.3906174
          ],
          [
            -6.00081,
            37.390882
          ],
          [
            -6.0009054,
            37.3911905
          ],
          [
            -6.0010463,
            37.3916857
          ],
          [
            -6.0008064,
            37.3917265
          ],
          [
            -6.000465,
            37.3918423
          ],
          [
            -6.000236,
            37.3919713
          ],
          [
            -6.0000403,
            37.3920639
          ],
          [
            -5.9998695,
            37.3918456
          ],
          [
            -5.9996079,
            37.3920772
          ],
          [
            -5.9995247,
            37.3921749
          ],
          [
            -5.9997363,
            37.3930678
          ],
          [
            -5.9995256,
            37.3943902
          ],
          [
            -5.9993978,
            37.3952315
          ],
          [
            -5.9992914,
            37.3957517
          ],
          [
            -5.9991019,
            37.396726
          ],
          [
            -5.9987128,
            37.3982354
          ]
        ]
      }
    },
    {
      "type": "Feature",
      "properties": {
        "id_hdad": 28,
        "hermandad": "El Buen Fin",
        "calle": "Calle San Vicente",
        "osm": "Calle San Vicente"
      },
      "geometry": {
        "type": "Point",
        "coordinates": [
          -5.998851,
          37.3976815
        ]
      }
    },
    {
      "type": "Feature",
      "properties": {
        "id_hdad": 28,
        "hermandad": "El Buen Fin",
        "calle": "Plaza de San Antonio de Padua",
        "osm": "Plaza de San Antonio de Padua"
      },
      "geometry": {
        "type": "Point",
        "coordinates": [
          -5.9986101,
          37.3978663
        ]
      }
    },
    {
      "type": "Feature",
      "properties": {
        "id_hdad": 28,
        "hermandad": "El Buen Fin",
        "calle": "Calle Marqués de la Mina",
        "osm": "Calle Marqués de la Mina"
      },
      "geometry": {
        "type": "Point",
        "coordinates": [
          -5.9984639,
          37.3979538
        ]
      }
    },
    {
      "type": "Feature",
      "properties": {
        "id_hdad": 28,
        "hermandad": "El Buen Fin",
        "calle": "Calle Alcoy",
        "osm": "Calle Alcoy"
      },
      "geometry": {
        "type": "Point",
        "coordinates": [
          -5.9971676,
          37.3977034
        ]
      }
    },
    {
      "type": "Feature",
      "properties": {
        "id_hdad": 28,
        "hermandad": "El Buen Fin",
        "calle": "Calle Eslava",
        "osm": "Calle Eslava"
      },
      "geometry": {
        "type": "Point",
        "coordinates": [
          -5.9969244,
          37.3973259
        ]
      }
    },
    {
      "type": "Feature",
      "properties": {
        "id_hdad": 28,
        "hermandad": "El Buen Fin",
        "calle": "Plaza de San Lorenzo",
        "osm": "Plaza de San Lorenzo"
      },
      "geometry": {
        "type": "Point",
        "coordinates": [
          -5.9966561,
          37.3970955
        ]
      }
    },
    {
      "type": "Feature",
      "properties": {
        "id_hdad": 28,
        "hermandad": "El Buen Fin",
        "calle": "Calle Conde de Barajas",
        "osm": "Calle Conde de Barajas"
      },
      "geometry": {
        "type": "Point",
        "coordinates": [
          -5.9962372,
          37.3968567
        ]
      }
    },
    {
      "type": "Feature",
      "properties": {
        "id_hdad": 28,
        "hermandad": "El Buen Fin",
        "calle": "Calle Jesús del Gran Poder",
        "osm": "Calle Jesús del Gran Poder"
      },
      "geometry": {
        "type": "Point",
        "coordinates": [
          -5.995978500352905,
          37.3940198419956
        ]
      }
    },
    {
      "type": "Feature",
      "properties": {
        "id_hdad": 28,
        "hermandad": "El Buen Fin",
        "calle": "Plaza del Duque de la Victoria",
        "osm": "Plaza del Duque de la Victoria"
      },
      "geometry": {
        "type": "Point",
        "coordinates": [
          -5.996046,
          37.393115
        ]
      }
    },
    {
      "type": "Feature",
      "properties": {
        "id_hdad": 28,
        "hermandad": "El Buen Fin",
        "calle": "La Campana",
        "osm": "La Campana"
      },
      "geometry": {
        "type": "Point",
        "coordinates": [
          -5.995376,
          37.392725
        ]
      }
    },
    {
      "type": "Feature",
      "properties": {
        "id_hdad": 28,
        "hermandad": "El Buen Fin",
        "calle": "Calle Sierpes",
        "osm": "Calle Sierpes"
      },
      "geometry": {
        "type": "Point",
        "coordinates": [
          -5.9947885,
          37.3908748
        ]
      }
    },
    {
      "type": "Feature",
      "properties": {
        "id_hdad": 28,
        "hermandad": "El Buen Fin",
        "calle": "Plaza de San Francisco",
        "osm": "Plaza de San Francisco"
      },
      "geometry": {
        "type": "Point",
        "coordinates": [
          -5.994154,
          37.38867
        ]
      }
    },
    {
      "type": "Feature",
      "properties": {
        "id_hdad": 28,
        "hermandad": "El Buen Fin",
        "calle": "Avenida de la Constitución",
        "osm": "Avenida de la Constitución"
      },
      "geometry": {
        "type": "Point",
        "coordinates": [
          -5.994185,
          37.386838
        ]
      }
    },
    {
      "type": "Feature",
      "properties": {
        "id_hdad": 28,
        "hermandad": "El Buen Fin",
        "calle": "Plaza del Triunfo",
        "osm": "Plaza del Triunfo"
      },
      "geometry": {
        "type": "Point",
        "coordinates": [
          -5.9920842,
          37.3849667
        ]
      }
    },
    {
      "type": "Feature",
      "properties": {
        "id_hdad": 28,
        "hermandad": "El Buen Fin",
        "calle": "Calle Fray Ceferino González",
        "osm": "Calle Fray Ceferino González"
      },
      "geometry": {
        "type": "Point",
        "coordinates": [
          -5.993126,
          37.38514
        ]
      }
    },
    {
      "type": "Feature",
      "properties": {
        "id_hdad": 28,
        "hermandad": "El Buen Fin",
        "calle": "Calle Almirantazgo",
        "osm": "Calle Almirantazgo"
      },
      "geometry": {
        "type": "Point",
        "coordinates": [
          -5.9947573,
          37.3852277
        ]
      }
    },
    {
      "type": "Feature",
      "properties": {
        "id_hdad": 28,
        "hermandad": "El Buen Fin",
        "calle": "Calle Arco del Postigo",
        "osm": "Calle Arco del Postigo"
      },
      "geometry": {
        "type": "Point",
        "coordinates": [
          -5.9949714,
          37.3852341
        ]
      }
    },
    {
      "type": "Feature",
      "properties": {
        "id_hdad": 28,
        "hermandad": "El Buen Fin",
        "calle": "Calle Dos de Mayo",
        "osm": "Calle Dos de Mayo"
      },
      "geometry": {
        "type": "Point",
        "coordinates": [
          -5.995197,
          37.385176
        ]
      }
    },
    {
      "type": "Feature",
      "properties": {
        "id_hdad": 28,
        "hermandad": "El Buen Fin",
        "calle": "Calle Arfe",
        "osm": "Calle Arfe"
      },
      "geometry": {
        "type": "Point",
        "coordinates": [
          -5.9954066,
          37.3856467
        ]
      }
    },
    {
      "type": "Feature",
      "properties": {
        "id_hdad": 28,
        "hermandad": "El Buen Fin",
        "calle": "Calle Puerta del Arenal",
        "osm": "Calle Puerta del Arenal"
      },
      "geometry": {
        "type": "Point",
        "coordinates": [
          -5.9961393,
          37.3862162
        ]
      }
    },
    {
      "type": "Feature",
      "properties": {
        "id_hdad": 28,
        "hermandad": "El Buen Fin",
        "calle": "Calle Castelar",
        "osm": "Calle Castelar"
      },
      "geometry": {
        "type": "Point",
        "coordinates": [
          -5.9972329,
          37.3872018
        ]
      }
    },
    {
      "type": "Feature",
      "properties": {
        "id_hdad": 28,
        "hermandad": "El Buen Fin",
        "calle": "Plaza de Molviedro",
        "osm": "Plaza de Molviedro"
      },
      "geometry": {
        "type": "Point",
        "coordinates": [
          -5.9977813,
          37.3878196
        ]
      }
    },
    {
      "type": "Feature",
      "properties": {
        "id_hdad": 28,
        "hermandad": "El Buen Fin",
        "calle": "Calle Doña Guiomar",
        "osm": "Calle Doña Guiomar"
      },
      "geometry": {
        "type": "Point",
        "coordinates": [
          -5.9976929,
          37.3878993
        ]
      }
    },
    {
      "type": "Feature",
      "properties": {
        "id_hdad": 28,
        "hermandad": "El Buen Fin",
        "calle": "Calle Zaragoza",
        "osm": "Calle Zaragoza"
      },
      "geometry": {
        "type": "Point",
        "coordinates": [
          -5.9980142,
          37.3885566
        ]
      }
    },
    {
      "type": "Feature",
      "properties": {
        "id_hdad": 28,
        "hermandad": "El Buen Fin",
        "calle": "Calle Gravina",
        "osm": "Calle Gravina"
      },
      "geometry": {
        "type": "Point",
        "coordinates": [
          -6.0011458,
          37.3924992
        ]
      }
    },
    {
      "type": "Feature",
      "properties": {
        "id_hdad": 28,
        "hermandad": "El Buen Fin",
        "calle": "Calle Pedro del Toro",
        "osm": "Calle Pedro del Toro"
      },
      "geometry": {
        "type": "Point",
        "coordinates": [
          -6.0008508,
          37.3918157
        ]
      }
    },
    {
      "type": "Feature",
      "properties": {
        "id_hdad": 28,
        "hermandad": "El Buen Fin",
        "calle": "Calle Bailén",
        "osm": "Calle Bailén"
      },
      "geometry": {
        "type": "Point",
        "coordinates": [
          -5.9982371,
          37.3907339
        ]
      }
    },
    {
      "type": "Feature",
      "properties": {
        "id_hdad": 28,
        "hermandad": "El Buen Fin",
        "calle": "Calle Miguel de Carvajal",
        "osm": "Calle Miguel de Carvajal"
      },
      "geometry": {
        "type": "Point",
        "coordinates": [
          -5.9996079,
          37.3920772
        ]
      }
    },
    {
      "type": "Feature",
      "properties": {
        "id_hdad": 28,
        "hermandad": "El Buen Fin",
        "calle": "Plaza del Museo",
        "osm": "Plaza del Museo"
      },
      "geometry": {
        "type": "Point",
        "coordinates": [
          -5.9993065,
          37.3926614
        ]
      }
    },
    {
      "type": "Feature",
      "properties": {
        "id_hdad": 28,
        "hermandad": "El Buen Fin",
        "calle": "Calle San Vicente",
        "osm": "Calle San Vicente"
      },
      "geometry": {
        "type": "Point",
        "coordinates": [
          -5.9995439,
          37.3945495
        ]
      }
    }
  ]
}