{
  "type": "FeatureCollection",
  "features": [
    {
      "type": "Feature",
      "properties": {
        "id_hdad": 32,
        "nombre": "El Baratillo",
        "dia": "miercoles-santo"
      },
      "geometry": {
        "type": "LineString",
        "coordinates": [
          [
            -5.9974138,
            37.3863342
          ],
          [
            -5.9973576,
            37.3864273
          ],
          [
            -5.9982102,
            37.3867102
          ],
          [
            -5.9991566,
            37.3874658
          ],
          [
            -6.0004256,
            37.3884068
          ],
          [
            -5.999537,
            37.389252
          ],
          [
            -5.9990167,
            37.3897419
          ],
          [
            -5.99825,
            37.390229
          ],
          [
            -5.9978096,
            37.3905118
          ],
          [
            -5.9969506,
            37.390732
          ],
          [
            -5.9966977,
            37.3901662
          ],
          [
            -5.9964821,
            37.3895595
          ],
          [
            -5.9963791,
            37.3889491
          ],
          [
            -5.994955,
            37.3890462
          ],
          [
            -5.9950228,
            37.3895868
          ],
          [
            -5.995125,
            37.3900509
          ],
          [
            -5.9953197,
            37.3907871
          ],
          [
            -5.995383,
            37.391055
          ],
          [
            -5.9954178,
            37.3914794
          ],
          [
            -5.9954615,
            37.3920765
          ],
          [
            -5.995386,
            37.3924668
          ],
          [
            -5.995414,
            37.392722
          ],
          [
            -5.994924,
            37.392751
          ],
          [
            -5.994861,
            37.3922847
          ],
          [
            -5.994797,
            37.391803
          ],
          [
            -5.9946698,
            37.3913397
          ],
          [
            -5.9945265,
            37.3909721
          ],
          [
            -5.9942789,
            37.389891
          ],
          [
            -5.994175,
            37.389143
          ],
          [
            -5.994151,
            37.388605
          ],
          [
            -5.994169,
            37.388187
          ],
          [
            -5.994296,
            37.388071
          ],
          [
            -5.9943041,
            37.3879286
          ],
          [
            -5.9942267,
            37.38731
          ],
          [
            -5.9941493,
            37.386713
          ],
          [
            -5.9940344,
            37.3857616
          ],
          [
            -5.993999,
            37.385447
          ],
          [
            -5.9934331,
            37.3854932
          ],
          [
            -5.9929686,
            37.3855304
          ],
          [
            -5.992619,
            37.385552
          ],
          [
            -5.9926646,
            37.3858225
          ],
          [
            -5.99271,
            37.386038
          ],
          [
            -5.992325,
            37.386077
          ],
          [
            -5.9922162,
            37.3855949
          ],
          [
            -5.9921519,
            37.3853995
          ],
          [
            -5.9920345,
            37.385324
          ],
          [
            -5.9919283,
            37.3852485
          ],
          [
            -5.9918473,
            37.3851486
          ],
          [
            -5.9918473,
            37.3850842
          ],
          [
            -5.9921519,
            37.3849399
          ],
          [
            -5.9923391,
            37.3848355
          ],
          [
            -5.9924311,
            37.38476
          ],
          [
            -5.992429,
            37.384591
          ],
          [
            -5.9930211,
            37.38433
          ],
          [
            -5.9935917,
            37.384098
          ],
          [
            -5.9938376,
            37.3839648
          ],
          [
            -5.9940081,
            37.3837428
          ],
          [
            -5.9942981,
            37.3836496
          ],
          [
            -5.994354,
            37.3840404
          ],
          [
            -5.9944638,
            37.3844962
          ],
          [
            -5.9945896,
            37.3849635
          ],
          [
            -5.9946287,
            37.3851411
          ],
          [
            -5.9946902,
            37.3852055
          ],
          [
            -5.9948215,
            37.3852433
          ],
          [
            -5.994849,
            37.385252
          ],
          [
            -5.994996,
            37.385234
          ],
          [
            -5.995366,
            37.385136
          ],
          [
            -5.995319,
            37.385249
          ],
          [
            -5.995336,
            37.3853863
          ],
          [
            -5.995359,
            37.385525
          ],
          [
            -5.995383,
            37.385608
          ],
          [
            -5.995439,
            37.385668
          ],
          [
            -5.9954959,
            37.3857557
          ],
          [
            -5.9956111,
            37.3858432
          ],
          [
            -5.995732,
            37.3859105
          ],
          [
            -5.9960021,
            37.3860629
          ],
          [
            -5.9963659,
            37.3862592
          ],
          [
            -5.9964736,
            37.3862809
          ],
          [
            -5.9965874,
            37.3862823
          ],
          [
            -5.9966615,
            37.3862109
          ],
          [
            -5.9969906,
            37.3863083
          ],
          [
            -5.9973398,
            37.3864225
          ],
          [
            -5.9973994,
            37.3863287
          ]
        ]
      }
    },
    {
      "type": "Feature",
      "properties": {
        "id_hdad": 32,
        "hermandad": "El Baratillo",
        "calle": "Calle Adriano",
        "osm": "Calle Adriano"
      },
      "geometry": {
        "type": "Point",
        "coordinates": [
          -5.997694,
          37.3865304
        ]
      }
    },
    {
      "type": "Feature",
      "properties": {
        "id_hdad": 32,
        "hermandad": "El Baratillo",
        "calle": "Calle Pastor y Landero",
        "osm": "Calle Pastor y Landero"
      },
      "geometry": {
        "type": "Point",
        "coordinates": [
          -6.000245,
          37.388267
        ]
      }
    },
    {
      "type": "Feature",
      "properties": {
        "id_hdad": 32,
        "hermandad": "El Baratillo",
        "calle": "Calle Reyes Católicos",
        "osm": "Calle Reyes Católicos"
      },
      "geometry": {
        "type": "Point",
        "coordinates": [
          -6.0000789,
          37.3887158
        ]
      }
    },
    {
      "type": "Feature",
      "properties": {
        "id_hdad": 32,
        "hermandad": "El Baratillo",
        "calle": "Calle Puerta de Triana",
        "osm": "Calle Puerta de Triana"
      },
      "geometry": {
        "type": "Point",
        "coordinates": [
          -5.999537,
          37.389252
        ]
      }
    },
    {
      "type": "Feature",
      "properties": {
        "id_hdad": 32,
        "hermandad": "El Baratillo",
        "calle": "Calle San Pablo",
        "osm": "Calle San Pablo"
      },
      "geometry": {
        "type": "Point",
        "coordinates": [
          -5.99825,
          37.390229
        ]
      }
    },
    {
      "type": "Feature",
      "properties": {
        "id_hdad": 32,
        "hermandad": "El Baratillo",
        "calle": "Plaza de la Magdalena",
        "osm": "Plaza de la Magdalena"
      },
      "geometry": {
        "type": "Point",
        "coordinates": [
          -5.996838,
          37.390749
        ]
      }
    },
    {
      "type": "Feature",
      "properties": {
        "id_hdad": 32,
        "hermandad": "El Baratillo",
        "calle": "Calle Méndez Núñez",
        "osm": "Calle Méndez Núñez"
      },
      "geometry": {
        "type": "Point",
        "coordinates": [
          -5.9965413,
          37.389543
        ]
      }
    },
    {
      "type": "Feature",
      "properties": {
        "id_hdad": 32,
        "hermandad": "El Baratillo",
        "calle": "Plaza Nueva",
        "osm": "Plaza Nueva"
      },
      "geometry": {
        "type": "Point",
        "coordinates": [
          -5.9949315,
          37.3886551
        ]
      }
    },
    {
      "type": "Feature",
      "properties": {
        "id_hdad": 32,
        "hermandad": "El Baratillo",
        "calle": "Calle Tetuán",
        "osm": "Calle Tetuán"
      },
      "geometry": {
        "type": "Point",
        "coordinates": [
          -5.9951669,
          37.3902317
        ]
      }
    },
    {
      "type": "Feature",
      "properties": {
        "id_hdad": 32,
        "hermandad": "El Baratillo",
        "calle": "Calle Velázquez",
        "osm": "Calle Velázquez"
      },
      "geometry": {
        "type": "Point",
        "coordinates": [
          -5.9954035,
          37.3911654
        ]
      }
    },
    {
      "type": "Feature",
      "properties": {
        "id_hdad": 32,
        "hermandad": "El Baratillo",
        "calle": "Calle O'Donnell",
        "osm": "Calle O'Donnell"
      },
      "geometry": {
        "type": "Point",
        "coordinates": [
          -5.995454,
          37.392155
        ]
      }
    },
    {
      "type": "Feature",
      "properties": {
        "id_hdad": 32,
        "hermandad": "El Baratillo",
        "calle": "La Campana",
        "osm": "La Campana"
      },
      "geometry": {
        "type": "Point",
        "coordinates": [
          -5.995376,
          37.392725
        ]
      }
    },
    {
      "type": "Feature",
      "properties": {
        "id_hdad": 32,
        "hermandad": "El Baratillo",
        "calle": "Calle Sierpes",
        "osm": "Calle Sierpes"
      },
      "geometry": {
        "type": "Point",
        "coordinates": [
          -5.9947885,
          37.3908748
        ]
      }
    },
    {
      "type": "Feature",
      "properties": {
        "id_hdad": 32,
        "hermandad": "El Baratillo",
        "calle": "Plaza de San Francisco",
        "osm": "Plaza de San Francisco"
      },
      "geometry": {
        "type": "Point",
        "coordinates": [
          -5.994154,
          37.38867
        ]
      }
    },
    {
      "type": "Feature",
      "properties": {
        "id_hdad": 32,
        "hermandad": "El Baratillo",
        "calle": "Avenida de la Constitución",
        "osm": "Avenida de la Constitución"
      },
      "geometry": {
        "type": "Point",
        "coordinates": [
          -5.994185,
          37.386838
        ]
      }
    },
    {
      "type": "Feature",
      "properties": {
        "id_hdad": 32,
        "hermandad": "El Baratillo",
        "calle": "Calle Santo Tomás",
        "osm": "Calle Santo Tomás"
      },
      "geometry": {
        "type": "Point",
        "coordinates": [
          -5.9930211,
          37.38433
        ]
      }
    },
    {
      "type": "Feature",
      "properties": {
        "id_hdad": 32,
        "hermandad": "El Baratillo",
        "calle": "Calle Adolfo Rodríguez Jurado",
        "osm": "Calle Adolfo Rodríguez Jurado"
      },
      "geometry": {
        "type": "Point",
        "coordinates": [
          -5.9939801,
          37.3837872
        ]
      }
    },
    {
      "type": "Feature",
      "properties": {
        "id_hdad": 32,
        "hermandad": "El Baratillo",
        "calle": "Plaza Ministro Indalecio Prieto",
        "osm": "Plaza Ministro Indalecio Prieto"
      },
      "geometry": {
        "type": "Point",
        "coordinates": [
          -5.9943261,
          37.383794
        ]
      }
    },
    {
      "type": "Feature",
      "properties": {
        "id_hdad": 32,
        "hermandad": "El Baratillo",
        "calle": "Calle Tomás de Ibarra",
        "osm": "Calle Tomás de Ibarra"
      },
      "geometry": {
        "type": "Point",
        "coordinates": [
          -5.9944694,
          37.3845251
        ]
      }
    },
    {
      "type": "Feature",
      "properties": {
        "id_hdad": 32,
        "hermandad": "El Baratillo",
        "calle": "Calle Almirantazgo",
        "osm": "Calle Almirantazgo"
      },
      "geometry": {
        "type": "Point",
        "coordinates": [
          -5.994698,
          37.3852033
        ]
      }
    },
    {
      "type": "Feature",
      "properties": {
        "id_hdad": 32,
        "hermandad": "El Baratillo",
        "calle": "Calle Arco del Postigo",
        "osm": "Calle Arco del Postigo"
      },
      "geometry": {
        "type": "Point",
        "coordinates": [
          -5.9949623,
          37.3852335
        ]
      }
    },
    {
      "type": "Feature",
      "properties": {
        "id_hdad": 32,
        "hermandad": "El Baratillo",
        "calle": "Calle Dos de Mayo",
        "osm": "Calle Dos de Mayo"
      },
      "geometry": {
        "type": "Point",
        "coordinates": [
          -5.9951972,
          37.385176
        ]
      }
    },
    {
      "type": "Feature",
      "properties": {
        "id_hdad": 32,
        "hermandad": "El Baratillo",
        "calle": "Calle Arfe",
        "osm": "Calle Arfe"
      },
      "geometry": {
        "type": "Point",
        "coordinates": [
          -5.99562,
          37.385841
        ]
      }
    }
  ]
}
