{
  "type": "FeatureCollection",
  "features": [
    {
      "type": "Feature",
      "properties": {
        "id_hdad": 34,
        "nombre": "Cristo de Burgos",
        "dia": "miercoles-santo"
      },
      "geometry": {
        "type": "LineString",
        "coordinates": [
          [
            -5.9900434,
            37.3925314
          ],
          [
            -5.9900741,
            37.3924772
          ],
          [
            -5.99088,
            37.39261
          ],
          [
            -5.991499,
            37.3927
          ],
          [
            -5.9922302,
            37.392777
          ],
          [
            -5.992981,
            37.392804
          ],
          [
            -5.9933169,
            37.3928037
          ],
          [
            -5.9936593,
            37.3928157
          ],
          [
            -5.9936853,
            37.3929311
          ],
          [
            -5.993689,
            37.393287
          ],
          [
            -5.9936844,
            37.3934442
          ],
          [
            -5.993838,
            37.393693
          ],
          [
            -5.9940973,
            37.3936496
          ],
          [
            -5.9942892,
            37.3936065
          ],
          [
            -5.994575,
            37.393545
          ],
          [
            -5.9947522,
            37.3935137
          ],
          [
            -5.99499,
            37.3936695
          ],
          [
            -5.995283,
            37.393895
          ],
          [
            -5.99537,
            37.393742
          ],
          [
            -5.995446,
            37.393623
          ],
          [
            -5.995615,
            37.39345
          ],
          [
            -5.995633,
            37.393113
          ],
          [
            -5.995643,
            37.39272
          ],
          [
            -5.994924,
            37.392751
          ],
          [
            -5.994797,
            37.391803
          ],
          [
            -5.994542,
            37.390976
          ],
          [
            -5.994258,
            37.389845
          ],
          [
            -5.994175,
            37.389143
          ],
          [
            -5.994151,
            37.388605
          ],
          [
            -5.994169,
            37.388187
          ],
          [
            -5.994296,
            37.388071
          ],
          [
            -5.9943041,
            37.3879286
          ],
          [
            -5.9942267,
            37.38731
          ],
          [
            -5.9941493,
            37.386713
          ],
          [
            -5.9940679,
            37.3860718
          ],
          [
            -5.9940344,
            37.3857616
          ],
          [
            -5.993999,
            37.385447
          ],
          [
            -5.9934331,
            37.3854932
          ],
          [
            -5.9929686,
            37.3855304
          ],
          [
            -5.992619,
            37.385552
          ],
          [
            -5.9926646,
            37.3858225
          ],
          [
            -5.99271,
            37.386038
          ],
          [
            -5.992325,
            37.386077
          ],
          [
            -5.992343,
            37.386298
          ],
          [
            -5.992461,
            37.386331
          ],
          [
            -5.992523,
            37.386502
          ],
          [
            -5.99252,
            37.386657
          ],
          [
            -5.992542,
            37.386755
          ],
          [
            -5.992745,
            37.386784
          ],
          [
            -5.993037,
            37.386751
          ],
          [
            -5.993054,
            37.386952
          ],
          [
            -5.9930245,
            37.3870101
          ],
          [
            -5.9929267,
            37.3871073
          ],
          [
            -5.992697,
            37.387288
          ],
          [
            -5.992489,
            37.387452
          ],
          [
            -5.992594,
            37.387654
          ],
          [
            -5.992704,
            37.387858
          ],
          [
            -5.99277,
            37.38804
          ],
          [
            -5.992784,
            37.388285
          ],
          [
            -5.9927805,
            37.3884602
          ],
          [
            -5.992743,
            37.3885957
          ],
          [
            -5.9926373,
            37.3887772
          ],
          [
            -5.9925861,
            37.388994
          ],
          [
            -5.9925691,
            37.3891457
          ],
          [
            -5.9925516,
            37.3894219
          ],
          [
            -5.99248,
            37.3895168
          ],
          [
            -5.9924118,
            37.3896116
          ],
          [
            -5.9923094,
            37.3897744
          ],
          [
            -5.9923776,
            37.3903642
          ],
          [
            -5.991668,
            37.3903676
          ],
          [
            -5.9911599,
            37.3904028
          ],
          [
            -5.9909996,
            37.3904435
          ],
          [
            -5.9908495,
            37.390392
          ],
          [
            -5.9907336,
            37.3905881
          ],
          [
            -5.9906173,
            37.3907816
          ],
          [
            -5.99043,
            37.3907369
          ],
          [
            -5.9903251,
            37.390862
          ],
          [
            -5.990158,
            37.3910193
          ],
          [
            -5.9900515,
            37.3911154
          ],
          [
            -5.9899867,
            37.3912103
          ],
          [
            -5.9899556,
            37.3912991
          ],
          [
            -5.9899218,
            37.3914704
          ],
          [
            -5.9896387,
            37.3914732
          ],
          [
            -5.9895836,
            37.391943
          ],
          [
            -5.9895558,
            37.392526
          ],
          [
            -5.9898184,
            37.3924826
          ],
          [
            -5.9899787,
            37.3924826
          ],
          [
            -5.9900434,
            37.3925341
          ]
        ]
      }
    },
    {
      "type": "Feature",
      "properties": {
        "id_hdad": 34,
        "hermandad": "Cristo de Burgos",
        "calle": "Plaza de San Pedro",
        "osm": "Plaza de San Pedro"
      },
      "geometry": {
        "type": "Point",
        "coordinates": [
          -5.989692,
          37.392505
        ]
      }
    },
    {
      "type": "Feature",
      "properties": {
        "id_hdad": 34,
        "hermandad": "Cristo de Burgos",
        "calle": "Calle Imagen",
        "osm": "Calle Imagen"
      },
      "geometry": {
        "type": "Point",
        "coordinates": [
          -5.99088,
          37.39261
        ]
      }
    },
    {
      "type": "Feature",
      "properties": {
        "id_hdad": 34,
        "hermandad": "Cristo de Burgos",
        "calle": "Plaza de la Encarnación",
        "osm": "Plaza de la Encarnación"
      },
      "geometry": {
        "type": "Point",
        "coordinates": [
          -5.991499,
          37.3927
        ]
      }
    },
    {
      "type": "Feature",
      "properties": {
        "id_hdad": 34,
        "hermandad": "Cristo de Burgos",
        "calle": "Calle Laraña",
        "osm": "Calle Laraña"
      },
      "geometry": {
        "type": "Point",
        "coordinates": [
          -5.992981,
          37.392804
        ]
      }
    },
    {
      "type": "Feature",
      "properties": {
        "id_hdad": 34,
        "hermandad": "Cristo de Burgos",
        "calle": "Calle Orfila",
        "osm": "Calle Orfila"
      },
      "geometry": {
        "type": "Point",
        "coordinates": [
          -5.993689,
          37.393287
        ]
      }
    },
    {
      "type": "Feature",
      "properties": {
        "id_hdad": 34,
        "hermandad": "Cristo de Burgos",
        "calle": "Calle Javier Lasso de la Vega",
        "osm": "Calle Javier Lasso de la Vega"
      },
      "geometry": {
        "type": "Point",
        "coordinates": [
          -5.994575,
          37.393545
        ]
      }
    },
    {
      "type": "Feature",
      "properties": {
        "id_hdad": 34,
        "hermandad": "Cristo de Burgos",
        "calle": "Calle Trajano",
        "osm": "Calle Trajano"
      },
      "geometry": {
        "type": "Point",
        "coordinates": [
          -5.99537,
          37.393742
        ]
      }
    },
    {
      "type": "Feature",
      "properties": {
        "id_hdad": 34,
        "hermandad": "Cristo de Burgos",
        "calle": "Plaza del Duque de la Victoria (lado derecho)",
        "osm": "Plaza del Duque de la Victoria (lado derecho)"
      },
      "geometry": {
        "type": "Point",
        "coordinates": [
          -5.995633,
          37.393113
        ]
      }
    },
    {
      "type": "Feature",
      "properties": {
        "id_hdad": 34,
        "hermandad": "Cristo de Burgos",
        "calle": "La Campana",
        "osm": "La Campana"
      },
      "geometry": {
        "type": "Point",
        "coordinates": [
          -5.995376,
          37.392725
        ]
      }
    },
    {
      "type": "Feature",
      "properties": {
        "id_hdad": 34,
        "hermandad": "Cristo de Burgos",
        "calle": "Calle Sierpes",
        "osm": "Calle Sierpes"
      },
      "geometry": {
        "type": "Point",
        "coordinates": [
          -5.9947885,
          37.3908748
        ]
      }
    },
    {
      "type": "Feature",
      "properties": {
        "id_hdad": 34,
        "hermandad": "Cristo de Burgos",
        "calle": "Plaza de San Francisco",
        "osm": "Plaza de San Francisco"
      },
      "geometry": {
        "type": "Point",
        "coordinates": [
          -5.994154,
          37.38867
        ]
      }
    },
    {
      "type": "Feature",
      "properties": {
        "id_hdad": 34,
        "hermandad": "Cristo de Burgos",
        "calle": "Avenida de la Constitución",
        "osm": "Avenida de la Constitución"
      },
      "geometry": {
        "type": "Point",
        "coordinates": [
          -5.994185,
          37.386838
        ]
      }
    },
    {
      "type": "Feature",
      "properties": {
        "id_hdad": 34,
        "hermandad": "Cristo de Burgos",
        "calle": "Calle Cardenal Carlos Amigo",
        "osm": "Calle Cardenal Carlos Amigo"
      },
      "geometry": {
        "type": "Point",
        "coordinates": [
          -5.992537,
          37.386555
        ]
      }
    },
    {
      "type": "Feature",
      "properties": {
        "id_hdad": 34,
        "hermandad": "Cristo de Burgos",
        "calle": "Calle Alemanes",
        "osm": "Calle Alemanes"
      },
      "geometry": {
        "type": "Point",
        "coordinates": [
          -5.992807,
          37.386777
        ]
      }
    },
    {
      "type": "Feature",
      "properties": {
        "id_hdad": 34,
        "hermandad": "Cristo de Burgos",
        "calle": "Calle Álvarez Quintero",
        "osm": "Calle Álvarez Quintero"
      },
      "geometry": {
        "type": "Point",
        "coordinates": [
          -5.993054,
          37.386917
        ]
      }
    },
    {
      "type": "Feature",
      "properties": {
        "id_hdad": 34,
        "hermandad": "Cristo de Burgos",
        "calle": "Calle Argote de Molina",
        "osm": "Calle Argote de Molina"
      },
      "geometry": {
        "type": "Point",
        "coordinates": [
          -5.992697,
          37.387288
        ]
      }
    },
    {
      "type": "Feature",
      "properties": {
        "id_hdad": 34,
        "hermandad": "Cristo de Burgos",
        "calle": "Calle Placentines",
        "osm": "Calle Placentines"
      },
      "geometry": {
        "type": "Point",
        "coordinates": [
          -5.992594,
          37.387654
        ]
      }
    },
    {
      "type": "Feature",
      "properties": {
        "id_hdad": 34,
        "hermandad": "Cristo de Burgos",
        "calle": "Calle Francos",
        "osm": "Calle Francos"
      },
      "geometry": {
        "type": "Point",
        "coordinates": [
          -5.99271,
          37.388333
        ]
      }
    },
    {
      "type": "Feature",
      "properties": {
        "id_hdad": 34,
        "hermandad": "Cristo de Burgos",
        "calle": "Plaza de Jesús de la Pasión",
        "osm": "Plaza de Jesús de la Pasión"
      },
      "geometry": {
        "type": "Point",
        "coordinates": [
          -5.9923502,
          37.3900637
        ]
      }
    },
    {
      "type": "Feature",
      "properties": {
        "id_hdad": 34,
        "hermandad": "Cristo de Burgos",
        "calle": "Calle Alcaicería de la Loza",
        "osm": "Calle Alcaicería de la Loza"
      },
      "geometry": {
        "type": "Point",
        "coordinates": [
          -5.9917031,
          37.3904021
        ]
      }
    },
    {
      "type": "Feature",
      "properties": {
        "id_hdad": 34,
        "hermandad": "Cristo de Burgos",
        "calle": "Plaza de La Alfalfa",
        "osm": "Plaza de La Alfalfa"
      },
      "geometry": {
        "type": "Point",
        "coordinates": [
          -5.9907029,
          37.390336
        ]
      }
    },
    {
      "type": "Feature",
      "properties": {
        "id_hdad": 34,
        "hermandad": "Cristo de Burgos",
        "calle": "Calle San Juan",
        "osm": "Calle San Juan"
      },
      "geometry": {
        "type": "Point",
        "coordinates": [
          -5.9907336,
          37.3905881
        ]
      }
    },
    {
      "type": "Feature",
      "properties": {
        "id_hdad": 34,
        "hermandad": "Cristo de Burgos",
        "calle": "Calle Boteros",
        "osm": "Calle Boteros"
      },
      "geometry": {
        "type": "Point",
        "coordinates": [
          -5.99075,
          37.3908772
        ]
      }
    },
    {
      "type": "Feature",
      "properties": {
        "id_hdad": 34,
        "hermandad": "Cristo de Burgos",
        "calle": "Calle Sales y Ferré",
        "osm": "Calle Sales y Ferré"
      },
      "geometry": {
        "type": "Point",
        "coordinates": [
          -5.9901652,
          37.391109
        ]
      }
    },
    {
      "type": "Feature",
      "properties": {
        "id_hdad": 34,
        "hermandad": "Cristo de Burgos",
        "calle": "Plaza del Cristo de Burgos",
        "osm": "Plaza del Cristo de Burgos"
      },
      "geometry": {
        "type": "Point",
        "coordinates": [
          -5.9895944,
          37.3919974
        ]
      }
    }
  ]
}
