{"type":"FeatureCollection","features":[{"type":"Feature","properties":{"id_hdad":35,"nombre":"Siete Palabras","dia":"miercoles-santo"},"geometry":{"type":"LineString","coordinates":[[-5.9989654,37.3941809],[-5.9984807,37.3935516],[-5.9978968,37.3951943],[-5.9966468,37.3948202],[-5.9967933,37.3945045],[-5.9963843,37.3942981],[-5.995978500352905,37.3940198419956],[-5.9959864,37.3938914],[-5.9959496,37.3937209],[-5.9959193,37.3936073],[-5.9959583,37.3934438],[-5.996046,37.393115],[-5.9960975,37.392915],[-5.9961387,37.3927242],[-5.9958656,37.392719],[-5.9955948,37.3927173],[-5.9954756,37.3927173],[-5.995376,37.392725],[-5.994924,37.392751],[-5.994797,37.391803],[-5.9945202,37.3909414],[-5.994258,37.389845],[-5.994175,37.389143],[-5.994154,37.38867],[-5.994169,37.388187],[-5.994296,37.388071],[-5.9943041,37.3879286],[-5.9942267,37.38731],[-5.9941493,37.386713],[-5.9940679,37.3860718],[-5.9940344,37.3857616],[-5.993999,37.385447],[-5.9934331,37.3854932],[-5.9929686,37.3855304],[-5.992619,37.385552],[-5.9926646,37.3858225],[-5.99271,37.386038],[-5.992325,37.386077],[-5.992365,37.386288],[-5.992537,37.386555],[-5.992515,37.38666],[-5.992549,37.386763],[-5.992807,37.386777],[-5.9936149,37.38779],[-5.994167,37.388609],[-5.9949315,37.3886551],[-5.9951669,37.3902317],[-5.9953197,37.3907871],[-5.9954035,37.3911654],[-5.9954456,37.3918072],[-5.9954302,37.3922483],[-5.9953759,37.3927251],[-5.9965356,37.3927513],[-5.9976096,37.3933619],[-5.9979445,37.3939831],[-5.9989654,37.3941809],[-5.9968379,37.390749]]}},{"type":"Feature","properties":{"id_hdad":35,"hermandad":"Siete Palabras","calle":"Calle Cardenal Cisneros","osm":"Calle Cardenal Cisneros"},"geometry":{"type":"Point","coordinates":[-5.9989654,37.3941809]}},{"type":"Feature","properties":{"id_hdad":35,"hermandad":"Siete Palabras","calle":"Calle Jesús de la Vera-Cruz","osm":"Calle Jesús de la Vera-Cruz"},"geometry":{"type":"Point","coordinates":[-5.9984807,37.3935516]}},{"type":"Feature","properties":{"id_hdad":35,"hermandad":"Siete Palabras","calle":"Calle Baños","osm":"Calle Baños"},"geometry":{"type":"Point","coordinates":[-5.9978968,37.3951943]}},{"type":"Feature","properties":{"id_hdad":35,"hermandad":"Siete Palabras","calle":"Plaza de la Gavidia","osm":"Plaza de la Gavidia"},"geometry":{"type":"Point","coordinates":[-5.9966468,37.3948202]}},{"type":"Feature","properties":{"id_hdad":35,"hermandad":"Siete Palabras","calle":"Plaza de La Concordia","osm":"Plaza de la Concordia"},"geometry":{"type":"Point","coordinates":[-5.9967933,37.3945045]}},{"type":"Feature","properties":{"id_hdad":35,"hermandad":"Siete Palabras","calle":"Calle Las Cortes","osm":"Calle Las Cortes"},"geometry":{"type":"Point","coordinates":[-5.9963843,37.3942981]}},{"type":"Feature","properties":{"id_hdad":35,"hermandad":"Siete Palabras","calle":"Calle Jesús del Gran Poder","osm":"Calle Jesús del Gran Poder"},"geometry":{"type":"Point","coordinates":[-5.995978500352905,37.3940198419956]}},{"type":"Feature","properties":{"id_hdad":35,"hermandad":"Siete Palabras","calle":"Plaza del Duque de la Victoria","osm":"Plaza del Duque de la Victoria"},"geometry":{"type":"Point","coordinates":[-5.996046,37.393115]}},{"type":"Feature","properties":{"id_hdad":35,"hermandad":"Siete Palabras","calle":"La Campana","osm":"Calle Campana"},"geometry":{"type":"Point","coordinates":[-5.995376,37.392725]}},{"type":"Feature","properties":{"id_hdad":35,"hermandad":"Siete Palabras","calle":"Calle Sierpes","osm":"Calle Sierpes"},"geometry":{"type":"Point","coordinates":[-5.9947885,37.3908748]}},{"type":"Feature","properties":{"id_hdad":35,"hermandad":"Siete Palabras","calle":"Plaza de San Francisco","osm":"Plaza de San Francisco"},"geometry":{"type":"Point","coordinates":[-5.994154,37.38867]}},{"type":"Feature","properties":{"id_hdad":35,"hermandad":"Siete Palabras","calle":"Avenida de la Constitución","osm":"Avenida de la Constitución"},"geometry":{"type":"Point","coordinates":[-5.994185,37.386838]}},{"type":"Feature","properties":{"id_hdad":35,"hermandad":"Siete Palabras","calle":"Calle Cardenal Carlos Amigo","osm":"Calle Cardenal Carlos Amigo"},"geometry":{"type":"Point","coordinates":[-5.992537,37.386555]}},{"type":"Feature","properties":{"id_hdad":35,"hermandad":"Siete Palabras","calle":"Calle Alemanes","osm":"Calle Alemanes"},"geometry":{"type":"Point","coordinates":[-5.992807,37.386777]}},{"type":"Feature","properties":{"id_hdad":35,"hermandad":"Siete Palabras","calle":"Calle Hernando Colón","osm":"Calle Hernando Colón"},"geometry":{"type":"Point","coordinates":[-5.9936149,37.38779]}},{"type":"Feature","properties":{"id_hdad":35,"hermandad":"Siete Palabras","calle":"Plaza de San Francisco","osm":"Plaza de San Francisco"},"geometry":{"type":"Point","coordinates":[-5.994167,37.388609]}},{"type":"Feature","properties":{"id_hdad":35,"hermandad":"Siete Palabras","calle":"Plaza Nueva","osm":"Plaza Nueva"},"geometry":{"type":"Point","coordinates":[-5.9949315,37.3886551]}},{"type":"Feature","properties":{"id_hdad":35,"hermandad":"Siete Palabras","calle":"Calle Tetuán","osm":"Calle Tetuán"},"geometry":{"type":"Point","coordinates":[-5.9951669,37.3902317]}},{"type":"Feature","properties":{"id_hdad":35,"hermandad":"Siete Palabras","calle":"Calle Velázquez","osm":"Calle Velázquez"},"geometry":{"type":"Point","coordinates":[-5.9954035,37.3911654]}},{"type":"Feature","properties":{"id_hdad":35,"hermandad":"Siete Palabras","calle":"Calle O'Donnell","osm":"Calle O'Donnell"},"geometry":{"type":"Point","coordinates":[-5.9954302,37.3922483]}},{"type":"Feature","properties":{"id_hdad":35,"hermandad":"Siete Palabras","calle":"La Campana","osm":"Calle Campana"},"geometry":{"type":"Point","coordinates":[-5.9953759,37.3927251]}},{"type":"Feature","properties":{"id_hdad":35,"hermandad":"Siete Palabras","calle":"Calle Alfonso XII","osm":"Calle Alfonso XII"},"geometry":{"type":"Point","coordinates":[-5.9965356,37.3927513]}},{"type":"Feature","properties":{"id_hdad":35,"hermandad":"Siete Palabras","calle":"Calle Santa Vicenta María","osm":"Calle Santa Vicenta María"},"geometry":{"type":"Point","coordinates":[-5.9976096,37.3933619]}},{"type":"Feature","properties":{"id_hdad":35,"hermandad":"Siete Palabras","calle":"Calle Virgen de los Buenos Libros","osm":"Calle Virgen de los Buenos Libros"},"geometry":{"type":"Point","coordinates":[-5.9979445,37.3939831]}},{"type":"Feature","properties":{"id_hdad":35,"hermandad":"Siete Palabras","calle":"Calle Cardenal Cisneros","osm":"Calle Cardenal Cisneros"},"geometry":{"type":"Point","coordinates":[-5.9989654,37.3941809]}},{"type":"Feature","properties":{"id_hdad":35,"hermandad":"Siete Palabras","calle":"Plaza de la Magdalena","osm":"Plaza de la Magdalena"},"geometry":{"type":"Point","coordinates":[-5.9968379,37.390749]}}]}