{
  "type": "FeatureCollection",
  "features": [
    {
      "type": "Feature",
      "properties": {
        "id_hdad": 39,
        "nombre": "Montesión",
        "dia": "jueves-santo"
      },
      "geometry": {
        "type": "LineString",
        "coordinates": [
          [
            -5.9911863,
            37.3968609
          ],
          [
            -5.9911914,
            37.3970242
          ],
          [
            -5.9913867,
            37.397408
          ],
          [
            -5.9915409,
            37.3977387
          ],
          [
            -5.9916077,
            37.398049
          ],
          [
            -5.9921885,
            37.3978378
          ],
          [
            -5.9927442,
            37.3974166
          ],
          [
            -5.99308,
            37.3971746
          ],
          [
            -5.9932149,
            37.3971148
          ],
          [
            -5.9932928,
            37.3970262
          ],
          [
            -5.9933836,
            37.3969767
          ],
          [
            -5.9938058,
            37.3967448
          ],
          [
            -5.994027,
            37.396751
          ],
          [
            -5.994374,
            37.39685
          ],
          [
            -5.994618,
            37.396413
          ],
          [
            -5.994787,
            37.396096
          ],
          [
            -5.994908,
            37.395763
          ],
          [
            -5.995151,
            37.394856
          ],
          [
            -5.995272,
            37.39437
          ],
          [
            -5.995298,
            37.393904
          ],
          [
            -5.9953414,
            37.3937572
          ],
          [
            -5.995446,
            37.393623
          ],
          [
            -5.995615,
            37.39345
          ],
          [
            -5.995644,
            37.393115
          ],
          [
            -5.995643,
            37.39272
          ],
          [
            -5.994924,
            37.392751
          ],
          [
            -5.994797,
            37.391803
          ],
          [
            -5.994542,
            37.390976
          ],
          [
            -5.994258,
            37.389845
          ],
          [
            -5.994175,
            37.389143
          ],
          [
            -5.994151,
            37.388605
          ],
          [
            -5.994169,
            37.388187
          ],
          [
            -5.994296,
            37.388071
          ],
          [
            -5.9943041,
            37.3879286
          ],
          [
            -5.9942267,
            37.38731
          ],
          [
            -5.9941493,
            37.386713
          ],
          [
            -5.9940679,
            37.3860718
          ],
          [
            -5.9940344,
            37.3857616
          ],
          [
            -5.993999,
            37.385447
          ],
          [
            -5.9934331,
            37.3854932
          ],
          [
            -5.9929686,
            37.3855304
          ],
          [
            -5.992619,
            37.385552
          ],
          [
            -5.9926646,
            37.3858225
          ],
          [
            -5.99271,
            37.386038
          ],
          [
            -5.992325,
            37.386077
          ],
          [
            -5.992343,
            37.386298
          ],
          [
            -5.992461,
            37.386331
          ],
          [
            -5.992523,
            37.386502
          ],
          [
            -5.992515,
            37.38666
          ],
          [
            -5.992549,
            37.386763
          ],
          [
            -5.992807,
            37.386777
          ],
          [
            -5.993037,
            37.386751
          ],
          [
            -5.993054,
            37.386917
          ],
          [
            -5.9930245,
            37.3870101
          ],
          [
            -5.9929267,
            37.3871073
          ],
          [
            -5.992697,
            37.387288
          ],
          [
            -5.9924725,
            37.3874675
          ],
          [
            -5.9925659,
            37.3876592
          ],
          [
            -5.992704,
            37.387858
          ],
          [
            -5.99277,
            37.38804
          ],
          [
            -5.9927812,
            37.3883333
          ],
          [
            -5.992748,
            37.388584
          ],
          [
            -5.992999,
            37.388611
          ],
          [
            -5.993132428703218,
            37.39005314738425
          ],
          [
            -5.993169,
            37.390185
          ],
          [
            -5.993243,
            37.390261
          ],
          [
            -5.993364,
            37.390816
          ],
          [
            -5.993467,
            37.391235
          ],
          [
            -5.9935277,
            37.3916027
          ],
          [
            -5.9935906,
            37.3922026
          ],
          [
            -5.993653,
            37.392822
          ],
          [
            -5.992981,
            37.392804
          ],
          [
            -5.992232,
            37.392791
          ],
          [
            -5.991583,
            37.392717
          ],
          [
            -5.991508,
            37.392727
          ],
          [
            -5.991465,
            37.392787
          ],
          [
            -5.991425,
            37.393054
          ],
          [
            -5.991362,
            37.393635
          ],
          [
            -5.9908033,
            37.3936049
          ],
          [
            -5.990453,
            37.393595
          ],
          [
            -5.990418,
            37.393942
          ],
          [
            -5.990366,
            37.394231
          ],
          [
            -5.990316,
            37.394559
          ],
          [
            -5.99027,
            37.394863
          ],
          [
            -5.9909195,
            37.3951526
          ],
          [
            -5.9914514,
            37.3953855
          ],
          [
            -5.991262,
            37.3958349
          ],
          [
            -5.9911867,
            37.3959964
          ],
          [
            -5.9912334,
            37.3962149
          ],
          [
            -5.9912153,
            37.3964479
          ],
          [
            -5.9911867,
            37.3967386
          ],
          [
            -5.9911945,
            37.3968643
          ]
        ]
      }
    },
    {
      "type": "Feature",
      "properties": {
        "id_hdad": 39,
        "hermandad": "Montesión",
        "calle": "Calle Feria",
        "osm": "Calle Feria"
      },
      "geometry": {
        "type": "Point",
        "coordinates": [
          -5.9915567,
          37.3980591
        ]
      }
    },
    {
      "type": "Feature",
      "properties": {
        "id_hdad": 39,
        "hermandad": "Montesión",
        "calle": "Calle Correduría",
        "osm": "Calle Correduría"
      },
      "geometry": {
        "type": "Point",
        "coordinates": [
          -5.9927193,
          37.3974669
        ]
      }
    },
    {
      "type": "Feature",
      "properties": {
        "id_hdad": 39,
        "hermandad": "Montesión",
        "calle": "Alameda de Hércules",
        "osm": "Alameda de Hércules"
      },
      "geometry": {
        "type": "Point",
        "coordinates": [
          -5.994027,
          37.396751
        ]
      }
    },
    {
      "type": "Feature",
      "properties": {
        "id_hdad": 39,
        "hermandad": "Montesión",
        "calle": "Calle Trajano",
        "osm": "Calle Trajano"
      },
      "geometry": {
        "type": "Point",
        "coordinates": [
          -5.995298,
          37.393904
        ]
      }
    },
    {
      "type": "Feature",
      "properties": {
        "id_hdad": 39,
        "hermandad": "Montesión",
        "calle": "Plaza del Duque de la Victoria (lado derecho)",
        "osm": "Plaza del Duque de la Victoria (lado derecho)"
      },
      "geometry": {
        "type": "Point",
        "coordinates": [
          -5.995633,
          37.393113
        ]
      }
    },
    {
      "type": "Feature",
      "properties": {
        "id_hdad": 39,
        "hermandad": "Montesión",
        "calle": "La Campana",
        "osm": "La Campana"
      },
      "geometry": {
        "type": "Point",
        "coordinates": [
          -5.995376,
          37.392725
        ]
      }
    },
    {
      "type": "Feature",
      "properties": {
        "id_hdad": 39,
        "hermandad": "Montesión",
        "calle": "Calle Sierpes",
        "osm": "Calle Sierpes"
      },
      "geometry": {
        "type": "Point",
        "coordinates": [
          -5.9947885,
          37.3908748
        ]
      }
    },
    {
      "type": "Feature",
      "properties": {
        "id_hdad": 39,
        "hermandad": "Montesión",
        "calle": "Plaza de San Francisco",
        "osm": "Plaza de San Francisco"
      },
      "geometry": {
        "type": "Point",
        "coordinates": [
          -5.994154,
          37.38867
        ]
      }
    },
    {
      "type": "Feature",
      "properties": {
        "id_hdad": 39,
        "hermandad": "Montesión",
        "calle": "Avenida de la Constitución",
        "osm": "Avenida de la Constitución"
      },
      "geometry": {
        "type": "Point",
        "coordinates": [
          -5.994185,
          37.386838
        ]
      }
    },
    {
      "type": "Feature",
      "properties": {
        "id_hdad": 39,
        "hermandad": "Montesión",
        "calle": "Calle Cardenal Carlos Amigo",
        "osm": "Calle Cardenal Carlos Amigo"
      },
      "geometry": {
        "type": "Point",
        "coordinates": [
          -5.992537,
          37.386555
        ]
      }
    },
    {
      "type": "Feature",
      "properties": {
        "id_hdad": 39,
        "hermandad": "Montesión",
        "calle": "Calle Alemanes",
        "osm": "Calle Alemanes"
      },
      "geometry": {
        "type": "Point",
        "coordinates": [
          -5.992807,
          37.386777
        ]
      }
    },
    {
      "type": "Feature",
      "properties": {
        "id_hdad": 39,
        "hermandad": "Montesión",
        "calle": "Calle Álvarez Quintero",
        "osm": "Calle Álvarez Quintero"
      },
      "geometry": {
        "type": "Point",
        "coordinates": [
          -5.993054,
          37.386917
        ]
      }
    },
    {
      "type": "Feature",
      "properties": {
        "id_hdad": 39,
        "hermandad": "Montesión",
        "calle": "Calle Argote de Molina",
        "osm": "Calle Argote de Molina"
      },
      "geometry": {
        "type": "Point",
        "coordinates": [
          -5.992697,
          37.387288
        ]
      }
    },
    {
      "type": "Feature",
      "properties": {
        "id_hdad": 39,
        "hermandad": "Montesión",
        "calle": "Calle Placentines",
        "osm": "Calle Placentines"
      },
      "geometry": {
        "type": "Point",
        "coordinates": [
          -5.992594,
          37.387654
        ]
      }
    },
    {
      "type": "Feature",
      "properties": {
        "id_hdad": 39,
        "hermandad": "Montesión",
        "calle": "Calle Francos",
        "osm": "Calle Francos"
      },
      "geometry": {
        "type": "Point",
        "coordinates": [
          -5.99271,
          37.388333
        ]
      }
    },
    {
      "type": "Feature",
      "properties": {
        "id_hdad": 39,
        "hermandad": "Montesión",
        "calle": "Calle Chapineros",
        "osm": "Calle Chapineros"
      },
      "geometry": {
        "type": "Point",
        "coordinates": [
          -5.992999,
          37.388611
        ]
      }
    },
    {
      "type": "Feature",
      "properties": {
        "id_hdad": 39,
        "hermandad": "Montesión",
        "calle": "Plaza del Salvador",
        "osm": "Plaza del Salvador"
      },
      "geometry": {
        "type": "Point",
        "coordinates": [
          -5.993132428703218,
          37.39005314738425
        ]
      }
    },
    {
      "type": "Feature",
      "properties": {
        "id_hdad": 39,
        "hermandad": "Montesión",
        "calle": "Calle Cuna",
        "osm": "Calle Cuna"
      },
      "geometry": {
        "type": "Point",
        "coordinates": [
          -5.9935277,
          37.3916604
        ]
      }
    },
    {
      "type": "Feature",
      "properties": {
        "id_hdad": 39,
        "hermandad": "Montesión",
        "calle": "Calle Laraña",
        "osm": "Calle Laraña"
      },
      "geometry": {
        "type": "Point",
        "coordinates": [
          -5.992981,
          37.392804
        ]
      }
    },
    {
      "type": "Feature",
      "properties": {
        "id_hdad": 39,
        "hermandad": "Montesión",
        "calle": "Plaza de la Encarnación",
        "osm": "Plaza de la Encarnación"
      },
      "geometry": {
        "type": "Point",
        "coordinates": [
          -5.991857,
          37.392743
        ]
      }
    },
    {
      "type": "Feature",
      "properties": {
        "id_hdad": 39,
        "hermandad": "Montesión",
        "calle": "Calle Alcázares",
        "osm": "Calle Alcázares"
      },
      "geometry": {
        "type": "Point",
        "coordinates": [
          -5.990883,
          37.393616
        ]
      }
    },
    {
      "type": "Feature",
      "properties": {
        "id_hdad": 39,
        "hermandad": "Montesión",
        "calle": "Calle Santa Ángela de la Cruz",
        "osm": "Calle Santa Ángela de la Cruz"
      },
      "geometry": {
        "type": "Point",
        "coordinates": [
          -5.990366,
          37.394231
        ]
      }
    },
    {
      "type": "Feature",
      "properties": {
        "id_hdad": 39,
        "hermandad": "Montesión",
        "calle": "Calle San Juan de la Palma",
        "osm": "Calle San Juan de la Palma"
      },
      "geometry": {
        "type": "Point",
        "coordinates": [
          -5.991095,
          37.39524
        ]
      }
    }
  ]
}
