{"type":"FeatureCollection","features":[{"type":"Feature","properties":{"id_hdad":40,"nombre":"La Quinta Angustia","dia":"jueves-santo"},"geometry":{"type":"LineString","coordinates":[[-5.9981374,37.390293],[-5.9978096,37.3905118],[-5.9968379,37.390749],[-5.9962283,37.3909095],[-5.9953948,37.3910576],[-5.9954369,37.3915297],[-5.9954536,37.3920476],[-5.9954134,37.3924164],[-5.9954181,37.3927212],[-5.994924,37.392751],[-5.994797,37.391803],[-5.994542,37.390976],[-5.994258,37.389845],[-5.994175,37.389143],[-5.994151,37.388605],[-5.994169,37.388187],[-5.994296,37.388071],[-5.9943041,37.3879286],[-5.9942267,37.38731],[-5.9941493,37.386713],[-5.9940679,37.3860718],[-5.9940344,37.3857616],[-5.993999,37.385447],[-5.9934331,37.3854932],[-5.9929686,37.3855304],[-5.992619,37.385552],[-5.9926646,37.3858225],[-5.99271,37.386038],[-5.992325,37.386077],[-5.9921507,37.3852914],[-5.9924127,37.3851724],[-5.9935917,37.3851092],[-5.9939194,37.3851167],[-5.9940784,37.3851725],[-5.9944387,37.3851018],[-5.9946016,37.3850918],[-5.9947139,37.3852071],[-5.9948075,37.3852443],[-5.9949385,37.3852331],[-5.9951972,37.385176],[-5.9953598,37.3851215],[-5.9953224,37.3852665],[-5.9953317,37.385378],[-5.9953972,37.3856197],[-5.9954957,37.3857758],[-5.9961928,37.3861699],[-5.9961737,37.3862092],[-5.9960848,37.3862575],[-5.9961784,37.3863579],[-5.9972329,37.3872018],[-5.9978829,37.3877064],[-5.9976929,37.3878993],[-5.9974462,37.3881554],[-5.997383,37.3883309],[-5.9977618,37.38845],[-5.998247,37.3886694],[-5.9986533,37.3888826],[-5.9989897,37.3890495],[-5.9994237,37.3893473],[-5.9990725,37.3897046],[-5.9985321,37.3900494],[-5.9981573,37.3902876]]}},{"type":"Feature","properties":{"id_hdad":40,"hermandad":"La Quinta Angustia","calle":"Calle San Pablo","osm":"Calle San Pablo"},"geometry":{"type":"Point","coordinates":[-5.9982008,37.3902826]}},{"type":"Feature","properties":{"id_hdad":40,"hermandad":"La Quinta Angustia","calle":"Plaza de la Magdalena","osm":"Plaza de la Magdalena"},"geometry":{"type":"Point","coordinates":[-5.9968379,37.390749]}},{"type":"Feature","properties":{"id_hdad":40,"hermandad":"La Quinta Angustia","calle":"Calle Rioja","osm":"Calle Rioja"},"geometry":{"type":"Point","coordinates":[-5.9957878,37.3909944]}},{"type":"Feature","properties":{"id_hdad":40,"hermandad":"La Quinta Angustia","calle":"Calle Velázquez","osm":"Calle Velázquez"},"geometry":{"type":"Point","coordinates":[-5.9954323,37.3915334]}},{"type":"Feature","properties":{"id_hdad":40,"hermandad":"La Quinta Angustia","calle":"Calle O'Donnell","osm":"Calle O'Donnell"},"geometry":{"type":"Point","coordinates":[-5.9954302,37.3922483]}},{"type":"Feature","properties":{"id_hdad":40,"hermandad":"La Quinta Angustia","calle":"La Campana","osm":"Calle Campana"},"geometry":{"type":"Point","coordinates":[-5.9953759,37.3927251]}},{"type":"Feature","properties":{"id_hdad":40,"hermandad":"La Quinta Angustia","calle":"Calle Sierpes","osm":"Calle Sierpes"},"geometry":{"type":"Point","coordinates":[-5.9944906,37.3907418]}},{"type":"Feature","properties":{"id_hdad":40,"hermandad":"La Quinta Angustia","calle":"Plaza de San Francisco","osm":"Plaza de San Francisco"},"geometry":{"type":"Point","coordinates":[-5.9941544,37.3886604]}},{"type":"Feature","properties":{"id_hdad":40,"hermandad":"La Quinta Angustia","calle":"Avenida de la Constitución","osm":"Avenida de la Constitución"},"geometry":{"type":"Point","coordinates":[-5.9936639,37.3834745]}},{"type":"Feature","properties":{"id_hdad":40,"hermandad":"La Quinta Angustia","calle":"Calle Fray Ceferino González","osm":"Calle Fray Ceferino González"},"geometry":{"type":"Point","coordinates":[-5.9931263,37.3851399]}},{"type":"Feature","properties":{"id_hdad":40,"hermandad":"La Quinta Angustia","calle":"Calle Almirantazgo","osm":"Calle Almirantazgo"},"geometry":{"type":"Point","coordinates":[-5.9943022,37.385129]}},{"type":"Feature","properties":{"id_hdad":40,"hermandad":"La Quinta Angustia","calle":"Calle Arco del Postigo","osm":"Calle Arco del Postigo"},"geometry":{"type":"Point","coordinates":[-5.9949572,37.3852368]}},{"type":"Feature","properties":{"id_hdad":40,"hermandad":"La Quinta Angustia","calle":"Calle Dos de Mayo","osm":"Calle Dos de Mayo"},"geometry":{"type":"Point","coordinates":[-5.9951972,37.385176]}},{"type":"Feature","properties":{"id_hdad":40,"hermandad":"La Quinta Angustia","calle":"Calle Arfe","osm":"Calle Arfe"},"geometry":{"type":"Point","coordinates":[-5.9953472,37.3853603]}},{"type":"Feature","properties":{"id_hdad":40,"hermandad":"La Quinta Angustia","calle":"Calle Puerta del Arenal","osm":"Calle Puerta del Arenal"},"geometry":{"type":"Point","coordinates":[-5.9961081,37.3862154]}},{"type":"Feature","properties":{"id_hdad":40,"hermandad":"La Quinta Angustia","calle":"Calle Castelar","osm":"Calle Castelar"},"geometry":{"type":"Point","coordinates":[-5.9972329,37.3872018]}},{"type":"Feature","properties":{"id_hdad":40,"hermandad":"La Quinta Angustia","calle":"Plaza de Molviedro","osm":"Plaza de Molviedro"},"geometry":{"type":"Point","coordinates":[-5.9977813,37.3878196]}},{"type":"Feature","properties":{"id_hdad":40,"hermandad":"La Quinta Angustia","calle":"Calle Doña Guiomar","osm":"Calle Doña Guiomar"},"geometry":{"type":"Point","coordinates":[-5.9976929,37.3878993]}},{"type":"Feature","properties":{"id_hdad":40,"hermandad":"La Quinta Angustia","calle":"Calle Zaragoza","osm":"Calle Zaragoza"},"geometry":{"type":"Point","coordinates":[-5.9980142,37.3885566]}},{"type":"Feature","properties":{"id_hdad":40,"hermandad":"La Quinta Angustia","calle":"Calle San Pablo","osm":"Calle San Pablo"},"geometry":{"type":"Point","coordinates":[-5.9981497,37.3903011]}}]}