{"type":"FeatureCollection","features":[{"type":"Feature","properties":{"id_hdad":43,"nombre":"El Silencio","dia":"madruga"},"geometry":{"type":"LineString","coordinates":[[-5.9969273,37.3925174],[-5.9965356,37.3927513],[-5.99564,37.393105],[-5.995631,37.392901],[-5.995376,37.392725],[-5.994924,37.392751],[-5.994797,37.391803],[-5.9945202,37.3909414],[-5.994258,37.389845],[-5.994175,37.389143],[-5.994154,37.38867],[-5.994169,37.388187],[-5.994296,37.388071],[-5.9943041,37.3879286],[-5.9942267,37.38731],[-5.9941493,37.386713],[-5.9940679,37.3860718],[-5.9940344,37.3857616],[-5.993999,37.385447],[-5.9934331,37.3854932],[-5.9929686,37.3855304],[-5.992619,37.385552],[-5.9926646,37.3858225],[-5.99271,37.386038],[-5.992325,37.386077],[-5.992365,37.386288],[-5.992537,37.386555],[-5.992515,37.38666],[-5.992549,37.386763],[-5.992807,37.386777],[-5.993037,37.386751],[-5.993054,37.386917],[-5.9930245,37.3870101],[-5.9929267,37.3871073],[-5.992697,37.387288],[-5.992489,37.387452],[-5.992594,37.387654],[-5.992704,37.387858],[-5.99277,37.38804],[-5.992765,37.388268],[-5.992739,37.388594],[-5.992652,37.388762],[-5.992579,37.389047],[-5.992548,37.389396],[-5.992496,37.389533],[-5.992354,37.389739],[-5.992781,37.389701],[-5.993087,37.389679],[-5.993132428703218,37.39005314738425],[-5.993169,37.390185],[-5.993243,37.390261],[-5.993364,37.390816],[-5.993467,37.391235],[-5.9934667,37.3916005],[-5.9937493,37.3932616],[-5.9936917,37.3934516],[-5.9938521,37.3937374],[-5.993848,37.393767],[-5.994097,37.3940989],[-5.994158,37.394243],[-5.9941921,37.394338],[-5.994239,37.3945012],[-5.994448,37.3945001],[-5.9946464,37.3944977],[-5.994758,37.393914],[-5.9947526,37.3942963],[-5.995328,37.394392],[-5.995349,37.3943531],[-5.9956421,37.3944101],[-5.9959065,37.3944789],[-5.9959409,37.3942843],[-5.995978500352905,37.3940198419956],[-5.9965356,37.3927513],[-5.9969273,37.3925174]]}},{"type":"Feature","properties":{"id_hdad":43,"hermandad":"El Silencio","calle":"Calle El Silencio","osm":"Calle de \"El Silencio\""},"geometry":{"type":"Point","coordinates":[-5.9969273,37.3925174]}},{"type":"Feature","properties":{"id_hdad":43,"hermandad":"El Silencio","calle":"Calle Alfonso XII","osm":"Calle Alfonso XII"},"geometry":{"type":"Point","coordinates":[-5.9965356,37.3927513]}},{"type":"Feature","properties":{"id_hdad":43,"hermandad":"El Silencio","calle":"Plaza del Duque de la Victoria (lado derecho)","osm":"Plaza del Duque de la Victoria (lado derecho"},"geometry":{"type":"Point","coordinates":[-5.99564,37.393105]}},{"type":"Feature","properties":{"id_hdad":43,"hermandad":"El Silencio","calle":"La Campana","osm":"Calle Campana"},"geometry":{"type":"Point","coordinates":[-5.995376,37.392725]}},{"type":"Feature","properties":{"id_hdad":43,"hermandad":"El Silencio","calle":"Calle Sierpes","osm":"Calle Sierpes"},"geometry":{"type":"Point","coordinates":[-5.9947885,37.3908748]}},{"type":"Feature","properties":{"id_hdad":43,"hermandad":"El Silencio","calle":"Plaza de San Francisco","osm":"Plaza de San Francisco"},"geometry":{"type":"Point","coordinates":[-5.994154,37.38867]}},{"type":"Feature","properties":{"id_hdad":43,"hermandad":"El Silencio","calle":"Avenida de la Constitución","osm":"Avenida de la Constitución"},"geometry":{"type":"Point","coordinates":[-5.994185,37.386838]}},{"type":"Feature","properties":{"id_hdad":43,"hermandad":"El Silencio","calle":"Calle Cardenal Carlos Amigo","osm":"Calle Cardenal Carlos Amigo"},"geometry":{"type":"Point","coordinates":[-5.992537,37.386555]}},{"type":"Feature","properties":{"id_hdad":43,"hermandad":"El Silencio","calle":"Calle Alemanes","osm":"Calle Alemanes"},"geometry":{"type":"Point","coordinates":[-5.992807,37.386777]}},{"type":"Feature","properties":{"id_hdad":43,"hermandad":"El Silencio","calle":"Calle Álvarez Quintero","osm":"Calle Álvarez Quintero"},"geometry":{"type":"Point","coordinates":[-5.993054,37.386917]}},{"type":"Feature","properties":{"id_hdad":43,"hermandad":"El Silencio","calle":"Calle Argote de Molina","osm":"Calle Argote de Molina"},"geometry":{"type":"Point","coordinates":[-5.992697,37.387288]}},{"type":"Feature","properties":{"id_hdad":43,"hermandad":"El Silencio","calle":"Calle Placentines","osm":"Calle Placentines"},"geometry":{"type":"Point","coordinates":[-5.992594,37.387654]}},{"type":"Feature","properties":{"id_hdad":43,"hermandad":"El Silencio","calle":"Calle Francos","osm":"Calle Francos"},"geometry":{"type":"Point","coordinates":[-5.992765,37.388268]}},{"type":"Feature","properties":{"id_hdad":43,"hermandad":"El Silencio","calle":"Calle Villegas","osm":"Calle Villegas"},"geometry":{"type":"Point","coordinates":[-5.992781,37.389701]}},{"type":"Feature","properties":{"id_hdad":43,"hermandad":"El Silencio","calle":"Plaza del Salvador","osm":"Plaza del Salvador"},"geometry":{"type":"Point","coordinates":[-5.993132428703218,37.39005314738425]}},{"type":"Feature","properties":{"id_hdad":43,"hermandad":"El Silencio","calle":"Calle Cuna","osm":"Calle Cuna"},"geometry":{"type":"Point","coordinates":[-5.9934667,37.3916005]}},{"type":"Feature","properties":{"id_hdad":43,"hermandad":"El Silencio","calle":"Calle Orfila","osm":"Calle Orfila"},"geometry":{"type":"Point","coordinates":[-5.9937493,37.3932616]}},{"type":"Feature","properties":{"id_hdad":43,"hermandad":"El Silencio","calle":"Plaza Fernando de Herrera","osm":"Plaza Fernando de Herrera"},"geometry":{"type":"Point","coordinates":[-5.993848,37.393767]}},{"type":"Feature","properties":{"id_hdad":43,"hermandad":"El Silencio","calle":"Plaza Fernando de Herrera","osm":"Plaza Fernando de Herrera"},"geometry":{"type":"Point","coordinates":[-5.994158,37.394243]}},{"type":"Feature","properties":{"id_hdad":43,"hermandad":"El Silencio","calle":"Calle Daoiz","osm":"Calle Daoiz"},"geometry":{"type":"Point","coordinates":[-5.9941921,37.394338]}},{"type":"Feature","properties":{"id_hdad":43,"hermandad":"El Silencio","calle":"Calle García Tassara","osm":"Calle García Tassara"},"geometry":{"type":"Point","coordinates":[-5.994448,37.3945001]}},{"type":"Feature","properties":{"id_hdad":43,"hermandad":"El Silencio","calle":"Calle Amor de Dios","osm":"Calle Amor de Dios"},"geometry":{"type":"Point","coordinates":[-5.994758,37.393914]}},{"type":"Feature","properties":{"id_hdad":43,"hermandad":"El Silencio","calle":"Calle San Miguel","osm":"Calle San Miguel"},"geometry":{"type":"Point","coordinates":[-5.995328,37.394392]}},{"type":"Feature","properties":{"id_hdad":43,"hermandad":"El Silencio","calle":"Calle Jesús del Gran Poder","osm":"Calle Jesús del Gran Poder"},"geometry":{"type":"Point","coordinates":[-5.995978500352905,37.3940198419956]}},{"type":"Feature","properties":{"id_hdad":43,"hermandad":"El Silencio","calle":"Calle Alfonso XII","osm":"Calle Alfonso XII"},"geometry":{"type":"Point","coordinates":[-5.9965356,37.3927513]}},{"type":"Feature","properties":{"id_hdad":43,"hermandad":"El Silencio","calle":"Calle El Silencio","osm":"Calle de \"El Silencio\""},"geometry":{"type":"Point","coordinates":[-5.9969273,37.3925174]}}]}