{
  "type": "FeatureCollection",
  "features": [
    {
      "type": "Feature",
      "properties": {
        "id_hdad": 44,
        "nombre": "El Gran Poder",
        "dia": "madruga"
      },
      "geometry": {
        "type": "LineString",
        "coordinates": [
          [
            -5.9966561,
            37.3970955
          ],
          [
            -5.99572,
            37.3977
          ],
          [
            -5.995978500352905,
            37.3940198419956
          ],
          [
            -5.995633,
            37.393113
          ],
          [
            -5.995631,
            37.392901
          ],
          [
            -5.9956336,
            37.3927225
          ],
          [
            -5.995376,
            37.392725
          ],
          [
            -5.994924,
            37.392751
          ],
          [
            -5.994861,
            37.3922847
          ],
          [
            -5.994797,
            37.391803
          ],
          [
            -5.9946698,
            37.3913397
          ],
          [
            -5.9947885,
            37.3908748
          ],
          [
            -5.994258,
            37.389845
          ],
          [
            -5.994175,
            37.389143
          ],
          [
            -5.994154,
            37.38867
          ],
          [
            -5.994169,
            37.388187
          ],
          [
            -5.994296,
            37.388071
          ],
          [
            -5.9943041,
            37.3879286
          ],
          [
            -5.9942267,
            37.38731
          ],
          [
            -5.994185,
            37.386838
          ],
          [
            -5.9947573,
            37.3852277
          ],
          [
            -5.9946016,
            37.3850918
          ],
          [
            -5.9947139,
            37.3852071
          ],
          [
            -5.9948075,
            37.3852443
          ],
          [
            -5.9949714,
            37.3852341
          ],
          [
            -5.9951972,
            37.385176
          ],
          [
            -5.9953598,
            37.3851215
          ],
          [
            -5.9953224,
            37.3852665
          ],
          [
            -5.99562,
            37.385841
          ],
          [
            -5.997544,
            37.386488
          ],
          [
            -5.9980965,
            37.3868746
          ],
          [
            -5.9994501,
            37.3889748
          ],
          [
            -5.999537,
            37.389252
          ],
          [
            -6.0007123,
            37.3906174
          ],
          [
            -6.0009054,
            37.3911905
          ],
          [
            -6.0010463,
            37.3916857
          ],
          [
            -6.0008064,
            37.3917265
          ],
          [
            -6.000465,
            37.3918423
          ],
          [
            -6.000236,
            37.3919713
          ],
          [
            -6.0000403,
            37.3920639
          ],
          [
            -5.9998695,
            37.3918456
          ],
          [
            -5.9996079,
            37.3920772
          ],
          [
            -5.9995247,
            37.3921749
          ],
          [
            -5.9996228,
            37.3925816
          ],
          [
            -5.999728,
            37.3929751
          ],
          [
            -5.9999577,
            37.3929523
          ],
          [
            -5.998851,
            37.3976815
          ],
          [
            -5.9989654,
            37.3941809
          ],
          [
            -5.9984807,
            37.3935516
          ],
          [
            -5.9978968,
            37.3951943
          ],
          [
            -5.9966468,
            37.3948202
          ],
          [
            -5.9969224,
            37.3965357
          ],
          [
            -5.9982008,
            37.3902826
          ],
          [
            -5.9978096,
            37.3905118
          ],
          [
            -5.996838,
            37.390749
          ],
          [
            -5.9977813,
            37.3878196
          ],
          [
            -5.9976929,
            37.3878993
          ],
          [
            -5.9974462,
            37.3881554
          ],
          [
            -5.997383,
            37.3883309
          ],
          [
            -5.9977618,
            37.38845
          ],
          [
            -5.9980142,
            37.3885566
          ]
        ]
      }
    },
    {
      "type": "Feature",
      "properties": {
        "id_hdad": 44,
        "hermandad": "El Gran Poder",
        "calle": "Plaza de San Lorenzo",
        "osm": "Plaza de San Lorenzo"
      },
      "geometry": {
        "type": "Point",
        "coordinates": [
          -5.9966561,
          37.3970955
        ]
      }
    },
    {
      "type": "Feature",
      "properties": {
        "id_hdad": 44,
        "hermandad": "El Gran Poder",
        "calle": "Calle Conde de Barajas",
        "osm": "Calle Conde de Barajas"
      },
      "geometry": {
        "type": "Point",
        "coordinates": [
          -5.99572,
          37.3977
        ]
      }
    },
    {
      "type": "Feature",
      "properties": {
        "id_hdad": 44,
        "hermandad": "El Gran Poder",
        "calle": "Calle Jesús del Gran Poder",
        "osm": "Calle Jesús del Gran Poder"
      },
      "geometry": {
        "type": "Point",
        "coordinates": [
          -5.995978500352905,
          37.3940198419956
        ]
      }
    },
    {
      "type": "Feature",
      "properties": {
        "id_hdad": 44,
        "hermandad": "El Gran Poder",
        "calle": "Plaza del Duque de la Victoria (lado derecho)",
        "osm": "Plaza del Duque de la Victoria (lado derecho)"
      },
      "geometry": {
        "type": "Point",
        "coordinates": [
          -5.995633,
          37.393113
        ]
      }
    },
    {
      "type": "Feature",
      "properties": {
        "id_hdad": 44,
        "hermandad": "El Gran Poder",
        "calle": "La Campana",
        "osm": "Calle Campana"
      },
      "geometry": {
        "type": "Point",
        "coordinates": [
          -5.995376,
          37.392725
        ]
      }
    },
    {
      "type": "Feature",
      "properties": {
        "id_hdad": 44,
        "hermandad": "El Gran Poder",
        "calle": "Calle Sierpes",
        "osm": "Calle Sierpes"
      },
      "geometry": {
        "type": "Point",
        "coordinates": [
          -5.9947885,
          37.3908748
        ]
      }
    },
    {
      "type": "Feature",
      "properties": {
        "id_hdad": 44,
        "hermandad": "El Gran Poder",
        "calle": "Plaza de San Francisco",
        "osm": "Plaza de San Francisco"
      },
      "geometry": {
        "type": "Point",
        "coordinates": [
          -5.994154,
          37.38867
        ]
      }
    },
    {
      "type": "Feature",
      "properties": {
        "id_hdad": 44,
        "hermandad": "El Gran Poder",
        "calle": "Avenida de la Constitución",
        "osm": "Avenida de la Constitución"
      },
      "geometry": {
        "type": "Point",
        "coordinates": [
          -5.994185,
          37.386838
        ]
      }
    },
    {
      "type": "Feature",
      "properties": {
        "id_hdad": 44,
        "hermandad": "El Gran Poder",
        "calle": "Calle Almirantazgo",
        "osm": "Calle Almirantazgo"
      },
      "geometry": {
        "type": "Point",
        "coordinates": [
          -5.9947573,
          37.3852277
        ]
      }
    },
    {
      "type": "Feature",
      "properties": {
        "id_hdad": 44,
        "hermandad": "El Gran Poder",
        "calle": "Calle Arco del Postigo",
        "osm": "Calle Arco del Postigo"
      },
      "geometry": {
        "type": "Point",
        "coordinates": [
          -5.9949714,
          37.3852341
        ]
      }
    },
    {
      "type": "Feature",
      "properties": {
        "id_hdad": 44,
        "hermandad": "El Gran Poder",
        "calle": "Calle Dos de Mayo",
        "osm": "Calle Dos de Mayo"
      },
      "geometry": {
        "type": "Point",
        "coordinates": [
          -5.9951972,
          37.385176
        ]
      }
    },
    {
      "type": "Feature",
      "properties": {
        "id_hdad": 44,
        "hermandad": "El Gran Poder",
        "calle": "Calle Arfe",
        "osm": "Calle Arfe"
      },
      "geometry": {
        "type": "Point",
        "coordinates": [
          -5.99562,
          37.385841
        ]
      }
    },
    {
      "type": "Feature",
      "properties": {
        "id_hdad": 44,
        "hermandad": "El Gran Poder",
        "calle": "Calle Adriano",
        "osm": "Calle Adriano"
      },
      "geometry": {
        "type": "Point",
        "coordinates": [
          -5.997544,
          37.386488
        ]
      }
    },
    {
      "type": "Feature",
      "properties": {
        "id_hdad": 44,
        "hermandad": "El Gran Poder",
        "calle": "Calle López de Arenas",
        "osm": "Calle López de Arenas"
      },
      "geometry": {
        "type": "Point",
        "coordinates": [
          -5.9980965,
          37.3868746
        ]
      }
    },
    {
      "type": "Feature",
      "properties": {
        "id_hdad": 44,
        "hermandad": "El Gran Poder",
        "calle": "Calle Santas Patronas",
        "osm": "Calle Santas Patronas"
      },
      "geometry": {
        "type": "Point",
        "coordinates": [
          -5.9994501,
          37.3889748
        ]
      }
    },
    {
      "type": "Feature",
      "properties": {
        "id_hdad": 44,
        "hermandad": "El Gran Poder",
        "calle": "Calle Puerta de Triana",
        "osm": "Calle Puerta de Triana"
      },
      "geometry": {
        "type": "Point",
        "coordinates": [
          -5.999537,
          37.389252
        ]
      }
    },
    {
      "type": "Feature",
      "properties": {
        "id_hdad": 44,
        "hermandad": "El Gran Poder",
        "calle": "Calle Gravina",
        "osm": "Calle Gravina"
      },
      "geometry": {
        "type": "Point",
        "coordinates": [
          -6.0006702,
          37.3905315
        ]
      }
    },
    {
      "type": "Feature",
      "properties": {
        "id_hdad": 44,
        "hermandad": "El Gran Poder",
        "calle": "Calle Pedro del Toro",
        "osm": "Calle Pedro del Toro"
      },
      "geometry": {
        "type": "Point",
        "coordinates": [
          -6.0004685,
          37.391847
        ]
      }
    },
    {
      "type": "Feature",
      "properties": {
        "id_hdad": 44,
        "hermandad": "El Gran Poder",
        "calle": "Calle Bailén",
        "osm": "Calle Bailén"
      },
      "geometry": {
        "type": "Point",
        "coordinates": [
          -5.9999526,
          37.3919801
        ]
      }
    },
    {
      "type": "Feature",
      "properties": {
        "id_hdad": 44,
        "hermandad": "El Gran Poder",
        "calle": "Calle Miguel de Carvajal",
        "osm": "Calle Miguel de Carvajal"
      },
      "geometry": {
        "type": "Point",
        "coordinates": [
          -5.9996079,
          37.3920772
        ]
      }
    },
    {
      "type": "Feature",
      "properties": {
        "id_hdad": 44,
        "hermandad": "El Gran Poder",
        "calle": "Plaza del Museo",
        "osm": "Plaza del Museo"
      },
      "geometry": {
        "type": "Point",
        "coordinates": [
          -5.9992782,
          37.3928309
        ]
      }
    },
    {
      "type": "Feature",
      "properties": {
        "id_hdad": 44,
        "hermandad": "El Gran Poder",
        "calle": "Calle San Vicente",
        "osm": "Calle San Vicente"
      },
      "geometry": {
        "type": "Point",
        "coordinates": [
          -5.998851,
          37.3976815
        ]
      }
    },
    {
      "type": "Feature",
      "properties": {
        "id_hdad": 44,
        "hermandad": "El Gran Poder",
        "calle": "Calle Cardenal Cisneros",
        "osm": "Calle Cardenal Cisneros"
      },
      "geometry": {
        "type": "Point",
        "coordinates": [
          -5.9989654,
          37.3941809
        ]
      }
    },
    {
      "type": "Feature",
      "properties": {
        "id_hdad": 44,
        "hermandad": "El Gran Poder",
        "calle": "Calle Jesús de la Vera-Cruz",
        "osm": "Calle Jesús de la Vera-Cruz"
      },
      "geometry": {
        "type": "Point",
        "coordinates": [
          -5.9984807,
          37.3935516
        ]
      }
    },
    {
      "type": "Feature",
      "properties": {
        "id_hdad": 44,
        "hermandad": "El Gran Poder",
        "calle": "Calle Baños",
        "osm": "Calle Baños"
      },
      "geometry": {
        "type": "Point",
        "coordinates": [
          -5.9978968,
          37.3951943
        ]
      }
    },
    {
      "type": "Feature",
      "properties": {
        "id_hdad": 44,
        "hermandad": "El Gran Poder",
        "calle": "Plaza de la Gavidia",
        "osm": "Plaza de la Gavidia"
      },
      "geometry": {
        "type": "Point",
        "coordinates": [
          -5.9966468,
          37.3948202
        ]
      }
    },
    {
      "type": "Feature",
      "properties": {
        "id_hdad": 44,
        "hermandad": "El Gran Poder",
        "calle": "Calle Cardenal Spínola",
        "osm": "Calle Cardenal Spinola"
      },
      "geometry": {
        "type": "Point",
        "coordinates": [
          -5.9969224,
          37.3965357
        ]
      }
    },
    {
      "type": "Feature",
      "properties": {
        "id_hdad": 44,
        "hermandad": "El Gran Poder",
        "calle": "Calle San Pablo",
        "osm": "Calle San Pablo"
      },
      "geometry": {
        "type": "Point",
        "coordinates": [
          -5.9982008,
          37.3902826
        ]
      }
    },
    {
      "type": "Feature",
      "properties": {
        "id_hdad": 44,
        "hermandad": "El Gran Poder",
        "calle": "Plaza de la Magdalena",
        "osm": "Plaza de la Magdalena"
      },
      "geometry": {
        "type": "Point",
        "coordinates": [
          -5.996838,
          37.390749
        ]
      }
    },
    {
      "type": "Feature",
      "properties": {
        "id_hdad": 44,
        "hermandad": "El Gran Poder",
        "calle": "Plaza de Molviedro",
        "osm": "Plaza de Molviedro"
      },
      "geometry": {
        "type": "Point",
        "coordinates": [
          -5.9977813,
          37.3878196
        ]
      }
    },
    {
      "type": "Feature",
      "properties": {
        "id_hdad": 44,
        "hermandad": "El Gran Poder",
        "calle": "Calle Doña Guiomar",
        "osm": "Calle Doña Guiomar"
      },
      "geometry": {
        "type": "Point",
        "coordinates": [
          -5.9976929,
          37.3878993
        ]
      }
    },
    {
      "type": "Feature",
      "properties": {
        "id_hdad": 44,
        "hermandad": "El Gran Poder",
        "calle": "Calle Zaragoza",
        "osm": "Calle Zaragoza"
      },
      "geometry": {
        "type": "Point",
        "coordinates": [
          -5.9980142,
          37.3885566
        ]
      }
    }
  ]
}
