{"type":"FeatureCollection","features":[{"type":"Feature","properties":{"id_hdad":46,"nombre":"El Calvario","dia":"madruga"},"geometry":{"type":"LineString","coordinates":[[-5.9987771,37.3898861],[-5.9975101,37.3908111],[-5.9968379,37.390749],[-5.995454,37.392155],[-5.99564,37.393105],[-5.995631,37.392901],[-5.995376,37.392725],[-5.994924,37.392751],[-5.994797,37.391803],[-5.9945202,37.3909414],[-5.994258,37.389845],[-5.994175,37.389143],[-5.994154,37.38867],[-5.994185,37.386838],[-5.9947573,37.3852277],[-5.9946016,37.3850918],[-5.9947139,37.3852071],[-5.9948075,37.3852443],[-5.9949714,37.3852341],[-5.995197,37.385176],[-5.9953598,37.3851215],[-5.9953224,37.3852665],[-5.9954066,37.3856467],[-5.9953972,37.3856197],[-5.9954957,37.3857758],[-5.9961928,37.3861699],[-5.9961737,37.3862092],[-5.9961393,37.3862162],[-5.9961784,37.3863579],[-5.9972329,37.3872018],[-5.9978829,37.3877064],[-5.9977813,37.3878196],[-5.9976929,37.3878993],[-5.9974462,37.3881554],[-5.997383,37.3883309],[-5.9977618,37.38845],[-5.9980142,37.3885566],[-5.9986533,37.3888826],[-5.9989897,37.3890495],[-5.9994237,37.3893473],[-5.9990725,37.3897046],[-5.9985321,37.3900494],[-5.9981497,37.3903011],[-5.9959672,37.390983]]}},{"type":"Feature","properties":{"id_hdad":46,"hermandad":"El Calvario","calle":"Calle San Pablo","osm":"Calle San Pablo"},"geometry":{"type":"Point","coordinates":[-5.9987771,37.3898861]}},{"type":"Feature","properties":{"id_hdad":46,"hermandad":"El Calvario","calle":"Calle Murillo","osm":"Calle Murillo"},"geometry":{"type":"Point","coordinates":[-5.9975101,37.3908111]}},{"type":"Feature","properties":{"id_hdad":46,"hermandad":"El Calvario","calle":"Plaza de la Magdalena","osm":"Plaza de la Magdalena"},"geometry":{"type":"Point","coordinates":[-5.9968379,37.390749]}},{"type":"Feature","properties":{"id_hdad":46,"hermandad":"El Calvario","calle":"Calle O'Donnell","osm":"Calle O'Donnell"},"geometry":{"type":"Point","coordinates":[-5.995454,37.392155]}},{"type":"Feature","properties":{"id_hdad":46,"hermandad":"El Calvario","calle":"Plaza del Duque de la Victoria (lado derecho)","osm":"Plaza del Duque de la Victoria (lado derecho"},"geometry":{"type":"Point","coordinates":[-5.99564,37.393105]}},{"type":"Feature","properties":{"id_hdad":46,"hermandad":"El Calvario","calle":"La Campana","osm":"Calle Campana"},"geometry":{"type":"Point","coordinates":[-5.995376,37.392725]}},{"type":"Feature","properties":{"id_hdad":46,"hermandad":"El Calvario","calle":"Calle Sierpes","osm":"Calle Sierpes"},"geometry":{"type":"Point","coordinates":[-5.9947885,37.3908748]}},{"type":"Feature","properties":{"id_hdad":46,"hermandad":"El Calvario","calle":"Plaza de San Francisco","osm":"Plaza de San Francisco"},"geometry":{"type":"Point","coordinates":[-5.994154,37.38867]}},{"type":"Feature","properties":{"id_hdad":46,"hermandad":"El Calvario","calle":"Avenida de la Constitución","osm":"Avenida de la Constitución"},"geometry":{"type":"Point","coordinates":[-5.994185,37.386838]}},{"type":"Feature","properties":{"id_hdad":46,"hermandad":"El Calvario","calle":"Calle Almirantazgo","osm":"Calle Almirantazgo"},"geometry":{"type":"Point","coordinates":[-5.9947573,37.3852277]}},{"type":"Feature","properties":{"id_hdad":46,"hermandad":"El Calvario","calle":"Calle Arco del Postigo","osm":"Calle Arco del Postigo"},"geometry":{"type":"Point","coordinates":[-5.9949714,37.3852341]}},{"type":"Feature","properties":{"id_hdad":46,"hermandad":"El Calvario","calle":"Calle Dos de Mayo","osm":"Calle Dos de Mayo"},"geometry":{"type":"Point","coordinates":[-5.995197,37.385176]}},{"type":"Feature","properties":{"id_hdad":46,"hermandad":"El Calvario","calle":"Calle Arfe","osm":"Calle Arfe"},"geometry":{"type":"Point","coordinates":[-5.9954066,37.3856467]}},{"type":"Feature","properties":{"id_hdad":46,"hermandad":"El Calvario","calle":"Calle Puerta del Arenal","osm":"Calle Puerta del Arenal"},"geometry":{"type":"Point","coordinates":[-5.9961393,37.3862162]}},{"type":"Feature","properties":{"id_hdad":46,"hermandad":"El Calvario","calle":"Calle Castelar","osm":"Calle Castelar"},"geometry":{"type":"Point","coordinates":[-5.9972329,37.3872018]}},{"type":"Feature","properties":{"id_hdad":46,"hermandad":"El Calvario","calle":"Plaza de Molviedro","osm":"Plaza de Molviedro"},"geometry":{"type":"Point","coordinates":[-5.9977813,37.3878196]}},{"type":"Feature","properties":{"id_hdad":46,"hermandad":"El Calvario","calle":"Calle Doña Guiomar","osm":"Calle Doña Guiomar"},"geometry":{"type":"Point","coordinates":[-5.9976929,37.3878993]}},{"type":"Feature","properties":{"id_hdad":46,"hermandad":"El Calvario","calle":"Calle Zaragoza","osm":"Calle Zaragoza"},"geometry":{"type":"Point","coordinates":[-5.9980142,37.3885566]}},{"type":"Feature","properties":{"id_hdad":46,"hermandad":"El Calvario","calle":"Calle San Pablo","osm":"Calle San Pablo"},"geometry":{"type":"Point","coordinates":[-5.9981497,37.3903011]}},{"type":"Feature","properties":{"id_hdad":46,"hermandad":"El Calvario","calle":"Calle Rioja","osm":"Calle Rioja"},"geometry":{"type":"Point","coordinates":[-5.9959672,37.390983]}}]}