{
  "type": "FeatureCollection",
  "features": [
    {
      "type": "Feature",
      "properties": {
        "id_hdad": 47,
        "nombre": "Esperanza de Triana",
        "dia": "madruga"
      },
      "geometry": {
        "type": "LineString",
        "coordinates": [
          [
            -6.0010801,
            37.383894
          ],
          [
            -6.0017373,
            37.3845184
          ],
          [
            -6.001951,
            37.3846655
          ],
          [
            -6.0027502,
            37.3848677
          ],
          [
            -6.0034173,
            37.3851364
          ],
          [
            -6.003157,
            37.385451
          ],
          [
            -6.002392,
            37.386329
          ],
          [
            -6.00009,
            37.388725
          ],
          [
            -5.9994419,
            37.3893554
          ],
          [
            -5.9990913,
            37.3891034
          ],
          [
            -5.9985707,
            37.3888373
          ],
          [
            -5.9977923,
            37.3884679
          ],
          [
            -5.9969278,
            37.3882029
          ],
          [
            -5.9966852,
            37.3881306
          ],
          [
            -5.9963135,
            37.3881812
          ],
          [
            -5.9949181,
            37.3882744
          ],
          [
            -5.9950323,
            37.3896119
          ],
          [
            -5.9951733,
            37.3902925
          ],
          [
            -5.995396,
            37.391045
          ],
          [
            -5.9954615,
            37.3920765
          ],
          [
            -5.995386,
            37.3924668
          ],
          [
            -5.9954141,
            37.3927175
          ],
          [
            -5.994924,
            37.392751
          ],
          [
            -5.994797,
            37.391803
          ],
          [
            -5.994542,
            37.390976
          ],
          [
            -5.994258,
            37.389845
          ],
          [
            -5.994175,
            37.389143
          ],
          [
            -5.994151,
            37.388605
          ],
          [
            -5.994169,
            37.388187
          ],
          [
            -5.994296,
            37.388071
          ],
          [
            -5.9943041,
            37.3879286
          ],
          [
            -5.9942267,
            37.38731
          ],
          [
            -5.9941493,
            37.386713
          ],
          [
            -5.9940679,
            37.3860718
          ],
          [
            -5.9940344,
            37.3857616
          ],
          [
            -5.993999,
            37.385447
          ],
          [
            -5.9934331,
            37.3854932
          ],
          [
            -5.9929686,
            37.3855304
          ],
          [
            -5.992619,
            37.385552
          ],
          [
            -5.9926646,
            37.3858225
          ],
          [
            -5.99271,
            37.386038
          ],
          [
            -5.992325,
            37.386077
          ],
          [
            -5.992216,
            37.385687
          ],
          [
            -5.9921495,
            37.3852847
          ],
          [
            -5.9923598,
            37.3851845
          ],
          [
            -5.9925304,
            37.3851746
          ],
          [
            -5.9926788,
            37.3851668
          ],
          [
            -5.9928347,
            37.3851589
          ],
          [
            -5.993126,
            37.38514
          ],
          [
            -5.993709,
            37.3851
          ],
          [
            -5.9938548,
            37.3851056
          ],
          [
            -5.9939785,
            37.3851783
          ],
          [
            -5.994367,
            37.385114
          ],
          [
            -5.994479,
            37.385092
          ],
          [
            -5.994578,
            37.385095
          ],
          [
            -5.994644,
            37.385178
          ],
          [
            -5.99475,
            37.38523
          ],
          [
            -5.994849,
            37.385252
          ],
          [
            -5.994996,
            37.385234
          ],
          [
            -5.99533,
            37.385144
          ],
          [
            -5.995319,
            37.385249
          ],
          [
            -5.995347,
            37.38536
          ],
          [
            -5.995359,
            37.385525
          ],
          [
            -5.995383,
            37.385608
          ],
          [
            -5.995439,
            37.385668
          ],
          [
            -5.995601,
            37.385837
          ],
          [
            -5.995872,
            37.385994
          ],
          [
            -5.996339,
            37.386258
          ],
          [
            -5.996506,
            37.386287
          ],
          [
            -5.99668,
            37.386229
          ],
          [
            -5.996852,
            37.38626
          ],
          [
            -5.997625,
            37.386513
          ],
          [
            -5.99817,
            37.386661
          ],
          [
            -5.998377,
            37.386823
          ],
          [
            -5.999277,
            37.387555
          ],
          [
            -6.000245,
            37.388267
          ],
          [
            -6.000417,
            37.388383
          ],
          [
            -6.002392,
            37.386329
          ],
          [
            -6.003433,
            37.3851364
          ],
          [
            -6.0039581,
            37.3845842
          ],
          [
            -6.0044415,
            37.3841652
          ],
          [
            -6.0048493,
            37.3838874
          ],
          [
            -6.0050874,
            37.3837082
          ],
          [
            -6.0046144,
            37.3833026
          ],
          [
            -6.0041016,
            37.383115
          ],
          [
            -6.0032246,
            37.3828885
          ],
          [
            -6.002634,
            37.3826858
          ],
          [
            -6.0021391,
            37.3824519
          ],
          [
            -6.0019334,
            37.3827402
          ],
          [
            -6.0017254,
            37.382998
          ],
          [
            -6.0014042,
            37.3832769
          ],
          [
            -6.0008969,
            37.3827991
          ],
          [
            -6.0003456,
            37.38316
          ],
          [
            -6.0010719,
            37.3838877
          ]
        ]
      }
    },
    {
      "type": "Feature",
      "properties": {
        "id_hdad": 47,
        "hermandad": "Esperanza de Triana",
        "calle": "Calle Pureza",
        "osm": "Calle Pureza"
      },
      "geometry": {
        "type": "Point",
        "coordinates": [
          -6.0017226,
          37.3844884
        ]
      }
    },
    {
      "type": "Feature",
      "properties": {
        "id_hdad": 47,
        "hermandad": "Esperanza de Triana",
        "calle": "Calle San Jacinto",
        "osm": "Calle San Jacinto"
      },
      "geometry": {
        "type": "Point",
        "coordinates": [
          -6.004996,
          37.383785
        ]
      }
    },
    {
      "type": "Feature",
      "properties": {
        "id_hdad": 47,
        "hermandad": "Esperanza de Triana",
        "calle": "Plaza del Altozano",
        "osm": "Plaza del Altozano"
      },
      "geometry": {
        "type": "Point",
        "coordinates": [
          -6.003184,
          37.385432
        ]
      }
    },
    {
      "type": "Feature",
      "properties": {
        "id_hdad": 47,
        "hermandad": "Esperanza de Triana",
        "calle": "Puente de Isabel II",
        "osm": "Puente de Isabel II"
      },
      "geometry": {
        "type": "Point",
        "coordinates": [
          -6.002392,
          37.386329
        ]
      }
    },
    {
      "type": "Feature",
      "properties": {
        "id_hdad": 47,
        "hermandad": "Esperanza de Triana",
        "calle": "Calle Reyes Católicos",
        "osm": "Calle Reyes Católicos"
      },
      "geometry": {
        "type": "Point",
        "coordinates": [
          -6.000823,
          37.387956
        ]
      }
    },
    {
      "type": "Feature",
      "properties": {
        "id_hdad": 47,
        "hermandad": "Esperanza de Triana",
        "calle": "Calle Puerta de Triana",
        "osm": "Calle Puerta de Triana"
      },
      "geometry": {
        "type": "Point",
        "coordinates": [
          -5.999537,
          37.389252
        ]
      }
    },
    {
      "type": "Feature",
      "properties": {
        "id_hdad": 47,
        "hermandad": "Esperanza de Triana",
        "calle": "Calle Velázquez",
        "osm": "Calle Velázquez"
      },
      "geometry": {
        "type": "Point",
        "coordinates": [
          -5.995422,
          37.391434
        ]
      }
    },
    {
      "type": "Feature",
      "properties": {
        "id_hdad": 47,
        "hermandad": "Esperanza de Triana",
        "calle": "Calle O'Donnell",
        "osm": "Calle O'Donnell"
      },
      "geometry": {
        "type": "Point",
        "coordinates": [
          -5.995454,
          37.392155
        ]
      }
    },
    {
      "type": "Feature",
      "properties": {
        "id_hdad": 47,
        "hermandad": "Esperanza de Triana",
        "calle": "Avenida de la Constitución",
        "osm": "Avenida de la Constitución"
      },
      "geometry": {
        "type": "Point",
        "coordinates": [
          -5.9942,
          37.387118
        ]
      }
    },
    {
      "type": "Feature",
      "properties": {
        "id_hdad": 47,
        "hermandad": "Esperanza de Triana",
        "calle": "Plaza de San Francisco",
        "osm": "Plaza de San Francisco"
      },
      "geometry": {
        "type": "Point",
        "coordinates": [
          -5.994154,
          37.388623
        ]
      }
    },
    {
      "type": "Feature",
      "properties": {
        "id_hdad": 47,
        "hermandad": "Esperanza de Triana",
        "calle": "Calle Sierpes",
        "osm": "Calle Sierpes"
      },
      "geometry": {
        "type": "Point",
        "coordinates": [
          -5.994528,
          37.390859
        ]
      }
    },
    {
      "type": "Feature",
      "properties": {
        "id_hdad": 47,
        "hermandad": "Esperanza de Triana",
        "calle": "La Campana",
        "osm": "Calle Campana"
      },
      "geometry": {
        "type": "Point",
        "coordinates": [
          -5.995376,
          37.392725
        ]
      }
    },
    {
      "type": "Feature",
      "properties": {
        "id_hdad": 47,
        "hermandad": "Esperanza de Triana",
        "calle": "Plaza del Triunfo",
        "osm": "Plaza del Triunfo"
      },
      "geometry": {
        "type": "Point",
        "coordinates": [
          -5.992351,
          37.385188
        ]
      }
    },
    {
      "type": "Feature",
      "properties": {
        "id_hdad": 47,
        "hermandad": "Esperanza de Triana",
        "calle": "Calle Fray Ceferino González",
        "osm": "Calle Fray Ceferino González"
      },
      "geometry": {
        "type": "Point",
        "coordinates": [
          -5.993126,
          37.38514
        ]
      }
    },
    {
      "type": "Feature",
      "properties": {
        "id_hdad": 47,
        "hermandad": "Esperanza de Triana",
        "calle": "Calle Almirantazgo",
        "osm": "Calle Almirantazgo"
      },
      "geometry": {
        "type": "Point",
        "coordinates": [
          -5.994256,
          37.385126
        ]
      }
    },
    {
      "type": "Feature",
      "properties": {
        "id_hdad": 47,
        "hermandad": "Esperanza de Triana",
        "calle": "Calle Arco del Postigo",
        "osm": "Calle Arco del Postigo"
      },
      "geometry": {
        "type": "Point",
        "coordinates": [
          -5.995011,
          37.385226
        ]
      }
    },
    {
      "type": "Feature",
      "properties": {
        "id_hdad": 47,
        "hermandad": "Esperanza de Triana",
        "calle": "Calle Dos de Mayo",
        "osm": "Calle Dos de Mayo"
      },
      "geometry": {
        "type": "Point",
        "coordinates": [
          -5.995197,
          37.385176
        ]
      }
    },
    {
      "type": "Feature",
      "properties": {
        "id_hdad": 47,
        "hermandad": "Esperanza de Triana",
        "calle": "Calle Arfe",
        "osm": "Calle Arfe"
      },
      "geometry": {
        "type": "Point",
        "coordinates": [
          -5.99562,
          37.385841
        ]
      }
    },
    {
      "type": "Feature",
      "properties": {
        "id_hdad": 47,
        "hermandad": "Esperanza de Triana",
        "calle": "Calle Adriano",
        "osm": "Calle Adriano"
      },
      "geometry": {
        "type": "Point",
        "coordinates": [
          -5.997544,
          37.386488
        ]
      }
    },
    {
      "type": "Feature",
      "properties": {
        "id_hdad": 47,
        "hermandad": "Esperanza de Triana",
        "calle": "Calle Pastor y Landero",
        "osm": "Calle Pastor y Landero"
      },
      "geometry": {
        "type": "Point",
        "coordinates": [
          -6.000245,
          37.388267
        ]
      }
    },
    {
      "type": "Feature",
      "properties": {
        "id_hdad": 47,
        "hermandad": "Esperanza de Triana",
        "calle": "Calle Reyes Católicos",
        "osm": "Calle Reyes Católicos"
      },
      "geometry": {
        "type": "Point",
        "coordinates": [
          -6.000836,
          37.387948
        ]
      }
    },
    {
      "type": "Feature",
      "properties": {
        "id_hdad": 47,
        "hermandad": "Esperanza de Triana",
        "calle": "Puente de Isabel II",
        "osm": "Puente de Isabel II"
      },
      "geometry": {
        "type": "Point",
        "coordinates": [
          -6.002392,
          37.386329
        ]
      }
    },
    {
      "type": "Feature",
      "properties": {
        "id_hdad": 47,
        "hermandad": "Esperanza de Triana",
        "calle": "Plaza del Altozano",
        "osm": "Plaza del Altozano"
      },
      "geometry": {
        "type": "Point",
        "coordinates": [
          -6.003179,
          37.385431
        ]
      }
    },
    {
      "type": "Feature",
      "properties": {
        "id_hdad": 47,
        "hermandad": "Esperanza de Triana",
        "calle": "Calle San Jacinto",
        "osm": "Calle San Jacinto"
      },
      "geometry": {
        "type": "Point",
        "coordinates": [
          -6.004958,
          37.383805
        ]
      }
    },
    {
      "type": "Feature",
      "properties": {
        "id_hdad": 47,
        "hermandad": "Esperanza de Triana",
        "calle": "Calle Pagés del Corro",
        "osm": "Calle Pagés del Corro"
      },
      "geometry": {
        "type": "Point",
        "coordinates": [
          -6.0028698,
          37.3827622
        ]
      }
    },
    {
      "type": "Feature",
      "properties": {
        "id_hdad": 47,
        "hermandad": "Esperanza de Triana",
        "calle": "Calle Luca de Tena",
        "osm": "Calle Luca de Tena"
      },
      "geometry": {
        "type": "Point",
        "coordinates": [
          -6.0020148,
          37.3826178
        ]
      }
    },
    {
      "type": "Feature",
      "properties": {
        "id_hdad": 47,
        "hermandad": "Esperanza de Triana",
        "calle": "Calle Pelay Correa",
        "osm": "Calle Pelay Correa"
      },
      "geometry": {
        "type": "Point",
        "coordinates": [
          -6.0009718,
          37.3828741
        ]
      }
    },
    {
      "type": "Feature",
      "properties": {
        "id_hdad": 47,
        "hermandad": "Esperanza de Triana",
        "calle": "Calle Pureza",
        "osm": "Calle Pureza"
      },
      "geometry": {
        "type": "Point",
        "coordinates": [
          -6.0016728,
          37.3844884
        ]
      }
    }
  ]
}