{
  "type": "FeatureCollection",
  "features": [
    {
      "type": "Feature",
      "properties": {
        "id_hdad": 48,
        "nombre": "Los Gitanos",
        "dia": "madruga"
      },
      "geometry": {
        "type": "LineString",
        "coordinates": [
          [
            -5.9838762,
            37.3948939
          ],
          [
            -5.9839313,
            37.3944016
          ],
          [
            -5.9844555,
            37.3938687
          ],
          [
            -5.9847281,
            37.3933704
          ],
          [
            -5.9848107,
            37.3933026
          ],
          [
            -5.984874,
            37.3933092
          ],
          [
            -5.9849952,
            37.3933792
          ],
          [
            -5.9851098,
            37.3936168
          ],
          [
            -5.9851924,
            37.3936102
          ],
          [
            -5.9855567,
            37.3941618
          ],
          [
            -5.986041,
            37.3945791
          ],
          [
            -5.9862669,
            37.3947826
          ],
          [
            -5.9863991,
            37.3947804
          ],
          [
            -5.9865051,
            37.394905
          ],
          [
            -5.987312,
            37.3947825
          ],
          [
            -5.9884885,
            37.3948731
          ],
          [
            -5.9889437,
            37.3945981
          ],
          [
            -5.9893078,
            37.3946941
          ],
          [
            -5.9896135,
            37.394762
          ],
          [
            -5.9902744,
            37.3948714
          ],
          [
            -5.990366,
            37.394231
          ],
          [
            -5.990418,
            37.393942
          ],
          [
            -5.990453,
            37.393595
          ],
          [
            -5.990883,
            37.393616
          ],
          [
            -5.991362,
            37.393635
          ],
          [
            -5.991425,
            37.393054
          ],
          [
            -5.991465,
            37.392787
          ],
          [
            -5.991508,
            37.392727
          ],
          [
            -5.991583,
            37.392717
          ],
          [
            -5.992232,
            37.392791
          ],
          [
            -5.992981,
            37.392804
          ],
          [
            -5.9933169,
            37.3928037
          ],
          [
            -5.9936593,
            37.3928157
          ],
          [
            -5.9936853,
            37.3929311
          ],
          [
            -5.993689,
            37.393287
          ],
          [
            -5.9936844,
            37.3934442
          ],
          [
            -5.993838,
            37.393693
          ],
          [
            -5.9940973,
            37.3936496
          ],
          [
            -5.9942892,
            37.3936065
          ],
          [
            -5.994575,
            37.393545
          ],
          [
            -5.9947522,
            37.3935137
          ],
          [
            -5.99499,
            37.3936695
          ],
          [
            -5.995283,
            37.393895
          ],
          [
            -5.99537,
            37.393742
          ],
          [
            -5.995446,
            37.393623
          ],
          [
            -5.995615,
            37.39345
          ],
          [
            -5.995633,
            37.393113
          ],
          [
            -5.995631,
            37.392901
          ],
          [
            -5.9956364,
            37.3927183
          ],
          [
            -5.995376,
            37.392725
          ],
          [
            -5.994924,
            37.392751
          ],
          [
            -5.994797,
            37.391803
          ],
          [
            -5.9945202,
            37.3909414
          ],
          [
            -5.994258,
            37.389845
          ],
          [
            -5.994175,
            37.389143
          ],
          [
            -5.994154,
            37.38867
          ],
          [
            -5.994169,
            37.388187
          ],
          [
            -5.994296,
            37.388071
          ],
          [
            -5.9943041,
            37.3879286
          ],
          [
            -5.9942267,
            37.38731
          ],
          [
            -5.994185,
            37.386838
          ],
          [
            -5.9940679,
            37.3860718
          ],
          [
            -5.9940344,
            37.3857616
          ],
          [
            -5.993999,
            37.385447
          ],
          [
            -5.9934331,
            37.3854932
          ],
          [
            -5.9929686,
            37.3855304
          ],
          [
            -5.992619,
            37.385552
          ],
          [
            -5.9926646,
            37.3858225
          ],
          [
            -5.99271,
            37.386038
          ],
          [
            -5.992325,
            37.386077
          ],
          [
            -5.992365,
            37.386288
          ],
          [
            -5.9924408,
            37.3863144
          ],
          [
            -5.9924973,
            37.3863647
          ],
          [
            -5.992537,
            37.386555
          ],
          [
            -5.992515,
            37.38666
          ],
          [
            -5.992549,
            37.386763
          ],
          [
            -5.992807,
            37.386777
          ],
          [
            -5.993037,
            37.386751
          ],
          [
            -5.993054,
            37.386917
          ],
          [
            -5.9930245,
            37.3870101
          ],
          [
            -5.9929267,
            37.3871073
          ],
          [
            -5.992697,
            37.387288
          ],
          [
            -5.992489,
            37.387452
          ],
          [
            -5.992594,
            37.387654
          ],
          [
            -5.992704,
            37.387858
          ],
          [
            -5.99277,
            37.38804
          ],
          [
            -5.992784,
            37.388285
          ],
          [
            -5.992744,
            37.388583
          ],
          [
            -5.992621,
            37.388828
          ],
          [
            -5.992568,
            37.389176
          ],
          [
            -5.992542,
            37.389426
          ],
          [
            -5.992353,
            37.389737
          ],
          [
            -5.991765,
            37.389785
          ],
          [
            -5.991357,
            37.389798
          ],
          [
            -5.991092,
            37.38979
          ],
          [
            -5.990856,
            37.389772
          ],
          [
            -5.990668,
            37.389983
          ],
          [
            -5.990473,
            37.3901933
          ],
          [
            -5.990481,
            37.3902896
          ],
          [
            -5.9903847,
            37.3904756
          ],
          [
            -5.9902529,
            37.3906875
          ],
          [
            -5.9904478,
            37.3907416
          ],
          [
            -5.9903251,
            37.390862
          ],
          [
            -5.990158,
            37.3910193
          ],
          [
            -5.9900213,
            37.3911556
          ],
          [
            -5.9899688,
            37.3912106
          ],
          [
            -5.9899556,
            37.3912991
          ],
          [
            -5.989917,
            37.3914874
          ],
          [
            -5.9898635,
            37.3921115
          ],
          [
            -5.9898331,
            37.39249
          ],
          [
            -5.9895385,
            37.3925316
          ],
          [
            -5.989031,
            37.392704
          ],
          [
            -5.9886598,
            37.3928715
          ],
          [
            -5.988267,
            37.392909
          ],
          [
            -5.9874685,
            37.3930804
          ],
          [
            -5.9867456,
            37.3932689
          ],
          [
            -5.9859509,
            37.3934436
          ],
          [
            -5.9853301,
            37.3935773
          ],
          [
            -5.9848702,
            37.3937217
          ],
          [
            -5.984677,
            37.393832
          ],
          [
            -5.9845723,
            37.3938998
          ],
          [
            -5.984483,
            37.3938976
          ],
          [
            -5.9844227,
            37.3939024
          ],
          [
            -5.9839231,
            37.3944023
          ],
          [
            -5.9838901,
            37.3946831
          ],
          [
            -5.9838712,
            37.3948965
          ]
        ]
      }
    },
    {
      "type": "Feature",
      "properties": {
        "id_hdad": 48,
        "hermandad": "Los Gitanos",
        "calle": "Plaza del Señor de la Salud",
        "osm": "Plaza del Señor de la Salud"
      },
      "geometry": {
        "type": "Point",
        "coordinates": [
          -5.9839513,
          37.3948553
        ]
      }
    },
    {
      "type": "Feature",
      "properties": {
        "id_hdad": 48,
        "hermandad": "Los Gitanos",
        "calle": "Calle Valle",
        "osm": "Calle Valle"
      },
      "geometry": {
        "type": "Point",
        "coordinates": [
          -5.9841545,
          37.3942804
        ]
      }
    },
    {
      "type": "Feature",
      "properties": {
        "id_hdad": 48,
        "hermandad": "Los Gitanos",
        "calle": "Calle Puerta del Osario",
        "osm": "Calle Puerta del Osario"
      },
      "geometry": {
        "type": "Point",
        "coordinates": [
          -5.98503,
          37.39346
        ]
      }
    },
    {
      "type": "Feature",
      "properties": {
        "id_hdad": 48,
        "hermandad": "Los Gitanos",
        "calle": "Calle Matahacas",
        "osm": "Calle Matahacas"
      },
      "geometry": {
        "type": "Point",
        "coordinates": [
          -5.9856782,
          37.3942768
        ]
      }
    },
    {
      "type": "Feature",
      "properties": {
        "id_hdad": 48,
        "hermandad": "Los Gitanos",
        "calle": "Plaza de San Román",
        "osm": "Plaza de San Román"
      },
      "geometry": {
        "type": "Point",
        "coordinates": [
          -5.9864468,
          37.3948469
        ]
      }
    },
    {
      "type": "Feature",
      "properties": {
        "id_hdad": 48,
        "hermandad": "Los Gitanos",
        "calle": "Calle Peñuelas",
        "osm": "Calle Peñuelas"
      },
      "geometry": {
        "type": "Point",
        "coordinates": [
          -5.9874519,
          37.3947878
        ]
      }
    },
    {
      "type": "Feature",
      "properties": {
        "id_hdad": 48,
        "hermandad": "Los Gitanos",
        "calle": "Calle Doña María Coronel",
        "osm": "Calle Doña María Coronel"
      },
      "geometry": {
        "type": "Point",
        "coordinates": [
          -5.988238,
          37.3948513
        ]
      }
    },
    {
      "type": "Feature",
      "properties": {
        "id_hdad": 48,
        "hermandad": "Los Gitanos",
        "calle": "Calle Dueñas",
        "osm": "Calle Dueñas"
      },
      "geometry": {
        "type": "Point",
        "coordinates": [
          -5.9896128,
          37.394734
        ]
      }
    },
    {
      "type": "Feature",
      "properties": {
        "id_hdad": 48,
        "hermandad": "Los Gitanos",
        "calle": "Calle Santa Ángela de la Cruz",
        "osm": "Calle Santa Ángela de la Cruz"
      },
      "geometry": {
        "type": "Point",
        "coordinates": [
          -5.990366,
          37.394231
        ]
      }
    },
    {
      "type": "Feature",
      "properties": {
        "id_hdad": 48,
        "hermandad": "Los Gitanos",
        "calle": "Calle Alcázares",
        "osm": "Calle Alcázares"
      },
      "geometry": {
        "type": "Point",
        "coordinates": [
          -5.990883,
          37.393616
        ]
      }
    },
    {
      "type": "Feature",
      "properties": {
        "id_hdad": 48,
        "hermandad": "Los Gitanos",
        "calle": "Plaza de la Encarnación",
        "osm": "Plaza de la Encarnación"
      },
      "geometry": {
        "type": "Point",
        "coordinates": [
          -5.991499,
          37.3927
        ]
      }
    },
    {
      "type": "Feature",
      "properties": {
        "id_hdad": 48,
        "hermandad": "Los Gitanos",
        "calle": "Calle Laraña",
        "osm": "Calle Laraña"
      },
      "geometry": {
        "type": "Point",
        "coordinates": [
          -5.992981,
          37.392804
        ]
      }
    },
    {
      "type": "Feature",
      "properties": {
        "id_hdad": 48,
        "hermandad": "Los Gitanos",
        "calle": "Calle Orfila",
        "osm": "Calle Orfila"
      },
      "geometry": {
        "type": "Point",
        "coordinates": [
          -5.993689,
          37.393287
        ]
      }
    },
    {
      "type": "Feature",
      "properties": {
        "id_hdad": 48,
        "hermandad": "Los Gitanos",
        "calle": "Calle Javier Lasso de la Vega",
        "osm": "Calle Javier Lasso de la Vega"
      },
      "geometry": {
        "type": "Point",
        "coordinates": [
          -5.994575,
          37.393545
        ]
      }
    },
    {
      "type": "Feature",
      "properties": {
        "id_hdad": 48,
        "hermandad": "Los Gitanos",
        "calle": "Calle Trajano",
        "osm": "Calle Trajano"
      },
      "geometry": {
        "type": "Point",
        "coordinates": [
          -5.99537,
          37.393742
        ]
      }
    },
    {
      "type": "Feature",
      "properties": {
        "id_hdad": 48,
        "hermandad": "Los Gitanos",
        "calle": "Plaza del Duque de la Victoria (lado derecho)",
        "osm": "Plaza del Duque de la Victoria (lado derecho)"
      },
      "geometry": {
        "type": "Point",
        "coordinates": [
          -5.995633,
          37.393113
        ]
      }
    },
    {
      "type": "Feature",
      "properties": {
        "id_hdad": 48,
        "hermandad": "Los Gitanos",
        "calle": "La Campana",
        "osm": "La Campana"
      },
      "geometry": {
        "type": "Point",
        "coordinates": [
          -5.995376,
          37.392725
        ]
      }
    },
    {
      "type": "Feature",
      "properties": {
        "id_hdad": 48,
        "hermandad": "Los Gitanos",
        "calle": "Calle Sierpes",
        "osm": "Calle Sierpes"
      },
      "geometry": {
        "type": "Point",
        "coordinates": [
          -5.9947885,
          37.3908748
        ]
      }
    },
    {
      "type": "Feature",
      "properties": {
        "id_hdad": 48,
        "hermandad": "Los Gitanos",
        "calle": "Plaza de San Francisco",
        "osm": "Plaza de San Francisco"
      },
      "geometry": {
        "type": "Point",
        "coordinates": [
          -5.994154,
          37.38867
        ]
      }
    },
    {
      "type": "Feature",
      "properties": {
        "id_hdad": 48,
        "hermandad": "Los Gitanos",
        "calle": "Avenida de la Constitución",
        "osm": "Avenida de la Constitución"
      },
      "geometry": {
        "type": "Point",
        "coordinates": [
          -5.994185,
          37.386838
        ]
      }
    },
    {
      "type": "Feature",
      "properties": {
        "id_hdad": 48,
        "hermandad": "Los Gitanos",
        "calle": "Calle Cardenal Carlos Amigo",
        "osm": "Calle Cardenal Carlos Amigo"
      },
      "geometry": {
        "type": "Point",
        "coordinates": [
          -5.992537,
          37.386555
        ]
      }
    },
    {
      "type": "Feature",
      "properties": {
        "id_hdad": 48,
        "hermandad": "Los Gitanos",
        "calle": "Calle Alemanes",
        "osm": "Calle Alemanes"
      },
      "geometry": {
        "type": "Point",
        "coordinates": [
          -5.992807,
          37.386777
        ]
      }
    },
    {
      "type": "Feature",
      "properties": {
        "id_hdad": 48,
        "hermandad": "Los Gitanos",
        "calle": "Calle Álvarez Quintero",
        "osm": "Calle Álvarez Quintero"
      },
      "geometry": {
        "type": "Point",
        "coordinates": [
          -5.993054,
          37.386917
        ]
      }
    },
    {
      "type": "Feature",
      "properties": {
        "id_hdad": 48,
        "hermandad": "Los Gitanos",
        "calle": "Calle Argote de Molina",
        "osm": "Calle Argote de Molina"
      },
      "geometry": {
        "type": "Point",
        "coordinates": [
          -5.992697,
          37.387288
        ]
      }
    },
    {
      "type": "Feature",
      "properties": {
        "id_hdad": 48,
        "hermandad": "Los Gitanos",
        "calle": "Calle Placentines",
        "osm": "Calle Placentines"
      },
      "geometry": {
        "type": "Point",
        "coordinates": [
          -5.992594,
          37.387654
        ]
      }
    },
    {
      "type": "Feature",
      "properties": {
        "id_hdad": 48,
        "hermandad": "Los Gitanos",
        "calle": "Calle Francos",
        "osm": "Calle Francos"
      },
      "geometry": {
        "type": "Point",
        "coordinates": [
          -5.992784,
          37.388285
        ]
      }
    },
    {
      "type": "Feature",
      "properties": {
        "id_hdad": 48,
        "hermandad": "Los Gitanos",
        "calle": "Cuesta del Rosario",
        "osm": "Cuesta del Rosario"
      },
      "geometry": {
        "type": "Point",
        "coordinates": [
          -5.991765,
          37.389785
        ]
      }
    },
    {
      "type": "Feature",
      "properties": {
        "id_hdad": 48,
        "hermandad": "Los Gitanos",
        "calle": "Calle Jesús de las Tres Caídas",
        "osm": "Calle Jesús de las Tres Caídas"
      },
      "geometry": {
        "type": "Point",
        "coordinates": [
          -5.990668,
          37.389983
        ]
      }
    },
    {
      "type": "Feature",
      "properties": {
        "id_hdad": 48,
        "hermandad": "Los Gitanos",
        "calle": "Calle Odreros",
        "osm": "Calle Odreros"
      },
      "geometry": {
        "type": "Point",
        "coordinates": [
          -5.9903819,
          37.3904418
        ]
      }
    },
    {
      "type": "Feature",
      "properties": {
        "id_hdad": 48,
        "hermandad": "Los Gitanos",
        "calle": "Calle Boteros",
        "osm": "Calle Boteros"
      },
      "geometry": {
        "type": "Point",
        "coordinates": [
          -5.9903489,
          37.3907097
        ]
      }
    },
    {
      "type": "Feature",
      "properties": {
        "id_hdad": 48,
        "hermandad": "Los Gitanos",
        "calle": "Calle Sales y Ferré",
        "osm": "Calle Sales y Ferré"
      },
      "geometry": {
        "type": "Point",
        "coordinates": [
          -5.9901554,
          37.3910232
        ]
      }
    },
    {
      "type": "Feature",
      "properties": {
        "id_hdad": 48,
        "hermandad": "Los Gitanos",
        "calle": "Plaza del Cristo de Burgos",
        "osm": "Plaza del Cristo de Burgos"
      },
      "geometry": {
        "type": "Point",
        "coordinates": [
          -5.9898855,
          37.3919386
        ]
      }
    },
    {
      "type": "Feature",
      "properties": {
        "id_hdad": 48,
        "hermandad": "Los Gitanos",
        "calle": "Calle Almirante Apodaca",
        "osm": "Calle Almirante Apodaca"
      },
      "geometry": {
        "type": "Point",
        "coordinates": [
          -5.989031,
          37.392704
        ]
      }
    },
    {
      "type": "Feature",
      "properties": {
        "id_hdad": 48,
        "hermandad": "Los Gitanos",
        "calle": "Calle Juan de Mesa",
        "osm": "Calle Juan de Mesa"
      },
      "geometry": {
        "type": "Point",
        "coordinates": [
          -5.988267,
          37.392909
        ]
      }
    },
    {
      "type": "Feature",
      "properties": {
        "id_hdad": 48,
        "hermandad": "Los Gitanos",
        "calle": "Plaza de Ponce de León",
        "osm": "Plaza de Ponce de León"
      },
      "geometry": {
        "type": "Point",
        "coordinates": [
          -5.9874545,
          37.393084
        ]
      }
    },
    {
      "type": "Feature",
      "properties": {
        "id_hdad": 48,
        "hermandad": "Los Gitanos",
        "calle": "Calle Escuelas Pías",
        "osm": "Calle Escuelas Pías"
      },
      "geometry": {
        "type": "Point",
        "coordinates": [
          -5.9859509,
          37.3934436
        ]
      }
    },
    {
      "type": "Feature",
      "properties": {
        "id_hdad": 48,
        "hermandad": "Los Gitanos",
        "calle": "Calle Pinto",
        "osm": "Calle Pinto"
      },
      "geometry": {
        "type": "Point",
        "coordinates": [
          -5.984483,
          37.3938976
        ]
      }
    },
    {
      "type": "Feature",
      "properties": {
        "id_hdad": 48,
        "hermandad": "Los Gitanos",
        "calle": "Calle Valle",
        "osm": "Calle Valle"
      },
      "geometry": {
        "type": "Point",
        "coordinates": [
          -5.984126,
          37.3935969
        ]
      }
    },
    {
      "type": "Feature",
      "properties": {
        "id_hdad": 48,
        "hermandad": "Los Gitanos",
        "calle": "Plaza del Señor de la Salud",
        "osm": "Plaza del Señor de la Salud"
      },
      "geometry": {
        "type": "Point",
        "coordinates": [
          -5.983956,
          37.3948515
        ]
      }
    }
  ]
}