{
  "type": "FeatureCollection",
  "features": [
    {
      "type": "Feature",
      "properties": {
        "id_hdad": 49,
        "nombre": "La Carretería",
        "dia": "viernes-santo"
      },
      "geometry": {
        "type": "LineString",
        "coordinates": [
          [
            -5.996941,
            37.3856006
          ],
          [
            -5.9965601,
            37.3859909
          ],
          [
            -5.9966638,
            37.3861836
          ],
          [
            -5.9954066,
            37.3856467
          ],
          [
            -5.9953972,
            37.3856197
          ],
          [
            -5.9954957,
            37.3857758
          ],
          [
            -5.9961928,
            37.3861699
          ],
          [
            -5.9961737,
            37.3862092
          ],
          [
            -5.9961081,
            37.3862154
          ],
          [
            -5.9961784,
            37.3863579
          ],
          [
            -5.9963303,
            37.3864856
          ],
          [
            -5.9961075,
            37.3871925
          ],
          [
            -5.9955391,
            37.3877253
          ],
          [
            -5.995501,
            37.3879628
          ],
          [
            -5.9949315,
            37.3886551
          ],
          [
            -5.9951669,
            37.3902317
          ],
          [
            -5.9954035,
            37.3911654
          ],
          [
            -5.9954456,
            37.3918072
          ],
          [
            -5.995454,
            37.392155
          ],
          [
            -5.995386,
            37.3924668
          ],
          [
            -5.995376,
            37.392725
          ],
          [
            -5.994924,
            37.392751
          ],
          [
            -5.994861,
            37.3922847
          ],
          [
            -5.994797,
            37.391803
          ],
          [
            -5.9946698,
            37.3913397
          ],
          [
            -5.9947885,
            37.3908748
          ],
          [
            -5.994258,
            37.389845
          ],
          [
            -5.994175,
            37.389143
          ],
          [
            -5.994154,
            37.38867
          ],
          [
            -5.994169,
            37.388187
          ],
          [
            -5.994296,
            37.388071
          ],
          [
            -5.9943041,
            37.3879286
          ],
          [
            -5.9942267,
            37.38731
          ],
          [
            -5.994185,
            37.386838
          ],
          [
            -5.9930211,
            37.38433
          ],
          [
            -5.9939801,
            37.3837872
          ],
          [
            -5.9947508,
            37.3835139
          ],
          [
            -5.9959376,
            37.3842039
          ],
          [
            -5.9951972,
            37.385176
          ],
          [
            -5.9969331,
            37.3849621
          ],
          [
            -5.996941,
            37.3856006
          ],
          [
            -5.9968379,
            37.390749
          ],
          [
            -5.9977813,
            37.3878196
          ],
          [
            -5.9976929,
            37.3878993
          ]
        ]
      }
    },
    {
      "type": "Feature",
      "properties": {
        "id_hdad": 49,
        "hermandad": "La Carretería",
        "calle": "Calle Real de la Carretería",
        "osm": "Calle Real de la Carretería"
      },
      "geometry": {
        "type": "Point",
        "coordinates": [
          -5.996941,
          37.3856006
        ]
      }
    },
    {
      "type": "Feature",
      "properties": {
        "id_hdad": 49,
        "hermandad": "La Carretería",
        "calle": "Calle Toneleros",
        "osm": "Calle Toneleros"
      },
      "geometry": {
        "type": "Point",
        "coordinates": [
          -5.9965601,
          37.3859909
        ]
      }
    },
    {
      "type": "Feature",
      "properties": {
        "id_hdad": 49,
        "hermandad": "La Carretería",
        "calle": "Calle Antonia Díaz",
        "osm": "Calle Antonia Díaz"
      },
      "geometry": {
        "type": "Point",
        "coordinates": [
          -5.9966638,
          37.3861836
        ]
      }
    },
    {
      "type": "Feature",
      "properties": {
        "id_hdad": 49,
        "hermandad": "La Carretería",
        "calle": "Calle Arfe",
        "osm": "Calle Arfe"
      },
      "geometry": {
        "type": "Point",
        "coordinates": [
          -5.9954066,
          37.3856467
        ]
      }
    },
    {
      "type": "Feature",
      "properties": {
        "id_hdad": 49,
        "hermandad": "La Carretería",
        "calle": "Calle Puerta del Arenal",
        "osm": "Calle Puerta del Arenal"
      },
      "geometry": {
        "type": "Point",
        "coordinates": [
          -5.9961081,
          37.3862154
        ]
      }
    },
    {
      "type": "Feature",
      "properties": {
        "id_hdad": 49,
        "hermandad": "La Carretería",
        "calle": "Calle Castelar",
        "osm": "Calle Castelar"
      },
      "geometry": {
        "type": "Point",
        "coordinates": [
          -5.9963303,
          37.3864856
        ]
      }
    },
    {
      "type": "Feature",
      "properties": {
        "id_hdad": 49,
        "hermandad": "La Carretería",
        "calle": "Calle Gamazo",
        "osm": "Calle Gamazo"
      },
      "geometry": {
        "type": "Point",
        "coordinates": [
          -5.9961075,
          37.3871925
        ]
      }
    },
    {
      "type": "Feature",
      "properties": {
        "id_hdad": 49,
        "hermandad": "La Carretería",
        "calle": "Calle Joaquín Guichot",
        "osm": "Calle Joaquín Guichot"
      },
      "geometry": {
        "type": "Point",
        "coordinates": [
          -5.9955391,
          37.3877253
        ]
      }
    },
    {
      "type": "Feature",
      "properties": {
        "id_hdad": 49,
        "hermandad": "La Carretería",
        "calle": "Calle Barcelona",
        "osm": "Calle Barcelona"
      },
      "geometry": {
        "type": "Point",
        "coordinates": [
          -5.995501,
          37.3879628
        ]
      }
    },
    {
      "type": "Feature",
      "properties": {
        "id_hdad": 49,
        "hermandad": "La Carretería",
        "calle": "Plaza Nueva",
        "osm": "Plaza Nueva"
      },
      "geometry": {
        "type": "Point",
        "coordinates": [
          -5.9949315,
          37.3886551
        ]
      }
    },
    {
      "type": "Feature",
      "properties": {
        "id_hdad": 49,
        "hermandad": "La Carretería",
        "calle": "Calle Tetuán",
        "osm": "Calle Tetuán"
      },
      "geometry": {
        "type": "Point",
        "coordinates": [
          -5.9951669,
          37.3902317
        ]
      }
    },
    {
      "type": "Feature",
      "properties": {
        "id_hdad": 49,
        "hermandad": "La Carretería",
        "calle": "Calle Velázquez",
        "osm": "Calle Velázquez"
      },
      "geometry": {
        "type": "Point",
        "coordinates": [
          -5.9954035,
          37.3911654
        ]
      }
    },
    {
      "type": "Feature",
      "properties": {
        "id_hdad": 49,
        "hermandad": "La Carretería",
        "calle": "Calle O'Donnell",
        "osm": "Calle O'Donnell"
      },
      "geometry": {
        "type": "Point",
        "coordinates": [
          -5.995454,
          37.392155
        ]
      }
    },
    {
      "type": "Feature",
      "properties": {
        "id_hdad": 49,
        "hermandad": "La Carretería",
        "calle": "La Campana",
        "osm": "Calle Campana"
      },
      "geometry": {
        "type": "Point",
        "coordinates": [
          -5.995376,
          37.392725
        ]
      }
    },
    {
      "type": "Feature",
      "properties": {
        "id_hdad": 49,
        "hermandad": "La Carretería",
        "calle": "Calle Sierpes",
        "osm": "Calle Sierpes"
      },
      "geometry": {
        "type": "Point",
        "coordinates": [
          -5.9947885,
          37.3908748
        ]
      }
    },
    {
      "type": "Feature",
      "properties": {
        "id_hdad": 49,
        "hermandad": "La Carretería",
        "calle": "Plaza de San Francisco",
        "osm": "Plaza de San Francisco"
      },
      "geometry": {
        "type": "Point",
        "coordinates": [
          -5.994154,
          37.38867
        ]
      }
    },
    {
      "type": "Feature",
      "properties": {
        "id_hdad": 49,
        "hermandad": "La Carretería",
        "calle": "Avenida de la Constitución",
        "osm": "Avenida de la Constitución"
      },
      "geometry": {
        "type": "Point",
        "coordinates": [
          -5.994185,
          37.386838
        ]
      }
    },
    {
      "type": "Feature",
      "properties": {
        "id_hdad": 49,
        "hermandad": "La Carretería",
        "calle": "Calle Santo Tomás",
        "osm": "Calle Santo Tomás"
      },
      "geometry": {
        "type": "Point",
        "coordinates": [
          -5.9930211,
          37.38433
        ]
      }
    },
    {
      "type": "Feature",
      "properties": {
        "id_hdad": 49,
        "hermandad": "La Carretería",
        "calle": "Calle Adolfo Rodríguez Jurado",
        "osm": "Calle Adolfo Rodríguez Jurado"
      },
      "geometry": {
        "type": "Point",
        "coordinates": [
          -5.9939801,
          37.3837872
        ]
      }
    },
    {
      "type": "Feature",
      "properties": {
        "id_hdad": 49,
        "hermandad": "La Carretería",
        "calle": "Calle Santander",
        "osm": "Calle Santander"
      },
      "geometry": {
        "type": "Point",
        "coordinates": [
          -5.9947508,
          37.3835139
        ]
      }
    },
    {
      "type": "Feature",
      "properties": {
        "id_hdad": 49,
        "hermandad": "La Carretería",
        "calle": "Calle Temprado",
        "osm": "Calle Temprado"
      },
      "geometry": {
        "type": "Point",
        "coordinates": [
          -5.9959376,
          37.3842039
        ]
      }
    },
    {
      "type": "Feature",
      "properties": {
        "id_hdad": 49,
        "hermandad": "La Carretería",
        "calle": "Calle Dos de Mayo",
        "osm": "Calle Dos de Mayo"
      },
      "geometry": {
        "type": "Point",
        "coordinates": [
          -5.9951972,
          37.385176
        ]
      }
    },
    {
      "type": "Feature",
      "properties": {
        "id_hdad": 49,
        "hermandad": "La Carretería",
        "calle": "Calle Rodo",
        "osm": "Calle Rodo"
      },
      "geometry": {
        "type": "Point",
        "coordinates": [
          -5.9969331,
          37.3849621
        ]
      }
    },
    {
      "type": "Feature",
      "properties": {
        "id_hdad": 49,
        "hermandad": "La Carretería",
        "calle": "Calle Real de la Carretería",
        "osm": "Calle Real de la Carretería"
      },
      "geometry": {
        "type": "Point",
        "coordinates": [
          -5.996941,
          37.3856006
        ]
      }
    },
    {
      "type": "Feature",
      "properties": {
        "id_hdad": 49,
        "hermandad": "La Carretería",
        "calle": "Plaza de la Magdalena",
        "osm": "Plaza de la Magdalena"
      },
      "geometry": {
        "type": "Point",
        "coordinates": [
          -5.9968379,
          37.390749
        ]
      }
    },
    {
      "type": "Feature",
      "properties": {
        "id_hdad": 49,
        "hermandad": "La Carretería",
        "calle": "Plaza de Molviedro",
        "osm": "Plaza de Molviedro"
      },
      "geometry": {
        "type": "Point",
        "coordinates": [
          -5.9977813,
          37.3878196
        ]
      }
    },
    {
      "type": "Feature",
      "properties": {
        "id_hdad": 49,
        "hermandad": "La Carretería",
        "calle": "Calle Doña Guiomar",
        "osm": "Calle Doña Guiomar"
      },
      "geometry": {
        "type": "Point",
        "coordinates": [
          -5.9976929,
          37.3878993
        ]
      }
    }
  ]
}