{
  "type": "FeatureCollection",
  "features": [
    {
      "type": "Feature",
      "properties": {
        "id_hdad": 53,
        "nombre": "San Isidoro",
        "dia": "viernes-santo"
      },
      "geometry": {
        "type": "LineString",
        "coordinates": [
          [
            -5.9909741,
            37.3895117
          ],
          [
            -5.991877737588801,
            37.389764333519445
          ],
          [
            -5.99276171628195,
            37.38971492214055
          ],
          [
            -5.993087,
            37.389679
          ],
          [
            -5.993132428703218,
            37.39005314738425
          ],
          [
            -5.993169,
            37.390185
          ],
          [
            -5.993243,
            37.390261
          ],
          [
            -5.993364,
            37.390816
          ],
          [
            -5.993467,
            37.391235
          ],
          [
            -5.9935038,
            37.3915601
          ],
          [
            -5.9936079,
            37.3923895
          ],
          [
            -5.9936905,
            37.3932322
          ],
          [
            -5.9936844,
            37.3934442
          ],
          [
            -5.993838,
            37.393693
          ],
          [
            -5.9940973,
            37.3936496
          ],
          [
            -5.9942892,
            37.3936065
          ],
          [
            -5.994575,
            37.393545
          ],
          [
            -5.9948244,
            37.3933914
          ],
          [
            -5.995644,
            37.393115
          ],
          [
            -5.995643,
            37.39272
          ],
          [
            -5.994924,
            37.392751
          ],
          [
            -5.994797,
            37.391803
          ],
          [
            -5.994542,
            37.390976
          ],
          [
            -5.994258,
            37.389845
          ],
          [
            -5.994175,
            37.389143
          ],
          [
            -5.994151,
            37.388605
          ],
          [
            -5.994169,
            37.388187
          ],
          [
            -5.994296,
            37.388071
          ],
          [
            -5.9943041,
            37.3879286
          ],
          [
            -5.9942267,
            37.38731
          ],
          [
            -5.9941493,
            37.386713
          ],
          [
            -5.9940679,
            37.3860718
          ],
          [
            -5.9940344,
            37.3857616
          ],
          [
            -5.993999,
            37.385447
          ],
          [
            -5.9934331,
            37.3854932
          ],
          [
            -5.9929686,
            37.3855304
          ],
          [
            -5.992619,
            37.385552
          ],
          [
            -5.9926646,
            37.3858225
          ],
          [
            -5.99271,
            37.386038
          ],
          [
            -5.992325,
            37.386077
          ],
          [
            -5.992343,
            37.386298
          ],
          [
            -5.992461,
            37.386331
          ],
          [
            -5.992523,
            37.386502
          ],
          [
            -5.992515,
            37.38666
          ],
          [
            -5.992492,
            37.3867571
          ],
          [
            -5.9924607,
            37.3869592
          ],
          [
            -5.99245,
            37.3872656
          ],
          [
            -5.992489,
            37.387452
          ],
          [
            -5.992594,
            37.387654
          ],
          [
            -5.992704,
            37.387858
          ],
          [
            -5.99277,
            37.38804
          ],
          [
            -5.992765,
            37.388268
          ],
          [
            -5.992744,
            37.388583
          ],
          [
            -5.992621,
            37.388828
          ],
          [
            -5.992568,
            37.389176
          ],
          [
            -5.992542,
            37.389426
          ],
          [
            -5.992353,
            37.389737
          ],
          [
            -5.991765,
            37.389785
          ],
          [
            -5.9909741,
            37.3895117
          ]
        ]
      }
    },
    {
      "type": "Feature",
      "properties": {
        "id_hdad": 53,
        "hermandad": "San Isidoro",
        "calle": "Calle Luchana",
        "osm": "Calle Luchana"
      },
      "geometry": {
        "type": "Point",
        "coordinates": [
          -5.9909741,
          37.3895117
        ]
      }
    },
    {
      "type": "Feature",
      "properties": {
        "id_hdad": 53,
        "hermandad": "San Isidoro",
        "calle": "Cuesta del Rosario",
        "osm": "Cuesta del Rosario"
      },
      "geometry": {
        "type": "Point",
        "coordinates": [
          -5.991877737588801,
          37.389764333519445
        ]
      }
    },
    {
      "type": "Feature",
      "properties": {
        "id_hdad": 53,
        "hermandad": "San Isidoro",
        "calle": "Calle Villegas",
        "osm": "Calle Villegas"
      },
      "geometry": {
        "type": "Point",
        "coordinates": [
          -5.99276171628195,
          37.38971492214055
        ]
      }
    },
    {
      "type": "Feature",
      "properties": {
        "id_hdad": 53,
        "hermandad": "San Isidoro",
        "calle": "Plaza del Salvador",
        "osm": "Plaza del Salvador"
      },
      "geometry": {
        "type": "Point",
        "coordinates": [
          -5.993132428703218,
          37.39005314738425
        ]
      }
    },
    {
      "type": "Feature",
      "properties": {
        "id_hdad": 53,
        "hermandad": "San Isidoro",
        "calle": "Calle Cuna",
        "osm": "Calle Cuna"
      },
      "geometry": {
        "type": "Point",
        "coordinates": [
          -5.9934667,
          37.3916005
        ]
      }
    },
    {
      "type": "Feature",
      "properties": {
        "id_hdad": 53,
        "hermandad": "San Isidoro",
        "calle": "Calle Orfila",
        "osm": "Calle Orfila"
      },
      "geometry": {
        "type": "Point",
        "coordinates": [
          -5.9937493,
          37.3932616
        ]
      }
    },
    {
      "type": "Feature",
      "properties": {
        "id_hdad": 53,
        "hermandad": "San Isidoro",
        "calle": "Calle Javier Lasso de la Vega",
        "osm": "Calle Javier Lasso de la Vega"
      },
      "geometry": {
        "type": "Point",
        "coordinates": [
          -5.994449,
          37.393596
        ]
      }
    },
    {
      "type": "Feature",
      "properties": {
        "id_hdad": 53,
        "hermandad": "San Isidoro",
        "calle": "Calle Tarifa",
        "osm": "Calle Tarifa"
      },
      "geometry": {
        "type": "Point",
        "coordinates": [
          -5.9948244,
          37.3933914
        ]
      }
    },
    {
      "type": "Feature",
      "properties": {
        "id_hdad": 53,
        "hermandad": "San Isidoro",
        "calle": "Plaza del Duque de la Victoria (lado derecho)",
        "osm": "Plaza del Duque de la Victoria (lado derecho)"
      },
      "geometry": {
        "type": "Point",
        "coordinates": [
          -5.995644,
          37.393115
        ]
      }
    },
    {
      "type": "Feature",
      "properties": {
        "id_hdad": 53,
        "hermandad": "San Isidoro",
        "calle": "La Campana",
        "osm": "La Campana"
      },
      "geometry": {
        "type": "Point",
        "coordinates": [
          -5.995376,
          37.392725
        ]
      }
    },
    {
      "type": "Feature",
      "properties": {
        "id_hdad": 53,
        "hermandad": "San Isidoro",
        "calle": "Calle Sierpes",
        "osm": "Calle Sierpes"
      },
      "geometry": {
        "type": "Point",
        "coordinates": [
          -5.9947885,
          37.3908748
        ]
      }
    },
    {
      "type": "Feature",
      "properties": {
        "id_hdad": 53,
        "hermandad": "San Isidoro",
        "calle": "Plaza de San Francisco",
        "osm": "Plaza de San Francisco"
      },
      "geometry": {
        "type": "Point",
        "coordinates": [
          -5.994154,
          37.38867
        ]
      }
    },
    {
      "type": "Feature",
      "properties": {
        "id_hdad": 53,
        "hermandad": "San Isidoro",
        "calle": "Avenida de la Constitución",
        "osm": "Avenida de la Constitución"
      },
      "geometry": {
        "type": "Point",
        "coordinates": [
          -5.994185,
          37.386838
        ]
      }
    },
    {
      "type": "Feature",
      "properties": {
        "id_hdad": 53,
        "hermandad": "San Isidoro",
        "calle": "Calle Cardenal Carlos Amigo",
        "osm": "Calle Cardenal Carlos Amigo"
      },
      "geometry": {
        "type": "Point",
        "coordinates": [
          -5.992537,
          37.386555
        ]
      }
    },
    {
      "type": "Feature",
      "properties": {
        "id_hdad": 53,
        "hermandad": "San Isidoro",
        "calle": "Calle Placentines",
        "osm": "Calle Placentines"
      },
      "geometry": {
        "type": "Point",
        "coordinates": [
          -5.992594,
          37.387654
        ]
      }
    },
    {
      "type": "Feature",
      "properties": {
        "id_hdad": 53,
        "hermandad": "San Isidoro",
        "calle": "Calle Francos",
        "osm": "Calle Francos"
      },
      "geometry": {
        "type": "Point",
        "coordinates": [
          -5.992784,
          37.388285
        ]
      }
    }
  ]
}
