{
  "type": "FeatureCollection",
  "features": [
    {
      "type": "Feature",
      "properties": {
        "id_hdad": 54,
        "nombre": "Montserrat",
        "dia": "viernes-santo"
      },
      "geometry": {
        "type": "LineString",
        "coordinates": [
          [
            -5.9988822,
            37.39042
          ],
          [
            -5.9982008,
            37.3902826
          ],
          [
            -5.9978096,
            37.3905118
          ],
          [
            -5.996838,
            37.390749
          ],
          [
            -5.996081,
            37.390949
          ],
          [
            -5.9953857,
            37.3910684
          ],
          [
            -5.9954323,
            37.3915334
          ],
          [
            -5.9954456,
            37.3918072
          ],
          [
            -5.995454,
            37.392155
          ],
          [
            -5.995386,
            37.3924668
          ],
          [
            -5.995376,
            37.392725
          ],
          [
            -5.994924,
            37.392751
          ],
          [
            -5.994861,
            37.3922847
          ],
          [
            -5.994797,
            37.391803
          ],
          [
            -5.9946698,
            37.3913397
          ],
          [
            -5.9947885,
            37.3908748
          ],
          [
            -5.994258,
            37.389845
          ],
          [
            -5.994175,
            37.389143
          ],
          [
            -5.994154,
            37.38867
          ],
          [
            -5.994169,
            37.388187
          ],
          [
            -5.994296,
            37.388071
          ],
          [
            -5.9943041,
            37.3879286
          ],
          [
            -5.9942267,
            37.38731
          ],
          [
            -5.994185,
            37.386838
          ],
          [
            -5.9947573,
            37.3852277
          ],
          [
            -5.9946016,
            37.3850918
          ],
          [
            -5.9947139,
            37.3852071
          ],
          [
            -5.9948075,
            37.3852443
          ],
          [
            -5.9949714,
            37.3852341
          ],
          [
            -5.995197,
            37.385176
          ],
          [
            -5.9953598,
            37.3851215
          ],
          [
            -5.9953224,
            37.3852665
          ],
          [
            -5.9954066,
            37.3856467
          ],
          [
            -5.9953972,
            37.3856197
          ],
          [
            -5.9954957,
            37.3857758
          ],
          [
            -5.9961928,
            37.3861699
          ],
          [
            -5.9961737,
            37.3862092
          ],
          [
            -5.9961393,
            37.3862162
          ],
          [
            -5.9961784,
            37.3863579
          ],
          [
            -5.9972329,
            37.3872018
          ],
          [
            -5.9978829,
            37.3877064
          ],
          [
            -5.9977813,
            37.3878196
          ],
          [
            -5.9976929,
            37.3878993
          ],
          [
            -5.9974462,
            37.3881554
          ],
          [
            -5.997383,
            37.3883309
          ],
          [
            -5.9977618,
            37.38845
          ],
          [
            -5.9980142,
            37.3885566
          ]
        ]
      }
    },
    {
      "type": "Feature",
      "properties": {
        "id_hdad": 54,
        "hermandad": "Montserrat",
        "calle": "Calle Cristo del Calvario",
        "osm": "Calle Cristo del Calvario"
      },
      "geometry": {
        "type": "Point",
        "coordinates": [
          -5.9988822,
          37.39042
        ]
      }
    },
    {
      "type": "Feature",
      "properties": {
        "id_hdad": 54,
        "hermandad": "Montserrat",
        "calle": "Calle San Pablo",
        "osm": "Calle San Pablo"
      },
      "geometry": {
        "type": "Point",
        "coordinates": [
          -5.9982008,
          37.3902826
        ]
      }
    },
    {
      "type": "Feature",
      "properties": {
        "id_hdad": 54,
        "hermandad": "Montserrat",
        "calle": "Plaza de la Magdalena",
        "osm": "Plaza de la Magdalena"
      },
      "geometry": {
        "type": "Point",
        "coordinates": [
          -5.996838,
          37.390749
        ]
      }
    },
    {
      "type": "Feature",
      "properties": {
        "id_hdad": 54,
        "hermandad": "Montserrat",
        "calle": "Calle Rioja",
        "osm": "Calle Rioja"
      },
      "geometry": {
        "type": "Point",
        "coordinates": [
          -5.996081,
          37.390949
        ]
      }
    },
    {
      "type": "Feature",
      "properties": {
        "id_hdad": 54,
        "hermandad": "Montserrat",
        "calle": "Calle Velázquez",
        "osm": "Calle Velázquez"
      },
      "geometry": {
        "type": "Point",
        "coordinates": [
          -5.9954323,
          37.3915334
        ]
      }
    },
    {
      "type": "Feature",
      "properties": {
        "id_hdad": 54,
        "hermandad": "Montserrat",
        "calle": "Calle O'Donnell",
        "osm": "Calle O'Donnell"
      },
      "geometry": {
        "type": "Point",
        "coordinates": [
          -5.995454,
          37.392155
        ]
      }
    },
    {
      "type": "Feature",
      "properties": {
        "id_hdad": 54,
        "hermandad": "Montserrat",
        "calle": "La Campana",
        "osm": "Calle Campana"
      },
      "geometry": {
        "type": "Point",
        "coordinates": [
          -5.995376,
          37.392725
        ]
      }
    },
    {
      "type": "Feature",
      "properties": {
        "id_hdad": 54,
        "hermandad": "Montserrat",
        "calle": "Calle Sierpes",
        "osm": "Calle Sierpes"
      },
      "geometry": {
        "type": "Point",
        "coordinates": [
          -5.9947885,
          37.3908748
        ]
      }
    },
    {
      "type": "Feature",
      "properties": {
        "id_hdad": 54,
        "hermandad": "Montserrat",
        "calle": "Plaza de San Francisco",
        "osm": "Plaza de San Francisco"
      },
      "geometry": {
        "type": "Point",
        "coordinates": [
          -5.994154,
          37.38867
        ]
      }
    },
    {
      "type": "Feature",
      "properties": {
        "id_hdad": 54,
        "hermandad": "Montserrat",
        "calle": "Avenida de la Constitución",
        "osm": "Avenida de la Constitución"
      },
      "geometry": {
        "type": "Point",
        "coordinates": [
          -5.994185,
          37.386838
        ]
      }
    },
    {
      "type": "Feature",
      "properties": {
        "id_hdad": 54,
        "hermandad": "Montserrat",
        "calle": "Calle Almirantazgo",
        "osm": "Calle Almirantazgo"
      },
      "geometry": {
        "type": "Point",
        "coordinates": [
          -5.9947573,
          37.3852277
        ]
      }
    },
    {
      "type": "Feature",
      "properties": {
        "id_hdad": 54,
        "hermandad": "Montserrat",
        "calle": "Calle Arco del Postigo",
        "osm": "Calle Arco del Postigo"
      },
      "geometry": {
        "type": "Point",
        "coordinates": [
          -5.9949714,
          37.3852341
        ]
      }
    },
    {
      "type": "Feature",
      "properties": {
        "id_hdad": 54,
        "hermandad": "Montserrat",
        "calle": "Calle Dos de Mayo",
        "osm": "Calle Dos de Mayo"
      },
      "geometry": {
        "type": "Point",
        "coordinates": [
          -5.995197,
          37.385176
        ]
      }
    },
    {
      "type": "Feature",
      "properties": {
        "id_hdad": 54,
        "hermandad": "Montserrat",
        "calle": "Calle Arfe",
        "osm": "Calle Arfe"
      },
      "geometry": {
        "type": "Point",
        "coordinates": [
          -5.9954066,
          37.3856467
        ]
      }
    },
    {
      "type": "Feature",
      "properties": {
        "id_hdad": 54,
        "hermandad": "Montserrat",
        "calle": "Calle Puerta del Arenal",
        "osm": "Calle Puerta del Arenal"
      },
      "geometry": {
        "type": "Point",
        "coordinates": [
          -5.9961393,
          37.3862162
        ]
      }
    },
    {
      "type": "Feature",
      "properties": {
        "id_hdad": 54,
        "hermandad": "Montserrat",
        "calle": "Calle Castelar",
        "osm": "Calle Castelar"
      },
      "geometry": {
        "type": "Point",
        "coordinates": [
          -5.9972329,
          37.3872018
        ]
      }
    },
    {
      "type": "Feature",
      "properties": {
        "id_hdad": 54,
        "hermandad": "Montserrat",
        "calle": "Plaza de Molviedro",
        "osm": "Plaza de Molviedro"
      },
      "geometry": {
        "type": "Point",
        "coordinates": [
          -5.9977813,
          37.3878196
        ]
      }
    },
    {
      "type": "Feature",
      "properties": {
        "id_hdad": 54,
        "hermandad": "Montserrat",
        "calle": "Calle Doña Guiomar",
        "osm": "Calle Doña Guiomar"
      },
      "geometry": {
        "type": "Point",
        "coordinates": [
          -5.9976929,
          37.3878993
        ]
      }
    },
    {
      "type": "Feature",
      "properties": {
        "id_hdad": 54,
        "hermandad": "Montserrat",
        "calle": "Calle Zaragoza",
        "osm": "Calle Zaragoza"
      },
      "geometry": {
        "type": "Point",
        "coordinates": [
          -5.9980142,
          37.3885566
        ]
      }
    }
  ]
}
