{"type":"FeatureCollection","features":[{"type":"Feature","properties":{"id_hdad":56,"nombre":"El Sol","dia":"sabado-santo"},"geometry":{"type":"LineString","coordinates":[[-5.9741237,37.3754745],[-5.9654765,37.3737708],[-5.9813265,37.3791377],[-5.9842341,37.3799597],[-5.9884405,37.3812823],[-5.9882289,37.38344],[-5.9870272,37.3856852],[-5.9873414,37.3863291],[-5.9889261,37.3880054],[-5.9892314,37.3885302],[-5.989934004001618,37.38901791442554],[-5.99003,37.3895097],[-5.9901589083914715,37.38984005540638],[-5.9903449,37.390137],[-5.990668,37.389983],[-5.991877737588801,37.389764333519445],[-5.99276171628195,37.38971492214055],[-5.993087,37.389679],[-5.993152,37.390033],[-5.9937797,37.3901395],[-5.9947086,37.3899991],[-5.9951669,37.3902317],[-5.9953197,37.3907871],[-5.9954035,37.3911654],[-5.9954456,37.3918072],[-5.995454,37.392155],[-5.99564,37.393105],[-5.995631,37.392901],[-5.995376,37.392725],[-5.994924,37.392751],[-5.994797,37.391803],[-5.9945202,37.3909414],[-5.994258,37.389845],[-5.994175,37.389143],[-5.994154,37.38867],[-5.994185,37.386838],[-5.992479,37.3842205],[-5.992534,37.383679],[-5.9928723,37.383241],[-5.9932597,37.3823431],[-5.9909424,37.38181],[-5.9884405,37.3812823],[-5.9842341,37.3799597],[-5.9813265,37.3791377],[-5.9741237,37.3754745],[-5.9968379,37.390749]]}},{"type":"Feature","properties":{"id_hdad":56,"hermandad":"El Sol","calle":"Calle Virgen del Sol","osm":"Calle Virgen del Sol"},"geometry":{"type":"Point","coordinates":[-5.9741237,37.3754745]}},{"type":"Feature","properties":{"id_hdad":56,"hermandad":"El Sol","calle":"Avenida de Ramón y Cajal","osm":"Avenida Ramón y Cajal"},"geometry":{"type":"Point","coordinates":[-5.9654765,37.3737708]}},{"type":"Feature","properties":{"id_hdad":56,"hermandad":"El Sol","calle":"Calle Enramadilla","osm":"Calle Enramadilla"},"geometry":{"type":"Point","coordinates":[-5.9813265,37.3791377]}},{"type":"Feature","properties":{"id_hdad":56,"hermandad":"El Sol","calle":"Avenida de Carlos V","osm":"Avenida de Carlos V"},"geometry":{"type":"Point","coordinates":[-5.9842341,37.3799597]}},{"type":"Feature","properties":{"id_hdad":56,"hermandad":"El Sol","calle":"Plaza de Don Juan de Austria","osm":"Plaza Don Juan de Austria"},"geometry":{"type":"Point","coordinates":[-5.9884405,37.3812823]}},{"type":"Feature","properties":{"id_hdad":56,"hermandad":"El Sol","calle":"Calle Paseo de Catalina de Ribera","osm":"Paseo de Catalina de Ribera"},"geometry":{"type":"Point","coordinates":[-5.9882289,37.38344]}},{"type":"Feature","properties":{"id_hdad":56,"hermandad":"El Sol","calle":"Calle Cano y Cueto","osm":"Calle Cano y Cueto"},"geometry":{"type":"Point","coordinates":[-5.9870272,37.3856852]}},{"type":"Feature","properties":{"id_hdad":56,"hermandad":"El Sol","calle":"Calle Santa María la Blanca","osm":"Calle Santa María la Blanca"},"geometry":{"type":"Point","coordinates":[-5.9873414,37.3863291]}},{"type":"Feature","properties":{"id_hdad":56,"hermandad":"El Sol","calle":"Calle San José","osm":"Calle San José"},"geometry":{"type":"Point","coordinates":[-5.9889261,37.3880054]}},{"type":"Feature","properties":{"id_hdad":56,"hermandad":"El Sol","calle":"Plaza Nuestro Padre Jesús de la Salud","osm":"Plaza Nuestro Padre Jesús de la Salud"},"geometry":{"type":"Point","coordinates":[-5.9892314,37.3885302]}},{"type":"Feature","properties":{"id_hdad":56,"hermandad":"El Sol","calle":"Calle Muñoz y Pabón","osm":"Calle Muñoz y Pabón"},"geometry":{"type":"Point","coordinates":[-5.989934004001618,37.38901791442554]}},{"type":"Feature","properties":{"id_hdad":56,"hermandad":"El Sol","calle":"Calle Cabeza del Rey Don Pedro","osm":"Calle Cabeza del Rey Don Pedro"},"geometry":{"type":"Point","coordinates":[-5.99003,37.3895097]}},{"type":"Feature","properties":{"id_hdad":56,"hermandad":"El Sol","calle":"Calle Candilejo","osm":"Calle Candilejo"},"geometry":{"type":"Point","coordinates":[-5.9901589083914715,37.38984005540638]}},{"type":"Feature","properties":{"id_hdad":56,"hermandad":"El Sol","calle":"Calle Alfalfa","osm":"Calle Alfalfa"},"geometry":{"type":"Point","coordinates":[-5.9903449,37.390137]}},{"type":"Feature","properties":{"id_hdad":56,"hermandad":"El Sol","calle":"Calle Jesús de las Tres Caídas","osm":"Calle Jesús de las Tres Caídas"},"geometry":{"type":"Point","coordinates":[-5.990668,37.389983]}},{"type":"Feature","properties":{"id_hdad":56,"hermandad":"El Sol","calle":"Cuesta del Rosario","osm":"Calle Cuesta del Rosario"},"geometry":{"type":"Point","coordinates":[-5.991877737588801,37.389764333519445]}},{"type":"Feature","properties":{"id_hdad":56,"hermandad":"El Sol","calle":"Calle Villegas","osm":"Calle Villegas"},"geometry":{"type":"Point","coordinates":[-5.99276171628195,37.38971492214055]}},{"type":"Feature","properties":{"id_hdad":56,"hermandad":"El Sol","calle":"Plaza del Salvador","osm":"Plaza del Salvador"},"geometry":{"type":"Point","coordinates":[-5.993152,37.390033]}},{"type":"Feature","properties":{"id_hdad":56,"hermandad":"El Sol","calle":"Calle Sagasta","osm":"Calle Sagasta"},"geometry":{"type":"Point","coordinates":[-5.9937797,37.3901395]}},{"type":"Feature","properties":{"id_hdad":56,"hermandad":"El Sol","calle":"Calle Jovellanos","osm":"Calle Jovellanos"},"geometry":{"type":"Point","coordinates":[-5.9947086,37.3899991]}},{"type":"Feature","properties":{"id_hdad":56,"hermandad":"El Sol","calle":"Calle Tetuán","osm":"Calle Tetuán"},"geometry":{"type":"Point","coordinates":[-5.9951669,37.3902317]}},{"type":"Feature","properties":{"id_hdad":56,"hermandad":"El Sol","calle":"Calle Velázquez","osm":"Calle Velázquez"},"geometry":{"type":"Point","coordinates":[-5.9954035,37.3911654]}},{"type":"Feature","properties":{"id_hdad":56,"hermandad":"El Sol","calle":"Calle O'Donnell","osm":"Calle O'Donnell"},"geometry":{"type":"Point","coordinates":[-5.995454,37.392155]}},{"type":"Feature","properties":{"id_hdad":56,"hermandad":"El Sol","calle":"Plaza del Duque de la Victoria (lado derecho)","osm":"Plaza del Duque de la Victoria (lado derecho"},"geometry":{"type":"Point","coordinates":[-5.99564,37.393105]}},{"type":"Feature","properties":{"id_hdad":56,"hermandad":"El Sol","calle":"La Campana","osm":"Calle Campana"},"geometry":{"type":"Point","coordinates":[-5.995376,37.392725]}},{"type":"Feature","properties":{"id_hdad":56,"hermandad":"El Sol","calle":"Calle Sierpes","osm":"Calle Sierpes"},"geometry":{"type":"Point","coordinates":[-5.9947885,37.3908748]}},{"type":"Feature","properties":{"id_hdad":56,"hermandad":"El Sol","calle":"Plaza de San Francisco","osm":"Plaza de San Francisco"},"geometry":{"type":"Point","coordinates":[-5.994154,37.38867]}},{"type":"Feature","properties":{"id_hdad":56,"hermandad":"El Sol","calle":"Avenida de la Constitución","osm":"Avenida de la Constitución"},"geometry":{"type":"Point","coordinates":[-5.994185,37.386838]}},{"type":"Feature","properties":{"id_hdad":56,"hermandad":"El Sol","calle":"Calle Miguel Mañara","osm":"Calle Miguel Mañara"},"geometry":{"type":"Point","coordinates":[-5.992479,37.3842205]}},{"type":"Feature","properties":{"id_hdad":56,"hermandad":"El Sol","calle":"Plaza de La Contratación","osm":"Plaza de la Contratación"},"geometry":{"type":"Point","coordinates":[-5.992534,37.383679]}},{"type":"Feature","properties":{"id_hdad":56,"hermandad":"El Sol","calle":"Calle San Gregorio","osm":"Plaza de San Gregorio"},"geometry":{"type":"Point","coordinates":[-5.9928723,37.383241]}},{"type":"Feature","properties":{"id_hdad":56,"hermandad":"El Sol","calle":"Plaza Puerta de Jerez","osm":"Plaza Puerta de Jerez"},"geometry":{"type":"Point","coordinates":[-5.9932597,37.3823431]}},{"type":"Feature","properties":{"id_hdad":56,"hermandad":"El Sol","calle":"Calle San Fernando","osm":"Calle San Fernando"},"geometry":{"type":"Point","coordinates":[-5.9909424,37.38181]}},{"type":"Feature","properties":{"id_hdad":56,"hermandad":"El Sol","calle":"Plaza de Don Juan de Austria","osm":"Plaza Don Juan de Austria"},"geometry":{"type":"Point","coordinates":[-5.9884405,37.3812823]}},{"type":"Feature","properties":{"id_hdad":56,"hermandad":"El Sol","calle":"Avenida de Carlos V","osm":"Avenida de Carlos V"},"geometry":{"type":"Point","coordinates":[-5.9842341,37.3799597]}},{"type":"Feature","properties":{"id_hdad":56,"hermandad":"El Sol","calle":"Calle Enramadilla","osm":"Calle Enramadilla"},"geometry":{"type":"Point","coordinates":[-5.9813265,37.3791377]}},{"type":"Feature","properties":{"id_hdad":56,"hermandad":"El Sol","calle":"Calle Virgen del Sol","osm":"Calle Virgen del Sol"},"geometry":{"type":"Point","coordinates":[-5.9741237,37.3754745]}},{"type":"Feature","properties":{"id_hdad":56,"hermandad":"El Sol","calle":"Plaza de la Magdalena","osm":"Plaza de la Magdalena"},"geometry":{"type":"Point","coordinates":[-5.9968379,37.390749]}}]}