{
  "type": "FeatureCollection",
  "features": [
    {
      "type": "Feature",
      "properties": {
        "id_hdad": 58,
        "nombre": "La Trinidad",
        "dia": "sabado-santo"
      },
      "geometry": {
        "type": "LineString",
        "coordinates": [
          [
            -5.9802669,
            37.3972916
          ],
          [
            -5.9804958,
            37.3972703
          ],
          [
            -5.9812825,
            37.3970284
          ],
          [
            -5.9816453,
            37.3969626
          ],
          [
            -5.9822458,
            37.396143
          ],
          [
            -5.9829117,
            37.3952418
          ],
          [
            -5.9834134,
            37.3945608
          ],
          [
            -5.9836419,
            37.3946234
          ],
          [
            -5.9838552,
            37.3946749
          ],
          [
            -5.9839002,
            37.3945979
          ],
          [
            -5.983959,
            37.3943945
          ],
          [
            -5.9841078,
            37.3942461
          ],
          [
            -5.9844166,
            37.3939171
          ],
          [
            -5.9846065,
            37.3936095
          ],
          [
            -5.9847648,
            37.3933173
          ],
          [
            -5.9848525,
            37.3932883
          ],
          [
            -5.9850765,
            37.3932941
          ],
          [
            -5.9855991,
            37.3931625
          ],
          [
            -5.9862736,
            37.3929555
          ],
          [
            -5.9866462,
            37.3931373
          ],
          [
            -5.9867948,
            37.3932437
          ],
          [
            -5.9874545,
            37.393084
          ],
          [
            -5.988267,
            37.392909
          ],
          [
            -5.9886598,
            37.3928715
          ],
          [
            -5.989031,
            37.392704
          ],
          [
            -5.989692,
            37.392505
          ],
          [
            -5.9901991,
            37.3925095
          ],
          [
            -5.99088,
            37.39261
          ],
          [
            -5.9922302,
            37.392777
          ],
          [
            -5.992981,
            37.392804
          ],
          [
            -5.9933169,
            37.3928037
          ],
          [
            -5.9936593,
            37.3928157
          ],
          [
            -5.9936853,
            37.3929311
          ],
          [
            -5.993689,
            37.393287
          ],
          [
            -5.9936844,
            37.3934442
          ],
          [
            -5.993838,
            37.393693
          ],
          [
            -5.9940973,
            37.3936496
          ],
          [
            -5.9942892,
            37.3936065
          ],
          [
            -5.994575,
            37.393545
          ],
          [
            -5.9947522,
            37.3935137
          ],
          [
            -5.99499,
            37.3936695
          ],
          [
            -5.995283,
            37.393895
          ],
          [
            -5.99537,
            37.393742
          ],
          [
            -5.995446,
            37.393623
          ],
          [
            -5.995615,
            37.39345
          ],
          [
            -5.995633,
            37.393113
          ],
          [
            -5.995631,
            37.392901
          ],
          [
            -5.9956364,
            37.3927183
          ],
          [
            -5.995376,
            37.392725
          ],
          [
            -5.994924,
            37.392751
          ],
          [
            -5.994797,
            37.391803
          ],
          [
            -5.9945202,
            37.3909414
          ],
          [
            -5.9943917,
            37.3904014
          ],
          [
            -5.994327,
            37.3901151
          ],
          [
            -5.9942735,
            37.3898019
          ],
          [
            -5.9941991,
            37.3894656
          ],
          [
            -5.994175,
            37.389143
          ],
          [
            -5.994154,
            37.38867
          ],
          [
            -5.994169,
            37.388187
          ],
          [
            -5.994296,
            37.388071
          ],
          [
            -5.9943041,
            37.3879286
          ],
          [
            -5.9942267,
            37.38731
          ],
          [
            -5.9941493,
            37.386713
          ],
          [
            -5.9940679,
            37.3860718
          ],
          [
            -5.9940344,
            37.3857616
          ],
          [
            -5.993999,
            37.385447
          ],
          [
            -5.9934331,
            37.3854932
          ],
          [
            -5.9929686,
            37.3855304
          ],
          [
            -5.992619,
            37.385552
          ],
          [
            -5.9926646,
            37.3858225
          ],
          [
            -5.99271,
            37.386038
          ],
          [
            -5.992325,
            37.386077
          ],
          [
            -5.992365,
            37.386288
          ],
          [
            -5.9924408,
            37.3863144
          ],
          [
            -5.9924973,
            37.3863647
          ],
          [
            -5.9925107,
            37.3865266
          ],
          [
            -5.992515,
            37.38666
          ],
          [
            -5.992549,
            37.386763
          ],
          [
            -5.992807,
            37.386777
          ],
          [
            -5.993037,
            37.386751
          ],
          [
            -5.993054,
            37.386917
          ],
          [
            -5.9930245,
            37.3870101
          ],
          [
            -5.9929267,
            37.3871073
          ],
          [
            -5.992697,
            37.387288
          ],
          [
            -5.992489,
            37.387452
          ],
          [
            -5.992594,
            37.387654
          ],
          [
            -5.992704,
            37.387858
          ],
          [
            -5.99277,
            37.38804
          ],
          [
            -5.992784,
            37.388285
          ],
          [
            -5.992744,
            37.388583
          ],
          [
            -5.992621,
            37.388828
          ],
          [
            -5.992568,
            37.389176
          ],
          [
            -5.992542,
            37.389426
          ],
          [
            -5.992353,
            37.389737
          ],
          [
            -5.991765,
            37.389785
          ],
          [
            -5.991357,
            37.389798
          ],
          [
            -5.991092,
            37.38979
          ],
          [
            -5.990856,
            37.389772
          ],
          [
            -5.990668,
            37.389983
          ],
          [
            -5.9903819,
            37.3904418
          ],
          [
            -5.9902529,
            37.3906875
          ],
          [
            -5.9897003,
            37.3905751
          ],
          [
            -5.9893181,
            37.3904716
          ],
          [
            -5.9891312,
            37.3904536
          ],
          [
            -5.9889073,
            37.3904992
          ],
          [
            -5.988716,
            37.3905804
          ],
          [
            -5.9884604,
            37.3908097
          ],
          [
            -5.9883511,
            37.39097
          ],
          [
            -5.9882658,
            37.3910695
          ],
          [
            -5.9881593,
            37.3912219
          ],
          [
            -5.9880689,
            37.3914025
          ],
          [
            -5.9880143,
            37.3916455
          ],
          [
            -5.9879415,
            37.3921737
          ],
          [
            -5.9879415,
            37.3923472
          ],
          [
            -5.9879706,
            37.3925439
          ],
          [
            -5.9880173,
            37.39293
          ],
          [
            -5.987516,
            37.3930687
          ],
          [
            -5.9867997,
            37.3932441
          ],
          [
            -5.9862759,
            37.3929629
          ],
          [
            -5.9850825,
            37.3933
          ],
          [
            -5.9848686,
            37.3932945
          ],
          [
            -5.9847582,
            37.393317
          ],
          [
            -5.9844835,
            37.3938142
          ],
          [
            -5.9839681,
            37.3943991
          ],
          [
            -5.983852,
            37.3946802
          ],
          [
            -5.9839228,
            37.394867
          ],
          [
            -5.9839341,
            37.3948535
          ],
          [
            -5.9838888,
            37.3946937
          ],
          [
            -5.9840927,
            37.394741
          ],
          [
            -5.9841776,
            37.3947275
          ],
          [
            -5.9842739,
            37.3949052
          ],
          [
            -5.9844585,
            37.3951973
          ],
          [
            -5.9848068,
            37.3956539
          ],
          [
            -5.9829974,
            37.3966073
          ],
          [
            -5.9826175,
            37.3968471
          ],
          [
            -5.9822449,
            37.3970387
          ],
          [
            -5.9818943,
            37.3968471
          ],
          [
            -5.981559,
            37.396986
          ],
          [
            -5.981277,
            37.3970247
          ],
          [
            -5.9805123,
            37.3972704
          ],
          [
            -5.9802639,
            37.3972917
          ]
        ]
      }
    },
    {
      "type": "Feature",
      "properties": {
        "id_hdad": 58,
        "hermandad": "La Trinidad",
        "calle": "Calle María Auxiliadora",
        "osm": "Calle María Auxiliadora"
      },
      "geometry": {
        "type": "Point",
        "coordinates": [
          -5.982314,
          37.3961275
        ]
      }
    },
    {
      "type": "Feature",
      "properties": {
        "id_hdad": 58,
        "hermandad": "La Trinidad",
        "calle": "Calle Mateos",
        "osm": "Calle Mateos"
      },
      "geometry": {
        "type": "Point",
        "coordinates": [
          -5.9836419,
          37.3946234
        ]
      }
    },
    {
      "type": "Feature",
      "properties": {
        "id_hdad": 58,
        "hermandad": "La Trinidad",
        "calle": "Calle Valle",
        "osm": "Calle Valle"
      },
      "geometry": {
        "type": "Point",
        "coordinates": [
          -5.9841545,
          37.3942804
        ]
      }
    },
    {
      "type": "Feature",
      "properties": {
        "id_hdad": 58,
        "hermandad": "La Trinidad",
        "calle": "Calle Jáuregui",
        "osm": "Calle Jáuregui"
      },
      "geometry": {
        "type": "Point",
        "coordinates": [
          -5.9855565,
          37.3931279
        ]
      }
    },
    {
      "type": "Feature",
      "properties": {
        "id_hdad": 58,
        "hermandad": "La Trinidad",
        "calle": "Plaza de Ponce de León",
        "osm": "Plaza de Ponce de León"
      },
      "geometry": {
        "type": "Point",
        "coordinates": [
          -5.9874545,
          37.393084
        ]
      }
    },
    {
      "type": "Feature",
      "properties": {
        "id_hdad": 58,
        "hermandad": "La Trinidad",
        "calle": "Calle Juan de Mesa",
        "osm": "Calle Juan de Mesa"
      },
      "geometry": {
        "type": "Point",
        "coordinates": [
          -5.988267,
          37.392909
        ]
      }
    },
    {
      "type": "Feature",
      "properties": {
        "id_hdad": 58,
        "hermandad": "La Trinidad",
        "calle": "Calle Almirante Apodaca",
        "osm": "Calle Almirante Apodaca"
      },
      "geometry": {
        "type": "Point",
        "coordinates": [
          -5.989031,
          37.392704
        ]
      }
    },
    {
      "type": "Feature",
      "properties": {
        "id_hdad": 58,
        "hermandad": "La Trinidad",
        "calle": "Plaza de San Pedro",
        "osm": "Plaza de San Pedro"
      },
      "geometry": {
        "type": "Point",
        "coordinates": [
          -5.989692,
          37.392505
        ]
      }
    },
    {
      "type": "Feature",
      "properties": {
        "id_hdad": 58,
        "hermandad": "La Trinidad",
        "calle": "Calle Imagen",
        "osm": "Calle Imagen"
      },
      "geometry": {
        "type": "Point",
        "coordinates": [
          -5.99088,
          37.39261
        ]
      }
    },
    {
      "type": "Feature",
      "properties": {
        "id_hdad": 58,
        "hermandad": "La Trinidad",
        "calle": "Plaza de la Encarnación",
        "osm": "Plaza de la Encarnación"
      },
      "geometry": {
        "type": "Point",
        "coordinates": [
          -5.991499,
          37.3927
        ]
      }
    },
    {
      "type": "Feature",
      "properties": {
        "id_hdad": 58,
        "hermandad": "La Trinidad",
        "calle": "Calle Laraña",
        "osm": "Calle Laraña"
      },
      "geometry": {
        "type": "Point",
        "coordinates": [
          -5.992981,
          37.392804
        ]
      }
    },
    {
      "type": "Feature",
      "properties": {
        "id_hdad": 58,
        "hermandad": "La Trinidad",
        "calle": "Calle Orfila",
        "osm": "Calle Orfila"
      },
      "geometry": {
        "type": "Point",
        "coordinates": [
          -5.993689,
          37.393287
        ]
      }
    },
    {
      "type": "Feature",
      "properties": {
        "id_hdad": 58,
        "hermandad": "La Trinidad",
        "calle": "Calle Javier Lasso de la Vega",
        "osm": "Calle Javier Lasso de la Vega"
      },
      "geometry": {
        "type": "Point",
        "coordinates": [
          -5.994575,
          37.393545
        ]
      }
    },
    {
      "type": "Feature",
      "properties": {
        "id_hdad": 58,
        "hermandad": "La Trinidad",
        "calle": "Calle Trajano",
        "osm": "Calle Trajano"
      },
      "geometry": {
        "type": "Point",
        "coordinates": [
          -5.99537,
          37.393742
        ]
      }
    },
    {
      "type": "Feature",
      "properties": {
        "id_hdad": 58,
        "hermandad": "La Trinidad",
        "calle": "Plaza del Duque de la Victoria (lado derecho)",
        "osm": "Plaza del Duque de la Victoria (lado derecho)"
      },
      "geometry": {
        "type": "Point",
        "coordinates": [
          -5.995633,
          37.393113
        ]
      }
    },
    {
      "type": "Feature",
      "properties": {
        "id_hdad": 58,
        "hermandad": "La Trinidad",
        "calle": "La Campana",
        "osm": "La Campana"
      },
      "geometry": {
        "type": "Point",
        "coordinates": [
          -5.995376,
          37.392725
        ]
      }
    },
    {
      "type": "Feature",
      "properties": {
        "id_hdad": 58,
        "hermandad": "La Trinidad",
        "calle": "Calle Sierpes",
        "osm": "Calle Sierpes"
      },
      "geometry": {
        "type": "Point",
        "coordinates": [
          -5.9947885,
          37.3908748
        ]
      }
    },
    {
      "type": "Feature",
      "properties": {
        "id_hdad": 58,
        "hermandad": "La Trinidad",
        "calle": "Plaza de San Francisco",
        "osm": "Plaza de San Francisco"
      },
      "geometry": {
        "type": "Point",
        "coordinates": [
          -5.994154,
          37.38867
        ]
      }
    },
    {
      "type": "Feature",
      "properties": {
        "id_hdad": 58,
        "hermandad": "La Trinidad",
        "calle": "Avenida de la Constitución",
        "osm": "Avenida de la Constitución"
      },
      "geometry": {
        "type": "Point",
        "coordinates": [
          -5.994185,
          37.386838
        ]
      }
    },
    {
      "type": "Feature",
      "properties": {
        "id_hdad": 58,
        "hermandad": "La Trinidad",
        "calle": "Calle Cardenal Carlos Amigo",
        "osm": "Calle Cardenal Carlos Amigo"
      },
      "geometry": {
        "type": "Point",
        "coordinates": [
          -5.992537,
          37.386555
        ]
      }
    },
    {
      "type": "Feature",
      "properties": {
        "id_hdad": 58,
        "hermandad": "La Trinidad",
        "calle": "Calle Alemanes",
        "osm": "Calle Alemanes"
      },
      "geometry": {
        "type": "Point",
        "coordinates": [
          -5.992807,
          37.386777
        ]
      }
    },
    {
      "type": "Feature",
      "properties": {
        "id_hdad": 58,
        "hermandad": "La Trinidad",
        "calle": "Calle Álvarez Quintero",
        "osm": "Calle Álvarez Quintero"
      },
      "geometry": {
        "type": "Point",
        "coordinates": [
          -5.993054,
          37.386917
        ]
      }
    },
    {
      "type": "Feature",
      "properties": {
        "id_hdad": 58,
        "hermandad": "La Trinidad",
        "calle": "Calle Argote de Molina",
        "osm": "Calle Argote de Molina"
      },
      "geometry": {
        "type": "Point",
        "coordinates": [
          -5.992697,
          37.387288
        ]
      }
    },
    {
      "type": "Feature",
      "properties": {
        "id_hdad": 58,
        "hermandad": "La Trinidad",
        "calle": "Calle Placentines",
        "osm": "Calle Placentines"
      },
      "geometry": {
        "type": "Point",
        "coordinates": [
          -5.992594,
          37.387654
        ]
      }
    },
    {
      "type": "Feature",
      "properties": {
        "id_hdad": 58,
        "hermandad": "La Trinidad",
        "calle": "Calle Francos",
        "osm": "Calle Francos"
      },
      "geometry": {
        "type": "Point",
        "coordinates": [
          -5.992784,
          37.388285
        ]
      }
    },
    {
      "type": "Feature",
      "properties": {
        "id_hdad": 58,
        "hermandad": "La Trinidad",
        "calle": "Cuesta del Rosario",
        "osm": "Cuesta del Rosario"
      },
      "geometry": {
        "type": "Point",
        "coordinates": [
          -5.991765,
          37.389785
        ]
      }
    },
    {
      "type": "Feature",
      "properties": {
        "id_hdad": 58,
        "hermandad": "La Trinidad",
        "calle": "Calle Jesús de las Tres Caídas",
        "osm": "Calle Jesús de las Tres Caídas"
      },
      "geometry": {
        "type": "Point",
        "coordinates": [
          -5.990668,
          37.389983
        ]
      }
    },
    {
      "type": "Feature",
      "properties": {
        "id_hdad": 58,
        "hermandad": "La Trinidad",
        "calle": "Calle Odreros",
        "osm": "Calle Odreros"
      },
      "geometry": {
        "type": "Point",
        "coordinates": [
          -5.9903819,
          37.3904418
        ]
      }
    },
    {
      "type": "Feature",
      "properties": {
        "id_hdad": 58,
        "hermandad": "La Trinidad",
        "calle": "Calle Boteros",
        "osm": "Calle Boteros"
      },
      "geometry": {
        "type": "Point",
        "coordinates": [
          -5.99075,
          37.3908772
        ]
      }
    },
    {
      "type": "Feature",
      "properties": {
        "id_hdad": 58,
        "hermandad": "La Trinidad",
        "calle": "Plaza de San Ildefonso",
        "osm": "Plaza de San Ildefonso"
      },
      "geometry": {
        "type": "Point",
        "coordinates": [
          -5.988716,
          37.3905804
        ]
      }
    },
    {
      "type": "Feature",
      "properties": {
        "id_hdad": 58,
        "hermandad": "La Trinidad",
        "calle": "Calle Zamudio",
        "osm": "Calle Zamudio"
      },
      "geometry": {
        "type": "Point",
        "coordinates": [
          -5.9884604,
          37.3908097
        ]
      }
    },
    {
      "type": "Feature",
      "properties": {
        "id_hdad": 58,
        "hermandad": "La Trinidad",
        "calle": "Plaza de San Leandro",
        "osm": "Plaza de San Leandro"
      },
      "geometry": {
        "type": "Point",
        "coordinates": [
          -5.9882498,
          37.391105
        ]
      }
    },
    {
      "type": "Feature",
      "properties": {
        "id_hdad": 58,
        "hermandad": "La Trinidad",
        "calle": "Calle Francisco Carrión Mejías",
        "osm": "Calle Francisco Carrión Mejías"
      },
      "geometry": {
        "type": "Point",
        "coordinates": [
          -5.9880501,
          37.3920877
        ]
      }
    },
    {
      "type": "Feature",
      "properties": {
        "id_hdad": 58,
        "hermandad": "La Trinidad",
        "calle": "Calle Cristo de las Cinco Llagas",
        "osm": "Calle Cristo de las Cinco Llagas"
      },
      "geometry": {
        "type": "Point",
        "coordinates": [
          -5.9844901,
          37.3951817
        ]
      }
    },
    {
      "type": "Feature",
      "properties": {
        "id_hdad": 58,
        "hermandad": "La Trinidad",
        "calle": "Calle Sol",
        "osm": "Calle Sol"
      },
      "geometry": {
        "type": "Point",
        "coordinates": [
          -5.9841046,
          37.3960138
        ]
      }
    },
    {
      "type": "Feature",
      "properties": {
        "id_hdad": 58,
        "hermandad": "La Trinidad",
        "calle": "Calle Madre Isabel de la Trinidad",
        "osm": "Calle Madre Isabel de la Trinidad"
      },
      "geometry": {
        "type": "Point",
        "coordinates": [
          -5.9820199,
          37.3969081
        ]
      }
    }
  ]
}
