{"type": "FeatureCollection", "features": [{"type": "Feature", "properties": {"id_hdad": 1, "nombre": "La Borriquita", "dia": "domingo-de-ramos"}, "geometry": {"type": "LineString", "coordinates": [[-5.993132428703218, 37.39005314738425], [-5.993169, 37.390185], [-5.993243, 37.390261], [-5.993364, 37.390816], [-5.993467, 37.391235], [-5.9934667, 37.3916005], [-5.993693, 37.393394], [-5.993838, 37.393693], [-5.994298, 37.393596], [-5.994758, 37.39352], [-5.994764, 37.394303], [-5.995341, 37.394358], [-5.995349, 37.3943531], [-5.9956421, 37.3944101], [-5.9959065, 37.3944789], [-5.9959409, 37.3942843], [-5.995978500352905, 37.3940198419956], [-5.9959864, 37.3938914], [-5.9959496, 37.3937209], [-5.9959193, 37.3936073], [-5.9959583, 37.3934438], [-5.996046, 37.393115], [-5.9960975, 37.392915], [-5.9961387, 37.3927242], [-5.9958656, 37.392719], [-5.9955948, 37.3927173], [-5.9954756, 37.3927173], [-5.995376, 37.392725], [-5.994924, 37.392751], [-5.994861, 37.3922847], [-5.994797, 37.391803], [-5.9946698, 37.3913397], [-5.9945161, 37.3909308], [-5.994258, 37.389845], [-5.994175, 37.389143], [-5.994151, 37.388605], [-5.994169, 37.388187], [-5.994296, 37.388071], [-5.9943041, 37.3879286], [-5.9942267, 37.38731], [-5.9941493, 37.386713], [-5.9940679, 37.3860718], [-5.9940344, 37.3857616], [-5.993999, 37.385447], [-5.9934331, 37.3854932], [-5.9929686, 37.3855304], [-5.992619, 37.385552], [-5.9926646, 37.3858225], [-5.99271, 37.386038], [-5.992325, 37.386077], [-5.992343, 37.386298], [-5.992461, 37.386331], [-5.992523, 37.386502], [-5.99252, 37.386657], [-5.992542, 37.386755], [-5.992745, 37.386784], [-5.993037, 37.386751], [-5.993054, 37.386952], [-5.992697, 37.387288], [-5.992489, 37.387452], [-5.992594, 37.387654], [-5.992704, 37.387858], [-5.99277, 37.38804], [-5.99271, 37.388333], [-5.992748, 37.388584], [-5.992999, 37.388611], [-5.993264, 37.388615], [-5.993288, 37.389051], [-5.99338, 37.389346], [-5.993302, 37.389446], [-5.993273, 37.38953], [-5.993197, 37.389673], [-5.993105, 37.389698], [-5.993128, 37.389988], [-5.993132428703218, 37.39005314738425]]}}, {"type": "Feature", "properties": {"id_hdad": 1, "hermandad": "La Borriquita", "calle": "Plaza del Salvador"}, "geometry": {"type": "Point", "coordinates": [-5.993132428703218, 37.39005314738425]}}, {"type": "Feature", "properties": {"id_hdad": 1, "hermandad": "La Borriquita", "calle": "Calle Cuna"}, "geometry": {"type": "Point", "coordinates": [-5.9934667, 37.3916005]}}, {"type": "Feature", "properties": {"id_hdad": 1, "hermandad": "La Borriquita", "calle": "Calle Orfila"}, "geometry": {"type": "Point", "coordinates": [-5.993693, 37.393394]}}, {"type": "Feature", "properties": {"id_hdad": 1, "hermandad": "La Borriquita", "calle": "Calle Javier Lasso de la Vega"}, "geometry": {"type": "Point", "coordinates": [-5.994764, 37.394303]}}, {"type": "Feature", "properties": {"id_hdad": 1, "hermandad": "La Borriquita", "calle": "Calle Amor de Dios"}, "geometry": {"type": "Point", "coordinates": [-5.9956421, 37.3944101]}}, {"type": "Feature", "properties": {"id_hdad": 1, "hermandad": "La Borriquita", "calle": "Calle San Miguel"}, "geometry": {"type": "Point", "coordinates": [-5.9959864, 37.3938914]}}, {"type": "Feature", "properties": {"id_hdad": 1, "hermandad": "La Borriquita", "calle": "Calle Jesús del Gran Poder"}, "geometry": {"type": "Point", "coordinates": [-5.996046, 37.393115]}}, {"type": "Feature", "properties": {"id_hdad": 1, "hermandad": "La Borriquita", "calle": "Plaza del Duque de la Victoria"}, "geometry": {"type": "Point", "coordinates": [-5.9955948, 37.3927173]}}, {"type": "Feature", "properties": {"id_hdad": 1, "hermandad": "La Borriquita", "calle": "La Campana"}, "geometry": {"type": "Point", "coordinates": [-5.994924, 37.392751]}}, {"type": "Feature", "properties": {"id_hdad": 1, "hermandad": "La Borriquita", "calle": "Calle Sierpes"}, "geometry": {"type": "Point", "coordinates": [-5.994542, 37.390976]}}, {"type": "Feature", "properties": {"id_hdad": 1, "hermandad": "La Borriquita", "calle": "Plaza de San Francisco"}, "geometry": {"type": "Point", "coordinates": [-5.994296, 37.388071]}}, {"type": "Feature", "properties": {"id_hdad": 1, "hermandad": "La Borriquita", "calle": "Avenida de la Constitución"}, "geometry": {"type": "Point", "coordinates": [-5.9940344, 37.3857616]}}, {"type": "Feature", "properties": {"id_hdad": 1, "hermandad": "La Borriquita", "calle": "Calle Cardenal Carlos Amigo"}, "geometry": {"type": "Point", "coordinates": [-5.9926646, 37.3858225]}}, {"type": "Feature", "properties": {"id_hdad": 1, "hermandad": "La Borriquita", "calle": "Calle Alemanes"}, "geometry": {"type": "Point", "coordinates": [-5.992523, 37.386502]}}, {"type": "Feature", "properties": {"id_hdad": 1, "hermandad": "La Borriquita", "calle": "Calle Álvarez Quintero"}, "geometry": {"type": "Point", "coordinates": [-5.993054, 37.386952]}}, {"type": "Feature", "properties": {"id_hdad": 1, "hermandad": "La Borriquita", "calle": "Calle Argote de Molina"}, "geometry": {"type": "Point", "coordinates": [-5.992697, 37.387288]}}, {"type": "Feature", "properties": {"id_hdad": 1, "hermandad": "La Borriquita", "calle": "Calle Placentines"}, "geometry": {"type": "Point", "coordinates": [-5.992704, 37.387858]}}, {"type": "Feature", "properties": {"id_hdad": 1, "hermandad": "La Borriquita", "calle": "Calle Francos"}, "geometry": {"type": "Point", "coordinates": [-5.992748, 37.388584]}}, {"type": "Feature", "properties": {"id_hdad": 1, "hermandad": "La Borriquita", "calle": "Calle Chapineros"}, "geometry": {"type": "Point", "coordinates": [-5.99338, 37.389346]}}, {"type": "Feature", "properties": {"id_hdad": 1, "hermandad": "La Borriquita", "calle": "Calle Álvarez Quintero"}, "geometry": {"type": "Point", "coordinates": [-5.993197, 37.389673]}}, {"type": "Feature", "properties": {"id_hdad": 1, "hermandad": "La Borriquita", "calle": "Plaza del Salvador"}, "geometry": {"type": "Point", "coordinates": [-5.993132428703218, 37.39005314738425]}}]}