{"type": "FeatureCollection", "features": [{"type": "Feature", "properties": {"id_hdad": 5, "nombre": "La Paz", "dia": "domingo-de-ramos"}, "geometry": {"type": "LineString", "coordinates": [[-5.9934816, 37.3816116], [-5.9932445, 37.3823466], [-5.9942981, 37.3836496], [-5.994354, 37.3840404], [-5.9944638, 37.3844962], [-5.9945896, 37.3849635], [-5.9946287, 37.3851411], [-5.9946902, 37.3852055], [-5.9948215, 37.3852433], [-5.994849, 37.385252], [-5.994996, 37.385234], [-5.995366, 37.385136], [-5.995319, 37.385249], [-5.995336, 37.3853863], [-5.995359, 37.385525], [-5.995383, 37.385608], [-5.995439, 37.385668], [-5.9954959, 37.3857557], [-5.9956111, 37.3858432], [-5.9954957, 37.3857758], [-5.9961928, 37.3861699], [-5.9961951, 37.3861991], [-5.9961241, 37.3862199], [-5.9955776, 37.3877204], [-5.9954727, 37.3877391], [-5.995501, 37.3879628], [-5.9955332, 37.3882039], [-5.9948981, 37.3882476], [-5.994966, 37.3889104], [-5.9949637, 37.3890421], [-5.9949711, 37.3891511], [-5.9950228, 37.3895868], [-5.9950661, 37.3898297], [-5.9951205, 37.3900547], [-5.9953197, 37.3907871], [-5.9953894, 37.3910495], [-5.9953968, 37.3912662], [-5.9954116, 37.3914982], [-5.9954449, 37.391797], [-5.9954684, 37.3920069], [-5.9954721, 37.3920354], [-5.9954771, 37.3920835], [-5.994185, 37.386838], [-5.9942267, 37.38731], [-5.9943041, 37.3879286], [-5.994296, 37.388071], [-5.994169, 37.388187], [-5.994154, 37.38867], [-5.994175, 37.389143], [-5.994258, 37.389845], [-5.9947885, 37.3908748], [-5.9946698, 37.3913397], [-5.994797, 37.391803], [-5.994861, 37.3922847], [-5.994924, 37.392751], [-5.995376, 37.392725], [-5.992479, 37.3842205], [-5.992534, 37.383679], [-5.9928723, 37.383241], [-5.9932597, 37.3823431], [-5.9934816, 37.3816116], [-5.983607, 37.3736758], [-5.9830799, 37.3736224]]}}, {"type": "Feature", "properties": {"id_hdad": 5, "hermandad": "La Paz", "calle": "Calle San Salvador"}, "geometry": {"type": "Point", "coordinates": [-5.9828992, 37.3747243]}}, {"type": "Feature", "properties": {"id_hdad": 5, "hermandad": "La Paz", "calle": "Calle Río de la Plata"}, "geometry": {"type": "Point", "coordinates": [-5.9830462, 37.3739611]}}, {"type": "Feature", "properties": {"id_hdad": 5, "hermandad": "La Paz", "calle": "Calle Porvenir"}, "geometry": {"type": "Point", "coordinates": [-5.9834486, 37.3729337]}}, {"type": "Feature", "properties": {"id_hdad": 5, "hermandad": "La Paz", "calle": "Calle Progreso"}, "geometry": {"type": "Point", "coordinates": [-5.9844404, 37.3734989]}}, {"type": "Feature", "properties": {"id_hdad": 5, "hermandad": "La Paz", "calle": "Calle Brasil"}, "geometry": {"type": "Point", "coordinates": [-5.9835757, 37.3736588]}}, {"type": "Feature", "properties": {"id_hdad": 5, "hermandad": "La Paz", "calle": "Avenida de Covadonga"}, "geometry": {"type": "Point", "coordinates": [-5.9861333, 37.3741971]}}, {"type": "Feature", "properties": {"id_hdad": 5, "hermandad": "La Paz", "calle": "Avenida de Isabel la Católica"}, "geometry": {"type": "Point", "coordinates": [-5.9888909, 37.3784208]}}, {"type": "Feature", "properties": {"id_hdad": 5, "hermandad": "La Paz", "calle": "Calle Palos de la Frontera"}, "geometry": {"type": "Point", "coordinates": [-5.9926398, 37.3803897]}}, {"type": "Feature", "properties": {"id_hdad": 5, "hermandad": "La Paz", "calle": "Avenida de Roma"}, "geometry": {"type": "Point", "coordinates": [-5.9934816, 37.3816116]}}, {"type": "Feature", "properties": {"id_hdad": 5, "hermandad": "La Paz", "calle": "Plaza Puerta de Jerez"}, "geometry": {"type": "Point", "coordinates": [-5.9932445, 37.3823466]}}, {"type": "Feature", "properties": {"id_hdad": 5, "hermandad": "La Paz", "calle": "Avenida de la Constitución"}, "geometry": {"type": "Point", "coordinates": [-5.993515, 37.384889]}}, {"type": "Feature", "properties": {"id_hdad": 5, "hermandad": "La Paz", "calle": "Calle Santo Tomás"}, "geometry": {"type": "Point", "coordinates": [-5.9930211, 37.38433]}}, {"type": "Feature", "properties": {"id_hdad": 5, "hermandad": "La Paz", "calle": "Plaza Ministro Indalecio Prieto"}, "geometry": {"type": "Point", "coordinates": [-5.9942981, 37.3836496]}}, {"type": "Feature", "properties": {"id_hdad": 5, "hermandad": "La Paz", "calle": "Calle Tomás de Ibarra"}, "geometry": {"type": "Point", "coordinates": [-5.9945896, 37.3849635]}}, {"type": "Feature", "properties": {"id_hdad": 5, "hermandad": "La Paz", "calle": "Calle Almirantazgo"}, "geometry": {"type": "Point", "coordinates": [-5.9948215, 37.3852433]}}, {"type": "Feature", "properties": {"id_hdad": 5, "hermandad": "La Paz", "calle": "Calle Arco del Postigo"}, "geometry": {"type": "Point", "coordinates": [-5.995319, 37.385249]}}, {"type": "Feature", "properties": {"id_hdad": 5, "hermandad": "La Paz", "calle": "Calle Dos de Mayo"}, "geometry": {"type": "Point", "coordinates": [-5.995383, 37.385608]}}, {"type": "Feature", "properties": {"id_hdad": 5, "hermandad": "La Paz", "calle": "Calle Arfe"}, "geometry": {"type": "Point", "coordinates": [-5.995601, 37.385837]}}, {"type": "Feature", "properties": {"id_hdad": 5, "hermandad": "La Paz", "calle": "Calle Puerta del Arenal"}, "geometry": {"type": "Point", "coordinates": [-5.9961241, 37.3862199]}}, {"type": "Feature", "properties": {"id_hdad": 5, "hermandad": "La Paz", "calle": "Calle Joaquín Guichot"}, "geometry": {"type": "Point", "coordinates": [-5.9955776, 37.3877204]}}, {"type": "Feature", "properties": {"id_hdad": 5, "hermandad": "La Paz", "calle": "Calle Barcelona"}, "geometry": {"type": "Point", "coordinates": [-5.9948981, 37.3882476]}}, {"type": "Feature", "properties": {"id_hdad": 5, "hermandad": "La Paz", "calle": "Plaza Nueva"}, "geometry": {"type": "Point", "coordinates": [-5.9949711, 37.3891511]}}, {"type": "Feature", "properties": {"id_hdad": 5, "hermandad": "La Paz", "calle": "Calle Tetuán"}, "geometry": {"type": "Point", "coordinates": [-5.9953197, 37.3907871]}}, {"type": "Feature", "properties": {"id_hdad": 5, "hermandad": "La Paz", "calle": "Calle Velázquez"}, "geometry": {"type": "Point", "coordinates": [-5.9954116, 37.3914982]}}, {"type": "Feature", "properties": {"id_hdad": 5, "hermandad": "La Paz", "calle": "Calle O'Donnell"}, "geometry": {"type": "Point", "coordinates": [-5.9954771, 37.3920835]}}, {"type": "Feature", "properties": {"id_hdad": 5, "hermandad": "La Paz", "calle": "Avenida de la Constitución"}, "geometry": {"type": "Point", "coordinates": [-5.994185, 37.386838]}}, {"type": "Feature", "properties": {"id_hdad": 5, "hermandad": "La Paz", "calle": "Plaza de San Francisco"}, "geometry": {"type": "Point", "coordinates": [-5.994169, 37.388187]}}, {"type": "Feature", "properties": {"id_hdad": 5, "hermandad": "La Paz", "calle": "Calle Sierpes"}, "geometry": {"type": "Point", "coordinates": [-5.9946698, 37.3913397]}}, {"type": "Feature", "properties": {"id_hdad": 5, "hermandad": "La Paz", "calle": "La Campana"}, "geometry": {"type": "Point", "coordinates": [-5.995376, 37.392725]}}, {"type": "Feature", "properties": {"id_hdad": 5, "hermandad": "La Paz", "calle": "Calle Joaquín Romero Murube"}, "geometry": {"type": "Point", "coordinates": [-5.9915151, 37.3852751]}}, {"type": "Feature", "properties": {"id_hdad": 5, "hermandad": "La Paz", "calle": "Calle Miguel Mañara"}, "geometry": {"type": "Point", "coordinates": [-5.992479, 37.3842205]}}, {"type": "Feature", "properties": {"id_hdad": 5, "hermandad": "La Paz", "calle": "Plaza de La Contratación"}, "geometry": {"type": "Point", "coordinates": [-5.992534, 37.383679]}}, {"type": "Feature", "properties": {"id_hdad": 5, "hermandad": "La Paz", "calle": "Calle San Gregorio"}, "geometry": {"type": "Point", "coordinates": [-5.9928723, 37.383241]}}, {"type": "Feature", "properties": {"id_hdad": 5, "hermandad": "La Paz", "calle": "Plaza Puerta de Jerez"}, "geometry": {"type": "Point", "coordinates": [-5.9932445, 37.3823466]}}, {"type": "Feature", "properties": {"id_hdad": 5, "hermandad": "La Paz", "calle": "Avenida de Roma"}, "geometry": {"type": "Point", "coordinates": [-5.9934816, 37.3816116]}}, {"type": "Feature", "properties": {"id_hdad": 5, "hermandad": "La Paz", "calle": "Calle Palos de la Frontera"}, "geometry": {"type": "Point", "coordinates": [-5.9926398, 37.3803897]}}, {"type": "Feature", "properties": {"id_hdad": 5, "hermandad": "La Paz", "calle": "Avenida de Isabel la Católica"}, "geometry": {"type": "Point", "coordinates": [-5.9888909, 37.3784208]}}, {"type": "Feature", "properties": {"id_hdad": 5, "hermandad": "La Paz", "calle": "Avenida de Covadonga"}, "geometry": {"type": "Point", "coordinates": [-5.9861333, 37.3741971]}}, {"type": "Feature", "properties": {"id_hdad": 5, "hermandad": "La Paz", "calle": "Calle Brasil"}, "geometry": {"type": "Point", "coordinates": [-5.983607, 37.3736758]}}, {"type": "Feature", "properties": {"id_hdad": 5, "hermandad": "La Paz", "calle": "Calle Río de la Plata"}, "geometry": {"type": "Point", "coordinates": [-5.9830799, 37.3736224]}}]}