{"type":"FeatureCollection","features":[{"type":"Feature","properties":{"id_hdad":10,"nombre":"San Pablo","dia":"lunes-santo"},"geometry":{"type":"LineString","coordinates":[[-5.98221,37.388102],[-5.983147,37.388664],[-5.984131,37.389047],[-5.984472,37.389187],[-5.9846,37.389231],[-5.985444,37.389615],[-5.9858628,37.3897627],[-5.9865122,37.3897508],[-5.987031,37.389815],[-5.987752,37.389879],[-5.9883845,37.389905],[-5.9889966,37.3898398],[-5.9895042,37.389911],[-5.989974,37.390022],[-5.9902506,37.3900829],[-5.9904676,37.3902018],[-5.9908586,37.3897675],[-5.9912822,37.389819],[-5.991877737588801,37.389764333519445],[-5.99276171628195,37.38971492214055],[-5.9931891,37.389663],[-5.9932761,37.3895074],[-5.9933414,37.3893777],[-5.9934067,37.3893691],[-5.9937875,37.3893604],[-5.9941085,37.3891184],[-5.9949627,37.3890535],[-5.995049,37.3897388],[-5.9951669,37.3902317],[-5.9953197,37.3907871],[-5.995383,37.391055],[-5.9954178,37.3914794],[-5.9954615,37.3920765],[-5.995386,37.3924668],[-5.9954141,37.3927175],[-5.994924,37.392751],[-5.994797,37.391803],[-5.994542,37.390976],[-5.994258,37.389845],[-5.994175,37.389143],[-5.994151,37.388605],[-5.9950228,37.3895868],[-5.995125,37.3900509],[-5.9953197,37.3907871],[-5.995383,37.391055],[-5.9954178,37.3914794],[-5.9954615,37.3920765],[-5.995386,37.3924668],[-5.995414,37.392722],[-5.994924,37.392751],[-5.994861,37.3922847],[-5.994797,37.391803],[-5.9946698,37.3913397],[-5.9945265,37.3909721],[-5.9942789,37.389891],[-5.994175,37.389143],[-5.994151,37.388605],[-5.994169,37.388187],[-5.994296,37.388071],[-5.9943041,37.3879286],[-5.9942267,37.38731],[-5.9941493,37.386713],[-5.9940679,37.3860718],[-5.9940344,37.3857616],[-5.993999,37.385447],[-5.9934331,37.3854932],[-5.9929686,37.3855304],[-5.992619,37.385552],[-5.9926646,37.3858225],[-5.99271,37.386038],[-5.992325,37.386077],[-5.992365,37.386288],[-5.9924408,37.3863144],[-5.9924973,37.3863647],[-5.992537,37.386555],[-5.992515,37.38666],[-5.992549,37.386763],[-5.992807,37.386777],[-5.993037,37.386751],[-5.993054,37.386917],[-5.9930245,37.3870101],[-5.9929267,37.3871073],[-5.992697,37.387288],[-5.992489,37.387452],[-5.992594,37.387654],[-5.992704,37.387858],[-5.99277,37.38804],[-5.992784,37.388285],[-5.992744,37.388583],[-5.992621,37.388828],[-5.992568,37.389176],[-5.992542,37.389426],[-5.992353,37.389737],[-5.991765,37.389785],[-5.991357,37.389798],[-5.991092,37.38979],[-5.990856,37.389772],[-5.990668,37.389983],[-5.990468,37.390211],[-5.990236,37.39008],[-5.989978,37.390008],[-5.9904873,37.3901982],[-5.9904991,37.3903042],[-5.9903819,37.3904418],[-5.9902529,37.3906875],[-5.9904478,37.3907416],[-5.9903251,37.390862],[-5.990158,37.3910193],[-5.989031,37.392704],[-5.9886598,37.3928715],[-5.988267,37.392909],[-5.983959,37.3943945],[-5.9839002,37.3945979],[-5.9839521,37.3948344],[-5.9839105,37.3948399],[-5.9838552,37.3946749],[-5.9836419,37.3946234],[-5.9834261,37.3945485]]}},{"type":"Feature","properties":{"id_hdad":10,"hermandad":"San Pablo","calle":"Avenida de Pedro Romero"},"geometry":{"type":"Point","coordinates":[-5.958713,37.3991125]}},{"type":"Feature","properties":{"id_hdad":10,"hermandad":"San Pablo","calle":"Calle Luis Montoto"},"geometry":{"type":"Point","coordinates":[-5.98221,37.388102]}},{"type":"Feature","properties":{"id_hdad":10,"hermandad":"San Pablo","calle":"Calle Puerta de Carmona"},"geometry":{"type":"Point","coordinates":[-5.984472,37.389187]}},{"type":"Feature","properties":{"id_hdad":10,"hermandad":"San Pablo","calle":"Calle San Esteban"},"geometry":{"type":"Point","coordinates":[-5.985444,37.389615]}},{"type":"Feature","properties":{"id_hdad":10,"hermandad":"San Pablo","calle":"Plaza de Pilatos"},"geometry":{"type":"Point","coordinates":[-5.987031,37.389815]}},{"type":"Feature","properties":{"id_hdad":10,"hermandad":"San Pablo","calle":"Calle Águilas"},"geometry":{"type":"Point","coordinates":[-5.9883845,37.389905]}},{"type":"Feature","properties":{"id_hdad":10,"hermandad":"San Pablo","calle":"Plaza de La Alfalfa"},"geometry":{"type":"Point","coordinates":[-5.989974,37.390022]}},{"type":"Feature","properties":{"id_hdad":10,"hermandad":"San Pablo","calle":"Calle Jesús de las Tres Caídas"},"geometry":{"type":"Point","coordinates":[-5.9904676,37.3902018]}},{"type":"Feature","properties":{"id_hdad":10,"hermandad":"San Pablo","calle":"Cuesta del Rosario"},"geometry":{"type":"Point","coordinates":[-5.991877737588801,37.389764333519445]}},{"type":"Feature","properties":{"id_hdad":10,"hermandad":"San Pablo","calle":"Calle Villegas"},"geometry":{"type":"Point","coordinates":[-5.9933414,37.3893777]}},{"type":"Feature","properties":{"id_hdad":10,"hermandad":"San Pablo","calle":"Calle Álvarez Quintero"},"geometry":{"type":"Point","coordinates":[-5.9941085,37.3891184]}},{"type":"Feature","properties":{"id_hdad":10,"hermandad":"San Pablo","calle":"Calle Entrecárceles"},"geometry":{"type":"Point","coordinates":[-5.9953197,37.3907871]}},{"type":"Feature","properties":{"id_hdad":10,"hermandad":"San Pablo","calle":"Calle Francisco Bruna"},"geometry":{"type":"Point","coordinates":[-5.995386,37.3924668]}},{"type":"Feature","properties":{"id_hdad":10,"hermandad":"San Pablo","calle":"Plaza de San Francisco"},"geometry":{"type":"Point","coordinates":[-5.994797,37.391803]}},{"type":"Feature","properties":{"id_hdad":10,"hermandad":"San Pablo","calle":"Calle Granada"},"geometry":{"type":"Point","coordinates":[-5.994151,37.388605]}},{"type":"Feature","properties":{"id_hdad":10,"hermandad":"San Pablo","calle":"Plaza Nueva"},"geometry":{"type":"Point","coordinates":[-5.9949315,37.3886551]}},{"type":"Feature","properties":{"id_hdad":10,"hermandad":"San Pablo","calle":"Calle Tetuán"},"geometry":{"type":"Point","coordinates":[-5.995125,37.3900509]}},{"type":"Feature","properties":{"id_hdad":10,"hermandad":"San Pablo","calle":"Calle Velázquez"},"geometry":{"type":"Point","coordinates":[-5.995383,37.391055]}},{"type":"Feature","properties":{"id_hdad":10,"hermandad":"San Pablo","calle":"Calle O'Donnell"},"geometry":{"type":"Point","coordinates":[-5.9954615,37.3920765]}},{"type":"Feature","properties":{"id_hdad":10,"hermandad":"San Pablo","calle":"Avenida de la Constitución"},"geometry":{"type":"Point","coordinates":[-5.994185,37.386838]}},{"type":"Feature","properties":{"id_hdad":10,"hermandad":"San Pablo","calle":"Plaza de San Francisco"},"geometry":{"type":"Point","coordinates":[-5.994169,37.388187]}},{"type":"Feature","properties":{"id_hdad":10,"hermandad":"San Pablo","calle":"Calle Sierpes"},"geometry":{"type":"Point","coordinates":[-5.9946698,37.3913397]}},{"type":"Feature","properties":{"id_hdad":10,"hermandad":"San Pablo","calle":"La Campana"},"geometry":{"type":"Point","coordinates":[-5.995376,37.392725]}},{"type":"Feature","properties":{"id_hdad":10,"hermandad":"San Pablo","calle":"Calle Cardenal Carlos Amigo"},"geometry":{"type":"Point","coordinates":[-5.992537,37.386555]}},{"type":"Feature","properties":{"id_hdad":10,"hermandad":"San Pablo","calle":"Calle Alemanes"},"geometry":{"type":"Point","coordinates":[-5.992807,37.386777]}},{"type":"Feature","properties":{"id_hdad":10,"hermandad":"San Pablo","calle":"Calle Álvarez Quintero"},"geometry":{"type":"Point","coordinates":[-5.9929267,37.3871073]}},{"type":"Feature","properties":{"id_hdad":10,"hermandad":"San Pablo","calle":"Calle Argote de Molina"},"geometry":{"type":"Point","coordinates":[-5.992594,37.387654]}},{"type":"Feature","properties":{"id_hdad":10,"hermandad":"San Pablo","calle":"Calle Placentines"},"geometry":{"type":"Point","coordinates":[-5.992784,37.388285]}},{"type":"Feature","properties":{"id_hdad":10,"hermandad":"San Pablo","calle":"Calle Francos"},"geometry":{"type":"Point","coordinates":[-5.992568,37.389176]}},{"type":"Feature","properties":{"id_hdad":10,"hermandad":"San Pablo","calle":"Cuesta del Rosario"},"geometry":{"type":"Point","coordinates":[-5.991357,37.389798]}},{"type":"Feature","properties":{"id_hdad":10,"hermandad":"San Pablo","calle":"Calle Jesús de las Tres Caídas"},"geometry":{"type":"Point","coordinates":[-5.990668,37.389983]}},{"type":"Feature","properties":{"id_hdad":10,"hermandad":"San Pablo","calle":"Plaza de La Alfalfa"},"geometry":{"type":"Point","coordinates":[-5.9902401,37.390061]}},{"type":"Feature","properties":{"id_hdad":10,"hermandad":"San Pablo","calle":"Calle Odreros"},"geometry":{"type":"Point","coordinates":[-5.9904991,37.3903042]}},{"type":"Feature","properties":{"id_hdad":10,"hermandad":"San Pablo","calle":"Calle Boteros"},"geometry":{"type":"Point","coordinates":[-5.9904478,37.3907416]}},{"type":"Feature","properties":{"id_hdad":10,"hermandad":"San Pablo","calle":"Plaza de San Pedro"},"geometry":{"type":"Point","coordinates":[-5.989692,37.392505]}},{"type":"Feature","properties":{"id_hdad":10,"hermandad":"San Pablo","calle":"Calle Almirante Apodaca"},"geometry":{"type":"Point","coordinates":[-5.9886598,37.3928715]}},{"type":"Feature","properties":{"id_hdad":10,"hermandad":"San Pablo","calle":"Calle Juan de Mesa"},"geometry":{"type":"Point","coordinates":[-5.988267,37.392909]}},{"type":"Feature","properties":{"id_hdad":10,"hermandad":"San Pablo","calle":"Plaza Ponce de León"},"geometry":{"type":"Point","coordinates":[-5.9874545,37.393084]}},{"type":"Feature","properties":{"id_hdad":10,"hermandad":"San Pablo","calle":"Plaza Padre Jerónimo de Córdoba"},"geometry":{"type":"Point","coordinates":[-5.9866462,37.3931373]}},{"type":"Feature","properties":{"id_hdad":10,"hermandad":"San Pablo","calle":"Calle Puñonrostro"},"geometry":{"type":"Point","coordinates":[-5.9844187,37.393179]}},{"type":"Feature","properties":{"id_hdad":10,"hermandad":"San Pablo","calle":"Calle Valle"},"geometry":{"type":"Point","coordinates":[-5.9841078,37.3942461]}},{"type":"Feature","properties":{"id_hdad":10,"hermandad":"San Pablo","calle":"Calle Mateos"},"geometry":{"type":"Point","coordinates":[-5.9839105,37.3948399]}},{"type":"Feature","properties":{"id_hdad":10,"hermandad":"San Pablo","calle":"Calle María Auxiliadora"},"geometry":{"type":"Point","coordinates":[-5.9834261,37.3945485]}},{"type":"Feature","properties":{"id_hdad":10,"hermandad":"San Pablo","calle":"Avenida de Pedro Romero"},"geometry":{"type":"Point","coordinates":[-5.958713,37.3991125]}}]}