{"type": "FeatureCollection", "features": [{"type": "Feature", "properties": {"id_hdad": 19, "nombre": "El Cerro", "dia": "martes-santo"}, "geometry": {"type": "LineString", "coordinates": [[-5.9624264, 37.3736953], [-5.962915, 37.3731998], [-5.9634059, 37.3727209], [-5.9637423, 37.3729388], [-5.9641028, 37.3731717], [-5.9646, 37.3733], [-5.9916357, 37.3819448], [-5.9932053, 37.3823679], [-5.995601, 37.385837], [-5.9954957, 37.3857758], [-5.9961928, 37.3861699], [-5.9961951, 37.3861991], [-5.9961241, 37.3862199], [-5.9954374, 37.3863949], [-5.9945754, 37.3865565], [-5.9940063, 37.3866857], [-5.9949315, 37.3886551], [-5.9950228, 37.3895868], [-5.995125, 37.3900509], [-5.9953197, 37.3907871], [-5.995383, 37.391055], [-5.9954178, 37.3914794], [-5.9954615, 37.3920765], [-5.994185, 37.386838], [-5.9942267, 37.38731], [-5.9943041, 37.3879286], [-5.994296, 37.388071], [-5.994169, 37.388187], [-5.994154, 37.38867], [-5.994175, 37.389143], [-5.994258, 37.389845], [-5.9947885, 37.3908748], [-5.9946698, 37.3913397], [-5.994797, 37.391803], [-5.994861, 37.3922847], [-5.994924, 37.392751], [-5.995376, 37.392725], [-5.9927937, 37.3883437], [-5.992748, 37.388584], [-5.992999, 37.388611], [-5.993264, 37.388615], [-5.993288, 37.389051], [-5.99338, 37.389346], [-5.993302, 37.389446], [-5.993273, 37.38953], [-5.992781, 37.389701], [-5.991765, 37.389785], [-5.991357, 37.389798], [-5.991092, 37.38979], [-5.990856, 37.389772], [-5.990668, 37.389983], [-5.990468, 37.390211], [-5.990236, 37.39008], [-5.989978, 37.390008], [-5.9901589083914715, 37.38984005540638], [-5.9848343, 37.3851073], [-5.984015, 37.384749], [-5.983579, 37.3846542], [-5.9827536, 37.3845003], [-5.9827047, 37.3844677], [-5.9827262, 37.3844164], [-5.9829139, 37.3843807], [-5.9831193, 37.3844055], [-5.9833056, 37.3835695], [-5.9575864, 37.3718972]]}}, {"type": "Feature", "properties": {"id_hdad": 19, "hermandad": "El Cerro", "calle": "Calle Nuestra Señora de los Dolores"}, "geometry": {"type": "Point", "coordinates": [-5.9575864, 37.3718972]}}, {"type": "Feature", "properties": {"id_hdad": 19, "hermandad": "El Cerro", "calle": "Calle Afán de Ribera"}, "geometry": {"type": "Point", "coordinates": [-5.9586571, 37.3727856]}}, {"type": "Feature", "properties": {"id_hdad": 19, "hermandad": "El Cerro", "calle": "Calle Aragón"}, "geometry": {"type": "Point", "coordinates": [-5.9624264, 37.3736953]}}, {"type": "Feature", "properties": {"id_hdad": 19, "hermandad": "El Cerro", "calle": "Avenida de Hytasa"}, "geometry": {"type": "Point", "coordinates": [-5.9634059, 37.3727209]}}, {"type": "Feature", "properties": {"id_hdad": 19, "hermandad": "El Cerro", "calle": "Glorieta Bizco Amate"}, "geometry": {"type": "Point", "coordinates": [-5.9646, 37.3733]}}, {"type": "Feature", "properties": {"id_hdad": 19, "hermandad": "El Cerro", "calle": "Calle Enramadilla"}, "geometry": {"type": "Point", "coordinates": [-5.9813265, 37.3791377]}}, {"type": "Feature", "properties": {"id_hdad": 19, "hermandad": "El Cerro", "calle": "Avenida de Carlos V"}, "geometry": {"type": "Point", "coordinates": [-5.9842341, 37.3799597]}}, {"type": "Feature", "properties": {"id_hdad": 19, "hermandad": "El Cerro", "calle": "Plaza de Don Juan de Austria"}, "geometry": {"type": "Point", "coordinates": [-5.9884405, 37.3812823]}}, {"type": "Feature", "properties": {"id_hdad": 19, "hermandad": "El Cerro", "calle": "Calle San Fernando"}, "geometry": {"type": "Point", "coordinates": [-5.9916357, 37.3819448]}}, {"type": "Feature", "properties": {"id_hdad": 19, "hermandad": "El Cerro", "calle": "Plaza Puerta de Jerez"}, "geometry": {"type": "Point", "coordinates": [-5.9932053, 37.3823679]}}, {"type": "Feature", "properties": {"id_hdad": 19, "hermandad": "El Cerro", "calle": "Avenida de la Constitución"}, "geometry": {"type": "Point", "coordinates": [-5.993515, 37.384889]}}, {"type": "Feature", "properties": {"id_hdad": 19, "hermandad": "El Cerro", "calle": "Calle Almirantazgo"}, "geometry": {"type": "Point", "coordinates": [-5.9947573, 37.3852277]}}, {"type": "Feature", "properties": {"id_hdad": 19, "hermandad": "El Cerro", "calle": "Calle Arfe"}, "geometry": {"type": "Point", "coordinates": [-5.995601, 37.385837]}}, {"type": "Feature", "properties": {"id_hdad": 19, "hermandad": "El Cerro", "calle": "Calle Puerta del Arenal"}, "geometry": {"type": "Point", "coordinates": [-5.9960274, 37.3862463]}}, {"type": "Feature", "properties": {"id_hdad": 19, "hermandad": "El Cerro", "calle": "Calle García de Vinuesa"}, "geometry": {"type": "Point", "coordinates": [-5.9940063, 37.3866857]}}, {"type": "Feature", "properties": {"id_hdad": 19, "hermandad": "El Cerro", "calle": "Plaza Nueva"}, "geometry": {"type": "Point", "coordinates": [-5.9949315, 37.3886551]}}, {"type": "Feature", "properties": {"id_hdad": 19, "hermandad": "El Cerro", "calle": "Calle Tetuán"}, "geometry": {"type": "Point", "coordinates": [-5.995125, 37.3900509]}}, {"type": "Feature", "properties": {"id_hdad": 19, "hermandad": "El Cerro", "calle": "Calle Velázquez"}, "geometry": {"type": "Point", "coordinates": [-5.995383, 37.391055]}}, {"type": "Feature", "properties": {"id_hdad": 19, "hermandad": "El Cerro", "calle": "Calle O'Donnell"}, "geometry": {"type": "Point", "coordinates": [-5.9954615, 37.3920765]}}, {"type": "Feature", "properties": {"id_hdad": 19, "hermandad": "El Cerro", "calle": "Avenida de la Constitución"}, "geometry": {"type": "Point", "coordinates": [-5.994185, 37.386838]}}, {"type": "Feature", "properties": {"id_hdad": 19, "hermandad": "El Cerro", "calle": "Plaza de San Francisco"}, "geometry": {"type": "Point", "coordinates": [-5.994169, 37.388187]}}, {"type": "Feature", "properties": {"id_hdad": 19, "hermandad": "El Cerro", "calle": "Calle Sierpes"}, "geometry": {"type": "Point", "coordinates": [-5.9946698, 37.3913397]}}, {"type": "Feature", "properties": {"id_hdad": 19, "hermandad": "El Cerro", "calle": "La Campana"}, "geometry": {"type": "Point", "coordinates": [-5.995376, 37.392725]}}, {"type": "Feature", "properties": {"id_hdad": 19, "hermandad": "El Cerro", "calle": "Calle Alemanes"}, "geometry": {"type": "Point", "coordinates": [-5.992807, 37.386777]}}, {"type": "Feature", "properties": {"id_hdad": 19, "hermandad": "El Cerro", "calle": "Calle Francos"}, "geometry": {"type": "Point", "coordinates": [-5.9927937, 37.3883437]}}, {"type": "Feature", "properties": {"id_hdad": 19, "hermandad": "El Cerro", "calle": "Calle Chapineros"}, "geometry": {"type": "Point", "coordinates": [-5.993264, 37.388615]}}, {"type": "Feature", "properties": {"id_hdad": 19, "hermandad": "El Cerro", "calle": "Calle Álvarez Quintero"}, "geometry": {"type": "Point", "coordinates": [-5.99338, 37.389346]}}, {"type": "Feature", "properties": {"id_hdad": 19, "hermandad": "El Cerro", "calle": "Calle Villegas"}, "geometry": {"type": "Point", "coordinates": [-5.992781, 37.389701]}}, {"type": "Feature", "properties": {"id_hdad": 19, "hermandad": "El Cerro", "calle": "Cuesta del Rosario"}, "geometry": {"type": "Point", "coordinates": [-5.991357, 37.389798]}}, {"type": "Feature", "properties": {"id_hdad": 19, "hermandad": "El Cerro", "calle": "Calle Jesús de las Tres Caídas"}, "geometry": {"type": "Point", "coordinates": [-5.990668, 37.389983]}}, {"type": "Feature", "properties": {"id_hdad": 19, "hermandad": "El Cerro", "calle": "Plaza de La Alfalfa"}, "geometry": {"type": "Point", "coordinates": [-5.9903449, 37.390137]}}, {"type": "Feature", "properties": {"id_hdad": 19, "hermandad": "El Cerro", "calle": "Calle Candilejo"}, "geometry": {"type": "Point", "coordinates": [-5.9901589083914715, 37.38984005540638]}}, {"type": "Feature", "properties": {"id_hdad": 19, "hermandad": "El Cerro", "calle": "Calle San José"}, "geometry": {"type": "Point", "coordinates": [-5.9889261, 37.3880054]}}, {"type": "Feature", "properties": {"id_hdad": 19, "hermandad": "El Cerro", "calle": "Calle Santa María la Blanca"}, "geometry": {"type": "Point", "coordinates": [-5.9873414, 37.3863291]}}, {"type": "Feature", "properties": {"id_hdad": 19, "hermandad": "El Cerro", "calle": "Calle Demetrio de los Ríos"}, "geometry": {"type": "Point", "coordinates": [-5.9848343, 37.3851073]}}, {"type": "Feature", "properties": {"id_hdad": 19, "hermandad": "El Cerro", "calle": "Avenida de Eduardo Dato"}, "geometry": {"type": "Point", "coordinates": [-5.9827047, 37.3844677]}}, {"type": "Feature", "properties": {"id_hdad": 19, "hermandad": "El Cerro", "calle": "Calle San Bernardo"}, "geometry": {"type": "Point", "coordinates": [-5.9833056, 37.3835695]}}, {"type": "Feature", "properties": {"id_hdad": 19, "hermandad": "El Cerro", "calle": "Avenida de Hytasa"}, "geometry": {"type": "Point", "coordinates": [-5.9637423, 37.3729388]}}, {"type": "Feature", "properties": {"id_hdad": 19, "hermandad": "El Cerro", "calle": "Calle Aníbal González"}, "geometry": {"type": "Point", "coordinates": [-5.9618347, 37.3734801]}}, {"type": "Feature", "properties": {"id_hdad": 19, "hermandad": "El Cerro", "calle": "Calle Afán de Ribera"}, "geometry": {"type": "Point", "coordinates": [-5.9586571, 37.3727856]}}, {"type": "Feature", "properties": {"id_hdad": 19, "hermandad": "El Cerro", "calle": "Calle Nuestra Señora de los Dolores"}, "geometry": {"type": "Point", "coordinates": [-5.9575864, 37.3718972]}}]}