{"type": "FeatureCollection", "features": [{"type": "Feature", "properties": {"id_hdad": 23, "nombre": "Dulce Nombre", "dia": "martes-santo"}, "geometry": {"type": "LineString", "coordinates": [[-5.9966561, 37.3970955], [-5.9969224, 37.3965357], [-5.9966468, 37.3948202], [-5.9967692, 37.3946353], [-5.9968246, 37.3943777], [-5.9966511, 37.3943577], [-5.9963843, 37.3942981], [-5.9959477, 37.3942225], [-5.995978500352905, 37.3940198419956], [-5.9959864, 37.3938914], [-5.9959496, 37.3937209], [-5.9959193, 37.3936073], [-5.9959583, 37.3934438], [-5.996046, 37.393115], [-5.992807, 37.386777], [-5.993037, 37.386751], [-5.993054, 37.386917], [-5.9930245, 37.3870101], [-5.9929267, 37.3871073], [-5.992697, 37.387288], [-5.992489, 37.387452], [-5.992594, 37.387654], [-5.992704, 37.387858], [-5.99277, 37.38804], [-5.99271, 37.388333], [-5.992748, 37.388584], [-5.992999, 37.388611], [-5.993264, 37.388615], [-5.993288, 37.389051], [-5.99338, 37.389346], [-5.993302, 37.389446], [-5.993273, 37.38953], [-5.993197, 37.389673], [-5.993105, 37.389698], [-5.993128, 37.389988], [-5.993132428703218, 37.39005314738425], [-5.993169, 37.390185], [-5.993243, 37.390261], [-5.993364, 37.390816], [-5.993467, 37.391235], [-5.9934667, 37.3916005], [-5.993693, 37.393394], [-5.993838, 37.393693], [-5.994298, 37.393596], [-5.994758, 37.39352], [-5.994764, 37.394303], [-5.994618, 37.396413], [-5.994787, 37.396096], [-5.9950848, 37.396397], [-5.9954025, 37.396552], [-5.9957071, 37.3952874], [-5.9958737, 37.3945978], [-5.9959437, 37.3943076], [-5.995978500352905, 37.3940198419956], [-5.9959329, 37.3943201], [-5.9958553, 37.3946811], [-5.9956999, 37.3953331], [-5.9955359, 37.3959774], [-5.9954494, 37.3963391], [-5.9954107, 37.3965215], [-5.9954166, 37.3965831], [-5.9953869, 37.3966778], [-5.9959452, 37.3968028]]}}, {"type": "Feature", "properties": {"id_hdad": 23, "hermandad": "Dulce Nombre", "calle": "Plaza de San Lorenzo"}, "geometry": {"type": "Point", "coordinates": [-5.9966561, 37.3970955]}}, {"type": "Feature", "properties": {"id_hdad": 23, "hermandad": "Dulce Nombre", "calle": "Calle Cardenal Spínola"}, "geometry": {"type": "Point", "coordinates": [-5.9969224, 37.3965357]}}, {"type": "Feature", "properties": {"id_hdad": 23, "hermandad": "Dulce Nombre", "calle": "Plaza de la Gavidia"}, "geometry": {"type": "Point", "coordinates": [-5.9966468, 37.3948202]}}, {"type": "Feature", "properties": {"id_hdad": 23, "hermandad": "Dulce Nombre", "calle": "Plaza de La Concordia"}, "geometry": {"type": "Point", "coordinates": [-5.9966511, 37.3943577]}}, {"type": "Feature", "properties": {"id_hdad": 23, "hermandad": "Dulce Nombre", "calle": "Calle Las Cortes"}, "geometry": {"type": "Point", "coordinates": [-5.995978500352905, 37.3940198419956]}}, {"type": "Feature", "properties": {"id_hdad": 23, "hermandad": "Dulce Nombre", "calle": "Calle Jesús del Gran Poder"}, "geometry": {"type": "Point", "coordinates": [-5.9959496, 37.3937209]}}, {"type": "Feature", "properties": {"id_hdad": 23, "hermandad": "Dulce Nombre", "calle": "Plaza del Duque de la Victoria"}, "geometry": {"type": "Point", "coordinates": [-5.996046, 37.393115]}}, {"type": "Feature", "properties": {"id_hdad": 23, "hermandad": "Dulce Nombre", "calle": "Calle Alemanes"}, "geometry": {"type": "Point", "coordinates": [-5.992807, 37.386777]}}, {"type": "Feature", "properties": {"id_hdad": 23, "hermandad": "Dulce Nombre", "calle": "Calle Álvarez Quintero"}, "geometry": {"type": "Point", "coordinates": [-5.9930245, 37.3870101]}}, {"type": "Feature", "properties": {"id_hdad": 23, "hermandad": "Dulce Nombre", "calle": "Calle Argote de Molina"}, "geometry": {"type": "Point", "coordinates": [-5.992489, 37.387452]}}, {"type": "Feature", "properties": {"id_hdad": 23, "hermandad": "Dulce Nombre", "calle": "Calle Placentines"}, "geometry": {"type": "Point", "coordinates": [-5.99277, 37.38804]}}, {"type": "Feature", "properties": {"id_hdad": 23, "hermandad": "Dulce Nombre", "calle": "Calle Francos"}, "geometry": {"type": "Point", "coordinates": [-5.992999, 37.388611]}}, {"type": "Feature", "properties": {"id_hdad": 23, "hermandad": "Dulce Nombre", "calle": "Calle Chapineros"}, "geometry": {"type": "Point", "coordinates": [-5.99338, 37.389346]}}, {"type": "Feature", "properties": {"id_hdad": 23, "hermandad": "Dulce Nombre", "calle": "Calle Álvarez Quintero"}, "geometry": {"type": "Point", "coordinates": [-5.993197, 37.389673]}}, {"type": "Feature", "properties": {"id_hdad": 23, "hermandad": "Dulce Nombre", "calle": "Plaza del Salvador"}, "geometry": {"type": "Point", "coordinates": [-5.993132428703218, 37.39005314738425]}}, {"type": "Feature", "properties": {"id_hdad": 23, "hermandad": "Dulce Nombre", "calle": "Calle Cuna"}, "geometry": {"type": "Point", "coordinates": [-5.9934667, 37.3916005]}}, {"type": "Feature", "properties": {"id_hdad": 23, "hermandad": "Dulce Nombre", "calle": "Calle Orfila"}, "geometry": {"type": "Point", "coordinates": [-5.993693, 37.393394]}}, {"type": "Feature", "properties": {"id_hdad": 23, "hermandad": "Dulce Nombre", "calle": "Calle Javier Lasso de la Vega"}, "geometry": {"type": "Point", "coordinates": [-5.994298, 37.393596]}}, {"type": "Feature", "properties": {"id_hdad": 23, "hermandad": "Dulce Nombre", "calle": "Calle Amor de Dios"}, "geometry": {"type": "Point", "coordinates": [-5.994764, 37.394303]}}, {"type": "Feature", "properties": {"id_hdad": 23, "hermandad": "Dulce Nombre", "calle": "Calle Trajano"}, "geometry": {"type": "Point", "coordinates": [-5.994618, 37.396413]}}, {"type": "Feature", "properties": {"id_hdad": 23, "hermandad": "Dulce Nombre", "calle": "Calle Santa Bárbara"}, "geometry": {"type": "Point", "coordinates": [-5.9957071, 37.3952874]}}, {"type": "Feature", "properties": {"id_hdad": 23, "hermandad": "Dulce Nombre", "calle": "Calle Jesús del Gran Poder"}, "geometry": {"type": "Point", "coordinates": [-5.995978500352905, 37.3940198419956]}}, {"type": "Feature", "properties": {"id_hdad": 23, "hermandad": "Dulce Nombre", "calle": "Calle Conde de Barajas"}, "geometry": {"type": "Point", "coordinates": [-5.9959452, 37.3968028]}}]}