{"type": "FeatureCollection", "features": [{"type": "Feature", "properties": {"id_hdad": 24, "nombre": "Los Javieres", "dia": "martes-santo"}, "geometry": {"type": "LineString", "coordinates": [[-5.995978500352905, 37.3940198419956], [-5.9959437, 37.3943076], [-5.9958737, 37.3945978], [-5.9957071, 37.3952874], [-5.9954025, 37.396552], [-5.9950848, 37.396397], [-5.994787, 37.396096], [-5.994618, 37.396413], [-5.995633, 37.393113], [-5.995631, 37.392901], [-5.9956336, 37.3927225], [-5.995376, 37.392725], [-5.994924, 37.392751], [-5.994861, 37.3922847], [-5.994797, 37.391803], [-5.9946698, 37.3913397], [-5.9947885, 37.3908748], [-5.994258, 37.389845], [-5.994175, 37.389143], [-5.994154, 37.38867], [-5.994169, 37.388187], [-5.994296, 37.388071], [-5.9943041, 37.3879286], [-5.9942267, 37.38731], [-5.994185, 37.386838], [-5.9923715, 37.3851829], [-5.9925691, 37.3851709], [-5.9928275, 37.3851491], [-5.993126, 37.38514], [-5.993709, 37.3851], [-5.9938801, 37.3851129], [-5.9939956, 37.3851733], [-5.994367, 37.385114], [-5.9945214, 37.3850791], [-5.9946016, 37.3850918], [-5.9947139, 37.3852071], [-5.9953972, 37.3856197], [-5.9955058, 37.3857639], [-5.9956256, 37.3858536], [-5.9958343, 37.3859713], [-5.9961928, 37.3861699], [-5.9961737, 37.3862092], [-5.9960848, 37.3862575], [-5.9961067, 37.3863118], [-5.9961784, 37.3863579], [-5.9965793, 37.3866923], [-5.9962965, 37.3869465], [-5.9961977, 37.3870583], [-5.9961075, 37.3871925], [-5.994955, 37.3890462], [-5.9963791, 37.3889491], [-5.9964821, 37.3895595], [-5.9966977, 37.3901662], [-5.9969506, 37.390732], [-5.9966966, 37.391451], [-5.9960522, 37.3917939], [-5.9955566, 37.3920403], [-5.995454, 37.392155], [-5.995386, 37.3924668], [-5.995414, 37.392722], [-5.9954756, 37.3927173], [-5.9955948, 37.3927173], [-5.9958656, 37.392719], [-5.9961387, 37.3927242], [-5.9960975, 37.392915], [-5.996046, 37.393115], [-5.9959583, 37.3934438], [-5.9959193, 37.3936073], [-5.9959496, 37.3937209], [-5.9959864, 37.3938914], [-5.995978500352905, 37.3940198419956]]}}, {"type": "Feature", "properties": {"id_hdad": 24, "hermandad": "Los Javieres", "calle": "Calle Jesús del Gran Poder"}, "geometry": {"type": "Point", "coordinates": [-5.995978500352905, 37.3940198419956]}}, {"type": "Feature", "properties": {"id_hdad": 24, "hermandad": "Los Javieres", "calle": "Calle Santa Bárbara"}, "geometry": {"type": "Point", "coordinates": [-5.9954025, 37.396552]}}, {"type": "Feature", "properties": {"id_hdad": 24, "hermandad": "Los Javieres", "calle": "Calle Trajano"}, "geometry": {"type": "Point", "coordinates": [-5.994618, 37.396413]}}, {"type": "Feature", "properties": {"id_hdad": 24, "hermandad": "Los Javieres", "calle": "Plaza del Duque de la Victoria"}, "geometry": {"type": "Point", "coordinates": [-5.995633, 37.393113]}}, {"type": "Feature", "properties": {"id_hdad": 24, "hermandad": "Los Javieres", "calle": "La Campana"}, "geometry": {"type": "Point", "coordinates": [-5.994924, 37.392751]}}, {"type": "Feature", "properties": {"id_hdad": 24, "hermandad": "Los Javieres", "calle": "Calle Sierpes"}, "geometry": {"type": "Point", "coordinates": [-5.9947885, 37.3908748]}}, {"type": "Feature", "properties": {"id_hdad": 24, "hermandad": "Los Javieres", "calle": "Plaza de San Francisco"}, "geometry": {"type": "Point", "coordinates": [-5.994169, 37.388187]}}, {"type": "Feature", "properties": {"id_hdad": 24, "hermandad": "Los Javieres", "calle": "Avenida de la Constitución"}, "geometry": {"type": "Point", "coordinates": [-5.994185, 37.386838]}}, {"type": "Feature", "properties": {"id_hdad": 24, "hermandad": "Los Javieres", "calle": "Plaza del Triunfo"}, "geometry": {"type": "Point", "coordinates": [-5.9923715, 37.3851829]}}, {"type": "Feature", "properties": {"id_hdad": 24, "hermandad": "Los Javieres", "calle": "Calle Fray Ceferino González"}, "geometry": {"type": "Point", "coordinates": [-5.9938801, 37.3851129]}}, {"type": "Feature", "properties": {"id_hdad": 24, "hermandad": "Los Javieres", "calle": "Calle Almirantazgo"}, "geometry": {"type": "Point", "coordinates": [-5.9947139, 37.3852071]}}, {"type": "Feature", "properties": {"id_hdad": 24, "hermandad": "Los Javieres", "calle": "Calle Arfe"}, "geometry": {"type": "Point", "coordinates": [-5.9953972, 37.3856197]}}, {"type": "Feature", "properties": {"id_hdad": 24, "hermandad": "Los Javieres", "calle": "Calle Puerta del Arenal"}, "geometry": {"type": "Point", "coordinates": [-5.9961928, 37.3861699]}}, {"type": "Feature", "properties": {"id_hdad": 24, "hermandad": "Los Javieres", "calle": "Calle Castelar"}, "geometry": {"type": "Point", "coordinates": [-5.9961784, 37.3863579]}}, {"type": "Feature", "properties": {"id_hdad": 24, "hermandad": "Los Javieres", "calle": "Calle Gamazo"}, "geometry": {"type": "Point", "coordinates": [-5.9961075, 37.3871925]}}, {"type": "Feature", "properties": {"id_hdad": 24, "hermandad": "Los Javieres", "calle": "Calle Zaragoza"}, "geometry": {"type": "Point", "coordinates": [-5.9980305, 37.3885674]}}, {"type": "Feature", "properties": {"id_hdad": 24, "hermandad": "Los Javieres", "calle": "Calle Badajoz"}, "geometry": {"type": "Point", "coordinates": [-5.9962998, 37.3880194]}}, {"type": "Feature", "properties": {"id_hdad": 24, "hermandad": "Los Javieres", "calle": "Plaza Nueva"}, "geometry": {"type": "Point", "coordinates": [-5.994955, 37.3890462]}}, {"type": "Feature", "properties": {"id_hdad": 24, "hermandad": "Los Javieres", "calle": "Calle Méndez Núñez"}, "geometry": {"type": "Point", "coordinates": [-5.9964821, 37.3895595]}}, {"type": "Feature", "properties": {"id_hdad": 24, "hermandad": "Los Javieres", "calle": "Plaza de la Magdalena"}, "geometry": {"type": "Point", "coordinates": [-5.9970127, 37.3912675]}}, {"type": "Feature", "properties": {"id_hdad": 24, "hermandad": "Los Javieres", "calle": "Calle O'Donnell"}, "geometry": {"type": "Point", "coordinates": [-5.9955566, 37.3920403]}}, {"type": "Feature", "properties": {"id_hdad": 24, "hermandad": "Los Javieres", "calle": "La Campana"}, "geometry": {"type": "Point", "coordinates": [-5.995376, 37.392725]}}, {"type": "Feature", "properties": {"id_hdad": 24, "hermandad": "Los Javieres", "calle": "Plaza del Duque de la Victoria"}, "geometry": {"type": "Point", "coordinates": [-5.996046, 37.393115]}}, {"type": "Feature", "properties": {"id_hdad": 24, "hermandad": "Los Javieres", "calle": "Calle Jesús del Gran Poder"}, "geometry": {"type": "Point", "coordinates": [-5.995978500352905, 37.3940198419956]}}]}