{"type": "FeatureCollection", "features": [{"type": "Feature", "properties": {"id_hdad": 26, "nombre": "Santa Cruz", "dia": "martes-santo"}, "geometry": {"type": "LineString", "coordinates": [[-5.9902033, 37.3862552], [-5.990847, 37.3860961], [-5.9907887, 37.3859353], [-5.9907607, 37.3859147], [-5.9907004, 37.3856958], [-5.9908155, 37.385505], [-5.9909244, 37.385406], [-5.9909726, 37.3853801], [-5.9910709, 37.3854701], [-5.9911357, 37.385469], [-5.9912283, 37.3854406], [-5.9913379, 37.3853794], [-5.9914201, 37.3853353], [-5.991467, 37.3852958], [-5.9917345, 37.3851446], [-5.9920788, 37.384965], [-5.9925691, 37.3851709], [-5.9928275, 37.3851491], [-5.993126, 37.38514], [-5.993709, 37.3851], [-5.9938801, 37.3851129], [-5.9939956, 37.3851733], [-5.994367, 37.385114], [-5.9945214, 37.3850791], [-5.9946016, 37.3850918], [-5.9947139, 37.3852071], [-5.9948075, 37.3852443], [-5.9949385, 37.3852331], [-5.9951972, 37.385176], [-5.9953598, 37.3851215], [-5.9953224, 37.3852665], [-5.9953317, 37.385378], [-5.9953972, 37.3856197], [-5.9954957, 37.3857758], [-5.9961928, 37.3861699], [-5.9961737, 37.3862092], [-5.9960848, 37.3862575], [-5.9961784, 37.3863579], [-5.9972329, 37.3872018], [-5.9901947, 37.3862535], [-5.9896522, 37.3868334], [-5.994185, 37.386838], [-5.9942267, 37.38731], [-5.9943041, 37.3879286], [-5.994296, 37.388071], [-5.994169, 37.388187], [-5.994154, 37.38867], [-5.994175, 37.389143], [-5.994258, 37.389845], [-5.9947885, 37.3908748], [-5.9946698, 37.3913397], [-5.994797, 37.391803], [-5.994861, 37.3922847], [-5.994924, 37.392751], [-5.995376, 37.392725], [-5.9920788, 37.384965], [-5.9917345, 37.3851446], [-5.991467, 37.3852958], [-5.9914201, 37.3853353], [-5.9913379, 37.3853794], [-5.9912283, 37.3854406], [-5.9911357, 37.385469], [-5.9910709, 37.3854701], [-5.9909726, 37.3853801], [-5.9909244, 37.385406], [-5.9908155, 37.385505], [-5.9907004, 37.3856958], [-5.9907607, 37.3859147], [-5.9907887, 37.3859353], [-5.990847, 37.3860961], [-5.9902033, 37.3862552]]}}, {"type": "Feature", "properties": {"id_hdad": 26, "hermandad": "Santa Cruz", "calle": "Calle Mateos Gago"}, "geometry": {"type": "Point", "coordinates": [-5.9902033, 37.3862552]}}, {"type": "Feature", "properties": {"id_hdad": 26, "hermandad": "Santa Cruz", "calle": "Calle Rodrigo Caro"}, "geometry": {"type": "Point", "coordinates": [-5.9907004, 37.3856958]}}, {"type": "Feature", "properties": {"id_hdad": 26, "hermandad": "Santa Cruz", "calle": "Plaza de La Alianza"}, "geometry": {"type": "Point", "coordinates": [-5.9910709, 37.3854701]}}, {"type": "Feature", "properties": {"id_hdad": 26, "hermandad": "Santa Cruz", "calle": "Calle Joaquín Romero Murube"}, "geometry": {"type": "Point", "coordinates": [-5.9913379, 37.3853794]}}, {"type": "Feature", "properties": {"id_hdad": 26, "hermandad": "Santa Cruz", "calle": "Plaza del Triunfo"}, "geometry": {"type": "Point", "coordinates": [-5.9923715, 37.3851829]}}, {"type": "Feature", "properties": {"id_hdad": 26, "hermandad": "Santa Cruz", "calle": "Calle Fray Ceferino González"}, "geometry": {"type": "Point", "coordinates": [-5.993126, 37.38514]}}, {"type": "Feature", "properties": {"id_hdad": 26, "hermandad": "Santa Cruz", "calle": "Calle Almirantazgo"}, "geometry": {"type": "Point", "coordinates": [-5.994367, 37.385114]}}, {"type": "Feature", "properties": {"id_hdad": 26, "hermandad": "Santa Cruz", "calle": "Calle Arco del Postigo"}, "geometry": {"type": "Point", "coordinates": [-5.9947139, 37.3852071]}}, {"type": "Feature", "properties": {"id_hdad": 26, "hermandad": "Santa Cruz", "calle": "Calle Dos de Mayo"}, "geometry": {"type": "Point", "coordinates": [-5.9951972, 37.385176]}}, {"type": "Feature", "properties": {"id_hdad": 26, "hermandad": "Santa Cruz", "calle": "Calle Arfe"}, "geometry": {"type": "Point", "coordinates": [-5.9953317, 37.385378]}}, {"type": "Feature", "properties": {"id_hdad": 26, "hermandad": "Santa Cruz", "calle": "Calle Puerta del Arenal"}, "geometry": {"type": "Point", "coordinates": [-5.9961737, 37.3862092]}}, {"type": "Feature", "properties": {"id_hdad": 26, "hermandad": "Santa Cruz", "calle": "Calle Castelar"}, "geometry": {"type": "Point", "coordinates": [-5.9972329, 37.3872018]}}, {"type": "Feature", "properties": {"id_hdad": 26, "hermandad": "Santa Cruz", "calle": "Calle Gamazo"}, "geometry": {"type": "Point", "coordinates": [-5.9901947, 37.3862535]}}, {"type": "Feature", "properties": {"id_hdad": 26, "hermandad": "Santa Cruz", "calle": "Calle Joaquín Guichot"}, "geometry": {"type": "Point", "coordinates": [-5.9901947, 37.3862535]}}, {"type": "Feature", "properties": {"id_hdad": 26, "hermandad": "Santa Cruz", "calle": "Calle Barcelona"}, "geometry": {"type": "Point", "coordinates": [-5.9901947, 37.3862535]}}, {"type": "Feature", "properties": {"id_hdad": 26, "hermandad": "Santa Cruz", "calle": "Plaza Nueva"}, "geometry": {"type": "Point", "coordinates": [-5.9901947, 37.3862535]}}, {"type": "Feature", "properties": {"id_hdad": 26, "hermandad": "Santa Cruz", "calle": "Calle Tetuán"}, "geometry": {"type": "Point", "coordinates": [-5.9896522, 37.3868334]}}, {"type": "Feature", "properties": {"id_hdad": 26, "hermandad": "Santa Cruz", "calle": "Calle Velázquez"}, "geometry": {"type": "Point", "coordinates": [-5.9896522, 37.3868334]}}, {"type": "Feature", "properties": {"id_hdad": 26, "hermandad": "Santa Cruz", "calle": "Calle O'Donnell"}, "geometry": {"type": "Point", "coordinates": [-5.9896522, 37.3868334]}}, {"type": "Feature", "properties": {"id_hdad": 26, "hermandad": "Santa Cruz", "calle": "Avenida de la Constitución"}, "geometry": {"type": "Point", "coordinates": [-5.994185, 37.386838]}}, {"type": "Feature", "properties": {"id_hdad": 26, "hermandad": "Santa Cruz", "calle": "Plaza de San Francisco"}, "geometry": {"type": "Point", "coordinates": [-5.994169, 37.388187]}}, {"type": "Feature", "properties": {"id_hdad": 26, "hermandad": "Santa Cruz", "calle": "Calle Sierpes"}, "geometry": {"type": "Point", "coordinates": [-5.9946698, 37.3913397]}}, {"type": "Feature", "properties": {"id_hdad": 26, "hermandad": "Santa Cruz", "calle": "La Campana"}, "geometry": {"type": "Point", "coordinates": [-5.995376, 37.392725]}}, {"type": "Feature", "properties": {"id_hdad": 26, "hermandad": "Santa Cruz", "calle": "Plaza del Triunfo"}, "geometry": {"type": "Point", "coordinates": [-5.9920788, 37.384965]}}, {"type": "Feature", "properties": {"id_hdad": 26, "hermandad": "Santa Cruz", "calle": "Calle Joaquín Romero Murube"}, "geometry": {"type": "Point", "coordinates": [-5.9913379, 37.3853794]}}, {"type": "Feature", "properties": {"id_hdad": 26, "hermandad": "Santa Cruz", "calle": "Plaza de La Alianza"}, "geometry": {"type": "Point", "coordinates": [-5.9909726, 37.3853801]}}, {"type": "Feature", "properties": {"id_hdad": 26, "hermandad": "Santa Cruz", "calle": "Calle Rodrigo Caro"}, "geometry": {"type": "Point", "coordinates": [-5.9907004, 37.3856958]}}, {"type": "Feature", "properties": {"id_hdad": 26, "hermandad": "Santa Cruz", "calle": "Calle Mateos Gago"}, "geometry": {"type": "Point", "coordinates": [-5.9902033, 37.3862552]}}]}