{"type": "FeatureCollection", "features": [{"type": "Feature", "properties": {"id_hdad": 31, "nombre": "La Lanzada", "dia": "miercoles-santo"}, "geometry": {"type": "LineString", "coordinates": [[-5.9929009, 37.3961216], [-5.9929059, 37.3961613], [-5.9935359, 37.3968909], [-5.9938169, 37.3967418], [-5.994027, 37.396751], [-5.994374, 37.39685], [-5.994618, 37.396413], [-5.994787, 37.396096], [-5.9950848, 37.396397], [-5.9954025, 37.396552], [-5.9957071, 37.3952874], [-5.9958737, 37.3945978], [-5.9959437, 37.3943076], [-5.995978500352905, 37.3940198419956], [-5.9959864, 37.3938914], [-5.9959496, 37.3937209], [-5.9959193, 37.3936073], [-5.9959583, 37.3934438], [-5.996046, 37.393115], [-5.9960975, 37.392915], [-5.9961387, 37.3927242], [-5.9958656, 37.392719], [-5.9955948, 37.3927173], [-5.9954756, 37.3927173], [-5.995376, 37.392725], [-5.994924, 37.392751], [-5.994861, 37.3922847], [-5.994797, 37.391803], [-5.9946698, 37.3913397], [-5.9945161, 37.3909308], [-5.9943917, 37.3904014], [-5.994327, 37.3901151], [-5.9942735, 37.3898019], [-5.9941991, 37.3894656], [-5.994175, 37.389143], [-5.994154, 37.38867], [-5.994169, 37.388187], [-5.994296, 37.388071], [-5.9943041, 37.3879286], [-5.9942267, 37.38731], [-5.9941493, 37.386713], [-5.9940679, 37.3860718], [-5.9940344, 37.3857616], [-5.993999, 37.385447], [-5.9934331, 37.3854932], [-5.9929686, 37.3855304], [-5.992619, 37.385552], [-5.9926646, 37.3858225], [-5.99271, 37.386038], [-5.992325, 37.386077], [-5.992365, 37.386288], [-5.9924408, 37.3863144], [-5.9924973, 37.3863647], [-5.9925107, 37.3865266], [-5.992515, 37.38666], [-5.992549, 37.386763], [-5.992807, 37.386777], [-5.993037, 37.386751], [-5.993054, 37.386917], [-5.9930245, 37.3870101], [-5.9929267, 37.3871073], [-5.992697, 37.387288], [-5.992489, 37.387452], [-5.992594, 37.387654], [-5.992704, 37.387858], [-5.99277, 37.38804], [-5.99271, 37.388333], [-5.992748, 37.388584], [-5.992999, 37.388611], [-5.993264, 37.388615], [-5.993288, 37.389051], [-5.99338, 37.389346], [-5.993302, 37.389446], [-5.993273, 37.38953], [-5.993197, 37.389673], [-5.993105, 37.389698], [-5.993128, 37.389988], [-5.993132428703218, 37.39005314738425], [-5.993169, 37.390185], [-5.993243, 37.390261], [-5.993364, 37.390816], [-5.993467, 37.391235], [-5.9934667, 37.3916005], [-5.9936158, 37.3924081], [-5.9936484, 37.392806], [-5.9936784, 37.3928784], [-5.9936959, 37.393276], [-5.9936917, 37.3934516], [-5.9938521, 37.3937374], [-5.9940546, 37.3940417], [-5.9941902, 37.3942798], [-5.9942428, 37.3945024], [-5.9938198, 37.39456], [-5.9937044, 37.3949807], [-5.9936216, 37.3951733], [-5.9934464, 37.3954794], [-5.9932112, 37.3959346], [-5.993091, 37.3960917], [-5.9929009, 37.3961216]]}}, {"type": "Feature", "properties": {"id_hdad": 31, "hermandad": "La Lanzada", "calle": "Plaza de San Martín"}, "geometry": {"type": "Point", "coordinates": [-5.9929009, 37.3961216]}}, {"type": "Feature", "properties": {"id_hdad": 31, "hermandad": "La Lanzada", "calle": "Calle Saavedras"}, "geometry": {"type": "Point", "coordinates": [-5.9929009, 37.3961216]}}, {"type": "Feature", "properties": {"id_hdad": 31, "hermandad": "La Lanzada", "calle": "Calle Alberto Lista"}, "geometry": {"type": "Point", "coordinates": [-5.9929059, 37.3961613]}}, {"type": "Feature", "properties": {"id_hdad": 31, "hermandad": "La Lanzada", "calle": "Calle Conde de Torrejón"}, "geometry": {"type": "Point", "coordinates": [-5.992704, 37.397012]}}, {"type": "Feature", "properties": {"id_hdad": 31, "hermandad": "La Lanzada", "calle": "Calle Amor de Dios"}, "geometry": {"type": "Point", "coordinates": [-5.9935359, 37.3968909]}}, {"type": "Feature", "properties": {"id_hdad": 31, "hermandad": "La Lanzada", "calle": "Alameda de Hércules"}, "geometry": {"type": "Point", "coordinates": [-5.994618, 37.396413]}}, {"type": "Feature", "properties": {"id_hdad": 31, "hermandad": "La Lanzada", "calle": "Calle Trajano"}, "geometry": {"type": "Point", "coordinates": [-5.9957071, 37.3952874]}}, {"type": "Feature", "properties": {"id_hdad": 31, "hermandad": "La Lanzada", "calle": "Calle Santa Bárbara"}, "geometry": {"type": "Point", "coordinates": [-5.9959864, 37.3938914]}}, {"type": "Feature", "properties": {"id_hdad": 31, "hermandad": "La Lanzada", "calle": "Calle Jesús del Gran Poder"}, "geometry": {"type": "Point", "coordinates": [-5.9959583, 37.3934438]}}, {"type": "Feature", "properties": {"id_hdad": 31, "hermandad": "La Lanzada", "calle": "Plaza del Duque de la Victoria"}, "geometry": {"type": "Point", "coordinates": [-5.9958656, 37.392719]}}, {"type": "Feature", "properties": {"id_hdad": 31, "hermandad": "La Lanzada", "calle": "La Campana"}, "geometry": {"type": "Point", "coordinates": [-5.994924, 37.392751]}}, {"type": "Feature", "properties": {"id_hdad": 31, "hermandad": "La Lanzada", "calle": "Calle Sierpes"}, "geometry": {"type": "Point", "coordinates": [-5.9945161, 37.3909308]}}, {"type": "Feature", "properties": {"id_hdad": 31, "hermandad": "La Lanzada", "calle": "Plaza de San Francisco"}, "geometry": {"type": "Point", "coordinates": [-5.994175, 37.389143]}}, {"type": "Feature", "properties": {"id_hdad": 31, "hermandad": "La Lanzada", "calle": "Avenida de la Constitución"}, "geometry": {"type": "Point", "coordinates": [-5.9942267, 37.38731]}}, {"type": "Feature", "properties": {"id_hdad": 31, "hermandad": "La Lanzada", "calle": "Calle Cardenal Carlos Amigo"}, "geometry": {"type": "Point", "coordinates": [-5.9934331, 37.3854932]}}, {"type": "Feature", "properties": {"id_hdad": 31, "hermandad": "La Lanzada", "calle": "Calle Alemanes"}, "geometry": {"type": "Point", "coordinates": [-5.99271, 37.386038]}}, {"type": "Feature", "properties": {"id_hdad": 31, "hermandad": "La Lanzada", "calle": "Calle Álvarez Quintero"}, "geometry": {"type": "Point", "coordinates": [-5.9925107, 37.3865266]}}, {"type": "Feature", "properties": {"id_hdad": 31, "hermandad": "La Lanzada", "calle": "Calle Argote de Molina"}, "geometry": {"type": "Point", "coordinates": [-5.993054, 37.386917]}}, {"type": "Feature", "properties": {"id_hdad": 31, "hermandad": "La Lanzada", "calle": "Calle Placentines"}, "geometry": {"type": "Point", "coordinates": [-5.992594, 37.387654]}}, {"type": "Feature", "properties": {"id_hdad": 31, "hermandad": "La Lanzada", "calle": "Calle Francos"}, "geometry": {"type": "Point", "coordinates": [-5.992748, 37.388584]}}, {"type": "Feature", "properties": {"id_hdad": 31, "hermandad": "La Lanzada", "calle": "Calle Chapineros"}, "geometry": {"type": "Point", "coordinates": [-5.99338, 37.389346]}}, {"type": "Feature", "properties": {"id_hdad": 31, "hermandad": "La Lanzada", "calle": "Calle Álvarez Quintero"}, "geometry": {"type": "Point", "coordinates": [-5.993197, 37.389673]}}, {"type": "Feature", "properties": {"id_hdad": 31, "hermandad": "La Lanzada", "calle": "Plaza del Salvador"}, "geometry": {"type": "Point", "coordinates": [-5.993169, 37.390185]}}, {"type": "Feature", "properties": {"id_hdad": 31, "hermandad": "La Lanzada", "calle": "Calle Cuna"}, "geometry": {"type": "Point", "coordinates": [-5.9935302, 37.3916909]}}, {"type": "Feature", "properties": {"id_hdad": 31, "hermandad": "La Lanzada", "calle": "Calle Orfila"}, "geometry": {"type": "Point", "coordinates": [-5.9936784, 37.3928784]}}, {"type": "Feature", "properties": {"id_hdad": 31, "hermandad": "La Lanzada", "calle": "Plaza Fernando de Herrera"}, "geometry": {"type": "Point", "coordinates": [-5.9936917, 37.3934516]}}, {"type": "Feature", "properties": {"id_hdad": 31, "hermandad": "La Lanzada", "calle": "Calle Daoiz"}, "geometry": {"type": "Point", "coordinates": [-5.9941902, 37.3942798]}}, {"type": "Feature", "properties": {"id_hdad": 31, "hermandad": "La Lanzada", "calle": "Calle San Andrés"}, "geometry": {"type": "Point", "coordinates": [-5.9937044, 37.3949807]}}, {"type": "Feature", "properties": {"id_hdad": 31, "hermandad": "La Lanzada", "calle": "Calle Cervantes"}, "geometry": {"type": "Point", "coordinates": [-5.9934464, 37.3954794]}}, {"type": "Feature", "properties": {"id_hdad": 31, "hermandad": "La Lanzada", "calle": "Plaza de San Martín"}, "geometry": {"type": "Point", "coordinates": [-5.9929009, 37.3961216]}}]}