{"type": "FeatureCollection", "features": [{"type": "Feature", "properties": {"id_hdad": 36, "nombre": "Los Negritos", "dia": "jueves-santo"}, "geometry": {"type": "LineString", "coordinates": [[-5.984216, 37.3909278], [-5.9841068, 37.3909329], [-5.9841132, 37.3904328], [-5.9841646, 37.3900143], [-5.9842549, 37.3897391], [-5.9845022, 37.389193], [-5.985444, 37.389615], [-5.9858628, 37.3897627], [-5.9865122, 37.3897508], [-5.987031, 37.389815], [-5.987752, 37.389879], [-5.9883845, 37.389905], [-5.9889966, 37.3898398], [-5.9895042, 37.389911], [-5.989974, 37.390022], [-5.9902506, 37.3900829], [-5.9904676, 37.3902018], [-5.9908586, 37.3897675], [-5.9912822, 37.389819], [-5.991877737588801, 37.389764333519445], [-5.99276171628195, 37.38971492214055], [-5.993087, 37.389679], [-5.9931304, 37.3900138], [-5.9931499, 37.3901788], [-5.993218, 37.3902098], [-5.9937884, 37.390125], [-5.9941893, 37.3900872], [-5.9944847, 37.3900666], [-5.9945761, 37.3900455], [-5.9946339, 37.3899897], [-5.9947437, 37.3899779], [-5.9948499, 37.3899568], [-5.9950795, 37.3899109], [-5.9951669, 37.3902317], [-5.9954035, 37.3911654], [-5.9954456, 37.3918072], [-5.995454, 37.392155], [-5.995386, 37.3924668], [-5.9954113, 37.3927179], [-5.994924, 37.392751], [-5.994861, 37.3922847], [-5.994797, 37.391803], [-5.9946698, 37.3913397], [-5.9945161, 37.3909308], [-5.9943917, 37.3904014], [-5.994327, 37.3901151], [-5.9942735, 37.3898019], [-5.9941991, 37.3894656], [-5.994175, 37.389143], [-5.994154, 37.38867], [-5.994169, 37.388187], [-5.994296, 37.388071], [-5.9943041, 37.3879286], [-5.9942267, 37.38731], [-5.9941493, 37.386713], [-5.9940679, 37.3860718], [-5.9940344, 37.3857616], [-5.993999, 37.385447], [-5.9934331, 37.3854932], [-5.9929686, 37.3855304], [-5.992619, 37.385552], [-5.9926646, 37.3858225], [-5.99271, 37.386038], [-5.992325, 37.386077], [-5.992365, 37.386288], [-5.9924408, 37.3863144], [-5.9924973, 37.3863647], [-5.9925107, 37.3865266], [-5.992515, 37.38666], [-5.992549, 37.386763], [-5.992807, 37.386777], [-5.993037, 37.386751], [-5.993054, 37.386917], [-5.9930245, 37.3870101], [-5.9929267, 37.3871073], [-5.992697, 37.387288], [-5.992489, 37.387452], [-5.992594, 37.387654], [-5.992704, 37.387858], [-5.99277, 37.38804], [-5.992784, 37.388285], [-5.992744, 37.388583], [-5.992621, 37.388828], [-5.992568, 37.389176], [-5.992542, 37.389426], [-5.992353, 37.389737], [-5.991765, 37.389785], [-5.9915301, 37.3898039], [-5.9913096, 37.3898065], [-5.991289194661936, 37.389882871212365], [-5.9912497, 37.389973], [-5.9912273, 37.3900874], [-5.9911748, 37.3902722], [-5.9911616, 37.3904076], [-5.9910099, 37.3904447], [-5.9908985, 37.390408], [-5.990511, 37.390295], [-5.990466, 37.3901955], [-5.9902669, 37.3900985], [-5.989687, 37.389964], [-5.989119, 37.389864], [-5.988967, 37.389833], [-5.988735, 37.389857], [-5.988358, 37.389922], [-5.987752, 37.389879], [-5.987033, 37.389815], [-5.98665, 37.389741], [-5.98593, 37.389743], [-5.985625, 37.389691], [-5.985335, 37.389578], [-5.9847977, 37.3893103], [-5.9847367, 37.3893257], [-5.984772, 37.3893895], [-5.984857, 37.389636], [-5.985563, 37.390327], [-5.9856119, 37.3904296], [-5.9854963, 37.3905929], [-5.9854866, 37.3907052], [-5.9851494, 37.3906261], [-5.9848081, 37.3905446], [-5.9841036, 37.390471], [-5.9840939, 37.3907466], [-5.9840907, 37.3909329], [-5.9842128, 37.3909406]]}}, {"type": "Feature", "properties": {"id_hdad": 36, "hermandad": "Los Negritos", "calle": "Calle Recaredo", "osm": "Calle Recaredo"}, "geometry": {"type": "Point", "coordinates": [-5.9841488, 37.390511]}}, {"type": "Feature", "properties": {"id_hdad": 36, "hermandad": "Los Negritos", "calle": "Plaza de San Agustín", "osm": "Plaza de San Agustín"}, "geometry": {"type": "Point", "coordinates": [-5.9844512, 37.3895572]}}, {"type": "Feature", "properties": {"id_hdad": 36, "hermandad": "Los Negritos", "calle": "Calle Puerta de Carmona", "osm": "Calle Puerta de Carmona"}, "geometry": {"type": "Point", "coordinates": [-5.9846, 37.389231]}}, {"type": "Feature", "properties": {"id_hdad": 36, "hermandad": "Los Negritos", "calle": "Calle San Esteban", "osm": "Calle San Esteban"}, "geometry": {"type": "Point", "coordinates": [-5.985444, 37.389615]}}, {"type": "Feature", "properties": {"id_hdad": 36, "hermandad": "Los Negritos", "calle": "Plaza de Pilatos", "osm": "Plaza de Pilatos"}, "geometry": {"type": "Point", "coordinates": [-5.987031, 37.389815]}}, {"type": "Feature", "properties": {"id_hdad": 36, "hermandad": "Los Negritos", "calle": "Calle Águilas", "osm": "Calle Águilas"}, "geometry": {"type": "Point", "coordinates": [-5.987752, 37.389879]}}, {"type": "Feature", "properties": {"id_hdad": 36, "hermandad": "Los Negritos", "calle": "Calle Alfalfa", "osm": "Calle Alfalfa"}, "geometry": {"type": "Point", "coordinates": [-5.989974, 37.390022]}}, {"type": "Feature", "properties": {"id_hdad": 36, "hermandad": "Los Negritos", "calle": "Calle Jesús de las Tres Caídas", "osm": "Calle Jesús de las Tres Caídas"}, "geometry": {"type": "Point", "coordinates": [-5.990668, 37.389983]}}, {"type": "Feature", "properties": {"id_hdad": 36, "hermandad": "Los Negritos", "calle": "Cuesta del Rosario", "osm": "Cuesta del Rosario"}, "geometry": {"type": "Point", "coordinates": [-5.991877737588801, 37.389764333519445]}}, {"type": "Feature", "properties": {"id_hdad": 36, "hermandad": "Los Negritos", "calle": "Calle Villegas", "osm": "Calle Villegas"}, "geometry": {"type": "Point", "coordinates": [-5.99276171628195, 37.38971492214055]}}, {"type": "Feature", "properties": {"id_hdad": 36, "hermandad": "Los Negritos", "calle": "Plaza del Salvador", "osm": "Plaza del Salvador"}, "geometry": {"type": "Point", "coordinates": [-5.993152, 37.390033]}}, {"type": "Feature", "properties": {"id_hdad": 36, "hermandad": "Los Negritos", "calle": "Calle Sagasta", "osm": "Calle Sagasta"}, "geometry": {"type": "Point", "coordinates": [-5.9937797, 37.3901395]}}, {"type": "Feature", "properties": {"id_hdad": 36, "hermandad": "Los Negritos", "calle": "Calle Jovellanos", "osm": "Calle Jovellanos"}, "geometry": {"type": "Point", "coordinates": [-5.9947086, 37.3899991]}}, {"type": "Feature", "properties": {"id_hdad": 36, "hermandad": "Los Negritos", "calle": "Calle Tetuán", "osm": "Calle Tetuán"}, "geometry": {"type": "Point", "coordinates": [-5.9951669, 37.3902317]}}, {"type": "Feature", "properties": {"id_hdad": 36, "hermandad": "Los Negritos", "calle": "Calle Velázquez", "osm": "Calle Velázquez"}, "geometry": {"type": "Point", "coordinates": [-5.9954035, 37.3911654]}}, {"type": "Feature", "properties": {"id_hdad": 36, "hermandad": "Los Negritos", "calle": "Calle O'Donnell", "osm": "Calle O'Donnell"}, "geometry": {"type": "Point", "coordinates": [-5.995454, 37.392155]}}, {"type": "Feature", "properties": {"id_hdad": 36, "hermandad": "Los Negritos", "calle": "La Campana", "osm": "La Campana"}, "geometry": {"type": "Point", "coordinates": [-5.995376, 37.392725]}}, {"type": "Feature", "properties": {"id_hdad": 36, "hermandad": "Los Negritos", "calle": "Calle Sierpes", "osm": "Calle Sierpes"}, "geometry": {"type": "Point", "coordinates": [-5.9947885, 37.3908748]}}, {"type": "Feature", "properties": {"id_hdad": 36, "hermandad": "Los Negritos", "calle": "Plaza de San Francisco", "osm": "Plaza de San Francisco"}, "geometry": {"type": "Point", "coordinates": [-5.994154, 37.38867]}}, {"type": "Feature", "properties": {"id_hdad": 36, "hermandad": "Los Negritos", "calle": "Avenida de la Constitución", "osm": "Avenida de la Constitución"}, "geometry": {"type": "Point", "coordinates": [-5.994185, 37.386838]}}, {"type": "Feature", "properties": {"id_hdad": 36, "hermandad": "Los Negritos", "calle": "Calle Cardenal Carlos Amigo", "osm": "Calle Cardenal Carlos Amigo"}, "geometry": {"type": "Point", "coordinates": [-5.992537, 37.386555]}}, {"type": "Feature", "properties": {"id_hdad": 36, "hermandad": "Los Negritos", "calle": "Calle Alemanes", "osm": "Calle Alemanes"}, "geometry": {"type": "Point", "coordinates": [-5.992807, 37.386777]}}, {"type": "Feature", "properties": {"id_hdad": 36, "hermandad": "Los Negritos", "calle": "Calle Álvarez Quintero", "osm": "Calle Álvarez Quintero"}, "geometry": {"type": "Point", "coordinates": [-5.993054, 37.386917]}}, {"type": "Feature", "properties": {"id_hdad": 36, "hermandad": "Los Negritos", "calle": "Calle Argote de Molina", "osm": "Calle Argote de Molina"}, "geometry": {"type": "Point", "coordinates": [-5.992697, 37.387288]}}, {"type": "Feature", "properties": {"id_hdad": 36, "hermandad": "Los Negritos", "calle": "Calle Placentines", "osm": "Calle Placentines"}, "geometry": {"type": "Point", "coordinates": [-5.992594, 37.387654]}}, {"type": "Feature", "properties": {"id_hdad": 36, "hermandad": "Los Negritos", "calle": "Calle Francos", "osm": "Calle Francos"}, "geometry": {"type": "Point", "coordinates": [-5.992784, 37.388285]}}, {"type": "Feature", "properties": {"id_hdad": 36, "hermandad": "Los Negritos", "calle": "Cuesta del Rosario", "osm": "Cuesta del Rosario"}, "geometry": {"type": "Point", "coordinates": [-5.991765, 37.389785]}}, {"type": "Feature", "properties": {"id_hdad": 36, "hermandad": "Los Negritos", "calle": "Plaza de la Pescadería", "osm": "Plaza de la Pescadería"}, "geometry": {"type": "Point", "coordinates": [-5.991289194661936, 37.389882871212365]}}, {"type": "Feature", "properties": {"id_hdad": 36, "hermandad": "Los Negritos", "calle": "Calle Ángel María Camacho", "osm": "Calle Ángel María Camacho"}, "geometry": {"type": "Point", "coordinates": [-5.9912273, 37.3900874]}}, {"type": "Feature", "properties": {"id_hdad": 36, "hermandad": "Los Negritos", "calle": "Plaza de La Alfalfa", "osm": "Plaza de La Alfalfa"}, "geometry": {"type": "Point", "coordinates": [-5.9907029, 37.390336]}}, {"type": "Feature", "properties": {"id_hdad": 36, "hermandad": "Los Negritos", "calle": "Calle Alfalfa", "osm": "Calle Alfalfa"}, "geometry": {"type": "Point", "coordinates": [-5.9906, 37.3902]}}, {"type": "Feature", "properties": {"id_hdad": 36, "hermandad": "Los Negritos", "calle": "Calle Águilas", "osm": "Calle Águilas"}, "geometry": {"type": "Point", "coordinates": [-5.9892425, 37.3898525]}}, {"type": "Feature", "properties": {"id_hdad": 36, "hermandad": "Los Negritos", "calle": "Plaza de Pilatos", "osm": "Plaza de Pilatos"}, "geometry": {"type": "Point", "coordinates": [-5.9869495, 37.3898114]}}, {"type": "Feature", "properties": {"id_hdad": 36, "hermandad": "Los Negritos", "calle": "Calle San Esteban", "osm": "Calle San Esteban"}, "geometry": {"type": "Point", "coordinates": [-5.9856873, 37.3896844]}}, {"type": "Feature", "properties": {"id_hdad": 36, "hermandad": "Los Negritos", "calle": "Calle Puerta de Carmona", "osm": "Calle Puerta de Carmona"}, "geometry": {"type": "Point", "coordinates": [-5.9845134, 37.3892039]}}, {"type": "Feature", "properties": {"id_hdad": 36, "hermandad": "Los Negritos", "calle": "Calle Muro de los Navarros", "osm": "Calle Muro de los Navarros"}, "geometry": {"type": "Point", "coordinates": [-5.985496, 37.390257]}}, {"type": "Feature", "properties": {"id_hdad": 36, "hermandad": "Los Negritos", "calle": "Calle Guadalupe", "osm": "Calle Guadalupe"}, "geometry": {"type": "Point", "coordinates": [-5.9847954, 37.3905838]}}, {"type": "Feature", "properties": {"id_hdad": 36, "hermandad": "Los Negritos", "calle": "Calle Recaredo", "osm": "Calle Recaredo"}, "geometry": {"type": "Point", "coordinates": [-5.9841222, 37.3905393]}}]}