{"type": "FeatureCollection", "features": [{"type": "Feature", "properties": {"id_hdad": 39, "nombre": "Montesión", "dia": "jueves-santo"}, "geometry": {"type": "LineString", "coordinates": [[-5.9916077, 37.398049], [-5.9921885, 37.3978378], [-5.9927442, 37.3974166], [-5.99308, 37.3971746], [-5.9932149, 37.3971148], [-5.9932928, 37.3970262], [-5.9933836, 37.3969767], [-5.9938058, 37.3967448], [-5.994027, 37.396751], [-5.994374, 37.39685], [-5.994618, 37.396413], [-5.994787, 37.396096], [-5.994908, 37.395763], [-5.995151, 37.394856], [-5.995272, 37.39437], [-5.995298, 37.393904], [-5.9964384, 37.396883], [-5.9953967, 37.3966968], [-5.9954179, 37.3966026], [-5.995406, 37.3965273], [-5.9954487, 37.3963562], [-5.9955694, 37.3958784], [-5.9957881, 37.394978], [-5.9958994, 37.3945048], [-5.995978500352905, 37.3940198419956], [-5.9959864, 37.3938914], [-5.9959496, 37.3937209], [-5.9959193, 37.3936073], [-5.9959583, 37.3934438], [-5.996046, 37.393115], [-5.9960975, 37.392915], [-5.9961387, 37.3927242], [-5.9958656, 37.392719], [-5.9955948, 37.3927173], [-5.9954756, 37.3927173], [-5.995376, 37.392725], [-5.994924, 37.392751], [-5.994861, 37.3922847], [-5.994797, 37.391803], [-5.9946698, 37.3913397], [-5.9945161, 37.3909308], [-5.9943917, 37.3904014], [-5.994327, 37.3901151], [-5.9942735, 37.3898019], [-5.9941991, 37.3894656], [-5.994175, 37.389143], [-5.994154, 37.38867], [-5.994169, 37.388187], [-5.994296, 37.388071], [-5.9943041, 37.3879286], [-5.9942267, 37.38731], [-5.9941493, 37.386713], [-5.9940679, 37.3860718], [-5.9940344, 37.3857616], [-5.993999, 37.385447], [-5.9934331, 37.3854932], [-5.9929686, 37.3855304], [-5.992619, 37.385552], [-5.9926646, 37.3858225], [-5.99271, 37.386038], [-5.992325, 37.386077], [-5.992343, 37.386298], [-5.992461, 37.386331], [-5.992523, 37.386502], [-5.992515, 37.38666], [-5.992549, 37.386763], [-5.992807, 37.386777], [-5.993037, 37.386751], [-5.993054, 37.386917], [-5.9930245, 37.3870101], [-5.9929267, 37.3871073], [-5.992697, 37.387288], [-5.9924725, 37.3874675], [-5.9925659, 37.3876592], [-5.992704, 37.387858], [-5.99277, 37.38804], [-5.9927812, 37.3883333], [-5.992748, 37.388584], [-5.992999, 37.388611], [-5.993264, 37.388615], [-5.993288, 37.389051], [-5.99338, 37.389346], [-5.993302, 37.389446], [-5.993273, 37.38953], [-5.993197, 37.389673], [-5.993105, 37.389698], [-5.993128, 37.389988], [-5.993132428703218, 37.39005314738425], [-5.993169, 37.390185], [-5.993243, 37.390261], [-5.993364, 37.390816], [-5.993467, 37.391235], [-5.9935277, 37.3916027], [-5.9935906, 37.3922026], [-5.993653, 37.392822], [-5.992981, 37.392804], [-5.992232, 37.392791], [-5.991583, 37.392717], [-5.991508, 37.392727], [-5.991465, 37.392787], [-5.991425, 37.393054], [-5.991362, 37.393635], [-5.9908033, 37.3936049], [-5.990453, 37.393595], [-5.990418, 37.393942], [-5.990366, 37.394231], [-5.990316, 37.394559], [-5.99027, 37.394863], [-5.9909195, 37.3951526], [-5.99157, 37.39655], [-5.99132, 37.395688]]}}, {"type": "Feature", "properties": {"id_hdad": 39, "hermandad": "Montesión", "calle": "Calle Feria"}, "geometry": {"type": "Point", "coordinates": [-5.9916077, 37.398049]}}, {"type": "Feature", "properties": {"id_hdad": 39, "hermandad": "Montesión", "calle": "Calle Correduría"}, "geometry": {"type": "Point", "coordinates": [-5.9932928, 37.3970262]}}, {"type": "Feature", "properties": {"id_hdad": 39, "hermandad": "Montesión", "calle": "Alameda de Hércules"}, "geometry": {"type": "Point", "coordinates": [-5.994618, 37.396413]}}, {"type": "Feature", "properties": {"id_hdad": 39, "hermandad": "Montesión", "calle": "Calle Trajano"}, "geometry": {"type": "Point", "coordinates": [-5.995298, 37.393904]}}, {"type": "Feature", "properties": {"id_hdad": 39, "hermandad": "Montesión", "calle": "Calle Conde de Barajas"}, "geometry": {"type": "Point", "coordinates": [-5.9964384, 37.396883]}}, {"type": "Feature", "properties": {"id_hdad": 39, "hermandad": "Montesión", "calle": "Calle Jesús del Gran Poder"}, "geometry": {"type": "Point", "coordinates": [-5.9957881, 37.394978]}}, {"type": "Feature", "properties": {"id_hdad": 39, "hermandad": "Montesión", "calle": "Plaza del Duque de la Victoria"}, "geometry": {"type": "Point", "coordinates": [-5.9959583, 37.3934438]}}, {"type": "Feature", "properties": {"id_hdad": 39, "hermandad": "Montesión", "calle": "La Campana"}, "geometry": {"type": "Point", "coordinates": [-5.9954756, 37.3927173]}}, {"type": "Feature", "properties": {"id_hdad": 39, "hermandad": "Montesión", "calle": "Calle Sierpes"}, "geometry": {"type": "Point", "coordinates": [-5.9946698, 37.3913397]}}, {"type": "Feature", "properties": {"id_hdad": 39, "hermandad": "Montesión", "calle": "Plaza de San Francisco"}, "geometry": {"type": "Point", "coordinates": [-5.994175, 37.389143]}}, {"type": "Feature", "properties": {"id_hdad": 39, "hermandad": "Montesión", "calle": "Avenida de la Constitución"}, "geometry": {"type": "Point", "coordinates": [-5.9941493, 37.386713]}}, {"type": "Feature", "properties": {"id_hdad": 39, "hermandad": "Montesión", "calle": "Calle Cardenal Carlos Amigo"}, "geometry": {"type": "Point", "coordinates": [-5.9934331, 37.3854932]}}, {"type": "Feature", "properties": {"id_hdad": 39, "hermandad": "Montesión", "calle": "Calle Alemanes"}, "geometry": {"type": "Point", "coordinates": [-5.99271, 37.386038]}}, {"type": "Feature", "properties": {"id_hdad": 39, "hermandad": "Montesión", "calle": "Calle Álvarez Quintero"}, "geometry": {"type": "Point", "coordinates": [-5.992523, 37.386502]}}, {"type": "Feature", "properties": {"id_hdad": 39, "hermandad": "Montesión", "calle": "Calle Argote de Molina"}, "geometry": {"type": "Point", "coordinates": [-5.992807, 37.386777]}}, {"type": "Feature", "properties": {"id_hdad": 39, "hermandad": "Montesión", "calle": "Calle Placentines"}, "geometry": {"type": "Point", "coordinates": [-5.9929267, 37.3871073]}}, {"type": "Feature", "properties": {"id_hdad": 39, "hermandad": "Montesión", "calle": "Calle Francos"}, "geometry": {"type": "Point", "coordinates": [-5.992704, 37.387858]}}, {"type": "Feature", "properties": {"id_hdad": 39, "hermandad": "Montesión", "calle": "Calle Chapineros"}, "geometry": {"type": "Point", "coordinates": [-5.992999, 37.388611]}}, {"type": "Feature", "properties": {"id_hdad": 39, "hermandad": "Montesión", "calle": "Calle Álvarez Quintero"}, "geometry": {"type": "Point", "coordinates": [-5.993302, 37.389446]}}, {"type": "Feature", "properties": {"id_hdad": 39, "hermandad": "Montesión", "calle": "Plaza del Salvador"}, "geometry": {"type": "Point", "coordinates": [-5.993128, 37.389988]}}, {"type": "Feature", "properties": {"id_hdad": 39, "hermandad": "Montesión", "calle": "Calle Cuna"}, "geometry": {"type": "Point", "coordinates": [-5.993364, 37.390816]}}, {"type": "Feature", "properties": {"id_hdad": 39, "hermandad": "Montesión", "calle": "Calle Laraña"}, "geometry": {"type": "Point", "coordinates": [-5.9935906, 37.3922026]}}, {"type": "Feature", "properties": {"id_hdad": 39, "hermandad": "Montesión", "calle": "Plaza de la Encarnación"}, "geometry": {"type": "Point", "coordinates": [-5.991583, 37.392717]}}, {"type": "Feature", "properties": {"id_hdad": 39, "hermandad": "Montesión", "calle": "Calle Alcázares"}, "geometry": {"type": "Point", "coordinates": [-5.991362, 37.393635]}}, {"type": "Feature", "properties": {"id_hdad": 39, "hermandad": "Montesión", "calle": "Calle Santa Ángela de la Cruz"}, "geometry": {"type": "Point", "coordinates": [-5.990366, 37.394231]}}, {"type": "Feature", "properties": {"id_hdad": 39, "hermandad": "Montesión", "calle": "Calle San Juan de la Palma"}, "geometry": {"type": "Point", "coordinates": [-5.991095, 37.39524]}}, {"type": "Feature", "properties": {"id_hdad": 39, "hermandad": "Montesión", "calle": "Calle Madre María Purísima de la Cruz"}, "geometry": {"type": "Point", "coordinates": [-5.99157, 37.39655]}}, {"type": "Feature", "properties": {"id_hdad": 39, "hermandad": "Montesión", "calle": "Calle Feria"}, "geometry": {"type": "Point", "coordinates": [-5.99132, 37.395688]}}]}