{"type": "FeatureCollection", "features": [{"type": "Feature", "properties": {"id_hdad": 58, "nombre": "La Trinidad", "dia": "sabado-santo"}, "geometry": {"type": "LineString", "coordinates": [[-5.9834261, 37.3945485], [-5.9836419, 37.3946234], [-5.9838552, 37.3946749], [-5.9839105, 37.3948399], [-5.9839521, 37.3948344], [-5.9839002, 37.3945979], [-5.983959, 37.3943945], [-5.9841078, 37.3942461], [-5.9844187, 37.393179], [-5.9848463, 37.3932695], [-5.9850736, 37.3932941], [-5.9856192, 37.3931386], [-5.9862736, 37.3929555], [-5.9866462, 37.3931373], [-5.9867948, 37.3932437], [-5.9874545, 37.393084], [-5.988267, 37.392909], [-5.9886598, 37.3928715], [-5.989031, 37.392704], [-5.989692, 37.392505], [-5.9901991, 37.3925095], [-5.99088, 37.39261], [-5.9922302, 37.392777], [-5.992981, 37.392804], [-5.9933169, 37.3928037], [-5.9936593, 37.3928157], [-5.9936853, 37.3929311], [-5.993689, 37.393287], [-5.9936844, 37.3934442], [-5.993838, 37.393693], [-5.9940973, 37.3936496], [-5.9942892, 37.3936065], [-5.994575, 37.393545], [-5.9947522, 37.3935137], [-5.99499, 37.3936695], [-5.995283, 37.393895], [-5.99537, 37.393742], [-5.995446, 37.393623], [-5.995615, 37.39345], [-5.995633, 37.393113], [-5.995631, 37.392901], [-5.9956364, 37.3927183], [-5.995376, 37.392725], [-5.994924, 37.392751], [-5.994797, 37.391803], [-5.9945202, 37.3909414], [-5.9943917, 37.3904014], [-5.994327, 37.3901151], [-5.9942735, 37.3898019], [-5.9941991, 37.3894656], [-5.994175, 37.389143], [-5.994154, 37.38867], [-5.994169, 37.388187], [-5.994296, 37.388071], [-5.9943041, 37.3879286], [-5.9942267, 37.38731], [-5.9941493, 37.386713], [-5.9940679, 37.3860718], [-5.9940344, 37.3857616], [-5.993999, 37.385447], [-5.9934331, 37.3854932], [-5.9929686, 37.3855304], [-5.992619, 37.385552], [-5.9926646, 37.3858225], [-5.99271, 37.386038], [-5.992325, 37.386077], [-5.992365, 37.386288], [-5.9924408, 37.3863144], [-5.9924973, 37.3863647], [-5.9925107, 37.3865266], [-5.992515, 37.38666], [-5.992549, 37.386763], [-5.992807, 37.386777], [-5.993037, 37.386751], [-5.993054, 37.386917], [-5.9930245, 37.3870101], [-5.9929267, 37.3871073], [-5.992697, 37.387288], [-5.992489, 37.387452], [-5.992594, 37.387654], [-5.992704, 37.387858], [-5.99277, 37.38804], [-5.992784, 37.388285], [-5.992744, 37.388583], [-5.992621, 37.388828], [-5.992568, 37.389176], [-5.992542, 37.389426], [-5.992353, 37.389737], [-5.991765, 37.389785], [-5.991357, 37.389798], [-5.991092, 37.38979], [-5.990856, 37.389772], [-5.990668, 37.389983], [-5.9903819, 37.3904418], [-5.9902529, 37.3906875], [-5.9897003, 37.3905751], [-5.9893181, 37.3904716], [-5.9891312, 37.3904536], [-5.9889073, 37.3904992], [-5.988716, 37.3905804], [-5.9884604, 37.3908097], [-5.9883511, 37.39097], [-5.9882658, 37.3910695], [-5.9881593, 37.3912219], [-5.9880689, 37.3914025], [-5.9880143, 37.3916455], [-5.9879415, 37.3921737], [-5.9879415, 37.3923472], [-5.9879706, 37.3925439], [-5.9880173, 37.39293], [-5.987516, 37.3930687], [-5.9867456, 37.3932689], [-5.9859509, 37.3934436], [-5.9862759, 37.3929629], [-5.9850825, 37.3933], [-5.9850736, 37.3932941], [-5.9848463, 37.3932695], [-5.9844187, 37.393179], [-5.9844585, 37.3951973], [-5.9848068, 37.3956539], [-5.9818943, 37.3968471], [-5.981559, 37.396986]]}}, {"type": "Feature", "properties": {"id_hdad": 58, "hermandad": "La Trinidad", "calle": "Calle María Auxiliadora"}, "geometry": {"type": "Point", "coordinates": [-5.9834261, 37.3945485]}}, {"type": "Feature", "properties": {"id_hdad": 58, "hermandad": "La Trinidad", "calle": "Calle Mateos"}, "geometry": {"type": "Point", "coordinates": [-5.9839521, 37.3948344]}}, {"type": "Feature", "properties": {"id_hdad": 58, "hermandad": "La Trinidad", "calle": "Calle Valle"}, "geometry": {"type": "Point", "coordinates": [-5.9841078, 37.3942461]}}, {"type": "Feature", "properties": {"id_hdad": 58, "hermandad": "La Trinidad", "calle": "Calle Puñonrostro"}, "geometry": {"type": "Point", "coordinates": [-5.9844187, 37.393179]}}, {"type": "Feature", "properties": {"id_hdad": 58, "hermandad": "La Trinidad", "calle": "Calle Jáuregui"}, "geometry": {"type": "Point", "coordinates": [-5.9855991, 37.3931625]}}, {"type": "Feature", "properties": {"id_hdad": 58, "hermandad": "La Trinidad", "calle": "Plaza Padre Jerónimo de Córdoba"}, "geometry": {"type": "Point", "coordinates": [-5.9862736, 37.3929555]}}, {"type": "Feature", "properties": {"id_hdad": 58, "hermandad": "La Trinidad", "calle": "Plaza Ponce de León"}, "geometry": {"type": "Point", "coordinates": [-5.9867948, 37.3932437]}}, {"type": "Feature", "properties": {"id_hdad": 58, "hermandad": "La Trinidad", "calle": "Calle Juan de Mesa"}, "geometry": {"type": "Point", "coordinates": [-5.9874545, 37.393084]}}, {"type": "Feature", "properties": {"id_hdad": 58, "hermandad": "La Trinidad", "calle": "Calle Almirante Apodaca"}, "geometry": {"type": "Point", "coordinates": [-5.9886598, 37.3928715]}}, {"type": "Feature", "properties": {"id_hdad": 58, "hermandad": "La Trinidad", "calle": "Plaza de San Pedro"}, "geometry": {"type": "Point", "coordinates": [-5.989031, 37.392704]}}, {"type": "Feature", "properties": {"id_hdad": 58, "hermandad": "La Trinidad", "calle": "Calle Imagen"}, "geometry": {"type": "Point", "coordinates": [-5.9901991, 37.3925095]}}, {"type": "Feature", "properties": {"id_hdad": 58, "hermandad": "La Trinidad", "calle": "Plaza de la Encarnación"}, "geometry": {"type": "Point", "coordinates": [-5.991499, 37.3927]}}, {"type": "Feature", "properties": {"id_hdad": 58, "hermandad": "La Trinidad", "calle": "Calle Laraña"}, "geometry": {"type": "Point", "coordinates": [-5.9933169, 37.3928037]}}, {"type": "Feature", "properties": {"id_hdad": 58, "hermandad": "La Trinidad", "calle": "Calle Orfila"}, "geometry": {"type": "Point", "coordinates": [-5.9936844, 37.3934442]}}, {"type": "Feature", "properties": {"id_hdad": 58, "hermandad": "La Trinidad", "calle": "Calle Javier Lasso de la Vega"}, "geometry": {"type": "Point", "coordinates": [-5.9942892, 37.3936065]}}, {"type": "Feature", "properties": {"id_hdad": 58, "hermandad": "La Trinidad", "calle": "Calle Trajano"}, "geometry": {"type": "Point", "coordinates": [-5.995283, 37.393895]}}, {"type": "Feature", "properties": {"id_hdad": 58, "hermandad": "La Trinidad", "calle": "Plaza del Duque de la Victoria"}, "geometry": {"type": "Point", "coordinates": [-5.995615, 37.39345]}}, {"type": "Feature", "properties": {"id_hdad": 58, "hermandad": "La Trinidad", "calle": "La Campana"}, "geometry": {"type": "Point", "coordinates": [-5.995376, 37.392725]}}, {"type": "Feature", "properties": {"id_hdad": 58, "hermandad": "La Trinidad", "calle": "Calle Sierpes"}, "geometry": {"type": "Point", "coordinates": [-5.9945161, 37.3909308]}}, {"type": "Feature", "properties": {"id_hdad": 58, "hermandad": "La Trinidad", "calle": "Plaza de San Francisco"}, "geometry": {"type": "Point", "coordinates": [-5.994175, 37.389143]}}, {"type": "Feature", "properties": {"id_hdad": 58, "hermandad": "La Trinidad", "calle": "Avenida de la Constitución"}, "geometry": {"type": "Point", "coordinates": [-5.9942267, 37.38731]}}, {"type": "Feature", "properties": {"id_hdad": 58, "hermandad": "La Trinidad", "calle": "Calle Cardenal Carlos Amigo"}, "geometry": {"type": "Point", "coordinates": [-5.9934331, 37.3854932]}}, {"type": "Feature", "properties": {"id_hdad": 58, "hermandad": "La Trinidad", "calle": "Calle Alemanes"}, "geometry": {"type": "Point", "coordinates": [-5.99271, 37.386038]}}, {"type": "Feature", "properties": {"id_hdad": 58, "hermandad": "La Trinidad", "calle": "Calle Álvarez Quintero"}, "geometry": {"type": "Point", "coordinates": [-5.9925107, 37.3865266]}}, {"type": "Feature", "properties": {"id_hdad": 58, "hermandad": "La Trinidad", "calle": "Calle Argote de Molina"}, "geometry": {"type": "Point", "coordinates": [-5.993054, 37.386917]}}, {"type": "Feature", "properties": {"id_hdad": 58, "hermandad": "La Trinidad", "calle": "Calle Placentines"}, "geometry": {"type": "Point", "coordinates": [-5.992594, 37.387654]}}, {"type": "Feature", "properties": {"id_hdad": 58, "hermandad": "La Trinidad", "calle": "Calle Francos"}, "geometry": {"type": "Point", "coordinates": [-5.992784, 37.388285]}}, {"type": "Feature", "properties": {"id_hdad": 58, "hermandad": "La Trinidad", "calle": "Cuesta del Rosario"}, "geometry": {"type": "Point", "coordinates": [-5.992568, 37.389176]}}, {"type": "Feature", "properties": {"id_hdad": 58, "hermandad": "La Trinidad", "calle": "Calle Jesús de las Tres Caídas"}, "geometry": {"type": "Point", "coordinates": [-5.991765, 37.389785]}}, {"type": "Feature", "properties": {"id_hdad": 58, "hermandad": "La Trinidad", "calle": "Calle Odreros"}, "geometry": {"type": "Point", "coordinates": [-5.990856, 37.389772]}}, {"type": "Feature", "properties": {"id_hdad": 58, "hermandad": "La Trinidad", "calle": "Calle Boteros"}, "geometry": {"type": "Point", "coordinates": [-5.9902529, 37.3906875]}}, {"type": "Feature", "properties": {"id_hdad": 58, "hermandad": "La Trinidad", "calle": "Plaza de San Ildefonso"}, "geometry": {"type": "Point", "coordinates": [-5.9891312, 37.3904536]}}, {"type": "Feature", "properties": {"id_hdad": 58, "hermandad": "La Trinidad", "calle": "Calle Zamudio"}, "geometry": {"type": "Point", "coordinates": [-5.9884604, 37.3908097]}}, {"type": "Feature", "properties": {"id_hdad": 58, "hermandad": "La Trinidad", "calle": "Plaza de San Leandro"}, "geometry": {"type": "Point", "coordinates": [-5.9882658, 37.3910695]}}, {"type": "Feature", "properties": {"id_hdad": 58, "hermandad": "La Trinidad", "calle": "Calle Francisco Carrión Mejías"}, "geometry": {"type": "Point", "coordinates": [-5.9880143, 37.3916455]}}, {"type": "Feature", "properties": {"id_hdad": 58, "hermandad": "La Trinidad", "calle": "Calle Juan de Mesa"}, "geometry": {"type": "Point", "coordinates": [-5.9879706, 37.3925439]}}, {"type": "Feature", "properties": {"id_hdad": 58, "hermandad": "La Trinidad", "calle": "Plaza Ponce de León"}, "geometry": {"type": "Point", "coordinates": [-5.9874685, 37.3930804]}}, {"type": "Feature", "properties": {"id_hdad": 58, "hermandad": "La Trinidad", "calle": "Calle Escuelas Pías"}, "geometry": {"type": "Point", "coordinates": [-5.9859509, 37.3934436]}}, {"type": "Feature", "properties": {"id_hdad": 58, "hermandad": "La Trinidad", "calle": "Plaza Padre Jerónimo de Córdoba"}, "geometry": {"type": "Point", "coordinates": [-5.9862759, 37.3929629]}}, {"type": "Feature", "properties": {"id_hdad": 58, "hermandad": "La Trinidad", "calle": "Calle Jáuregui"}, "geometry": {"type": "Point", "coordinates": [-5.9856192, 37.3931386]}}, {"type": "Feature", "properties": {"id_hdad": 58, "hermandad": "La Trinidad", "calle": "Calle Puñonrostro"}, "geometry": {"type": "Point", "coordinates": [-5.9844187, 37.393179]}}, {"type": "Feature", "properties": {"id_hdad": 58, "hermandad": "La Trinidad", "calle": "Calle Valle"}, "geometry": {"type": "Point", "coordinates": [-5.9841701, 37.3941856]}}, {"type": "Feature", "properties": {"id_hdad": 58, "hermandad": "La Trinidad", "calle": "Calle Cristo de las Cinco Llagas"}, "geometry": {"type": "Point", "coordinates": [-5.9844585, 37.3951973]}}, {"type": "Feature", "properties": {"id_hdad": 58, "hermandad": "La Trinidad", "calle": "Calle Sol"}, "geometry": {"type": "Point", "coordinates": [-5.9848068, 37.3956539]}}, {"type": "Feature", "properties": {"id_hdad": 58, "hermandad": "La Trinidad", "calle": "Calle Madre Isabel de la Trinidad"}, "geometry": {"type": "Point", "coordinates": [-5.9818943, 37.3968471]}}, {"type": "Feature", "properties": {"id_hdad": 58, "hermandad": "La Trinidad", "calle": "Calle María Auxiliadora"}, "geometry": {"type": "Point", "coordinates": [-5.981559, 37.396986]}}]}