{
  "type": "FeatureCollection",
  "features": [
    {
      "type": "Feature",
      "properties": {
        "id_hdad": 10,
        "nombre": "San Pablo",
        "dia": "lunes-santo"
      },
      "geometry": {
        "type": "LineString",
        "coordinates": [
          [
            -5.9587207,
            37.3990326
          ],
          [
            -5.9590896,
            37.398715
          ],
          [
            -5.9602938,
            37.3982286
          ],
          [
            -5.9613976,
            37.3976764
          ],
          [
            -5.9619082,
            37.3973116
          ],
          [
            -5.962331,
            37.3968713
          ],
          [
            -5.9626041,
            37.3965945
          ],
          [
            -5.9627842,
            37.3964702
          ],
          [
            -5.9641833,
            37.395398
          ],
          [
            -5.9656138,
            37.3940416
          ],
          [
            -5.9660063,
            37.3933245
          ],
          [
            -5.9664043,
            37.3925137
          ],
          [
            -5.9666445,
            37.392278
          ],
          [
            -5.9672513,
            37.3922137
          ],
          [
            -5.9678535,
            37.3921569
          ],
          [
            -5.9682823,
            37.3918245
          ],
          [
            -5.969902,
            37.3905478
          ],
          [
            -5.9708169,
            37.3898374
          ],
          [
            -5.9706688,
            37.3884794
          ],
          [
            -5.9705603,
            37.3873993
          ],
          [
            -5.9734217,
            37.387267
          ],
          [
            -5.9757851,
            37.3871537
          ],
          [
            -5.9780363,
            37.3871652
          ],
          [
            -5.9794206,
            37.3875522
          ],
          [
            -5.9801,
            37.3876846
          ],
          [
            -5.9808947,
            37.3877763
          ],
          [
            -5.9816638,
            37.3878578
          ],
          [
            -5.98221,
            37.388102
          ],
          [
            -5.983147,
            37.388664
          ],
          [
            -5.984131,
            37.389047
          ],
          [
            -5.984472,
            37.389187
          ],
          [
            -5.9846,
            37.389231
          ],
          [
            -5.985444,
            37.389615
          ],
          [
            -5.9858628,
            37.3897627
          ],
          [
            -5.9865122,
            37.3897508
          ],
          [
            -5.987031,
            37.389815
          ],
          [
            -5.987752,
            37.389879
          ],
          [
            -5.9883845,
            37.389905
          ],
          [
            -5.9889966,
            37.3898398
          ],
          [
            -5.9895042,
            37.389911
          ],
          [
            -5.989974,
            37.390022
          ],
          [
            -5.9902506,
            37.3900829
          ],
          [
            -5.9904676,
            37.3902018
          ],
          [
            -5.9908586,
            37.3897675
          ],
          [
            -5.9912822,
            37.389819
          ],
          [
            -5.991877737588801,
            37.389764333519445
          ],
          [
            -5.99276171628195,
            37.38971492214055
          ],
          [
            -5.9931891,
            37.389663
          ],
          [
            -5.9932761,
            37.3895074
          ],
          [
            -5.9933414,
            37.3893777
          ],
          [
            -5.9934067,
            37.3893691
          ],
          [
            -5.9937875,
            37.3893604
          ],
          [
            -5.9941085,
            37.3891184
          ],
          [
            -5.9949627,
            37.3890535
          ],
          [
            -5.995049,
            37.3897388
          ],
          [
            -5.9951669,
            37.3902317
          ],
          [
            -5.9953197,
            37.3907871
          ],
          [
            -5.995383,
            37.391055
          ],
          [
            -5.9954178,
            37.3914794
          ],
          [
            -5.9954615,
            37.3920765
          ],
          [
            -5.995386,
            37.3924668
          ],
          [
            -5.9954141,
            37.3927175
          ],
          [
            -5.994924,
            37.392751
          ],
          [
            -5.994797,
            37.391803
          ],
          [
            -5.994542,
            37.390976
          ],
          [
            -5.994258,
            37.389845
          ],
          [
            -5.994175,
            37.389143
          ],
          [
            -5.994151,
            37.388605
          ],
          [
            -5.994169,
            37.388187
          ],
          [
            -5.994296,
            37.388071
          ],
          [
            -5.9943041,
            37.3879286
          ],
          [
            -5.9942267,
            37.38731
          ],
          [
            -5.9941493,
            37.386713
          ],
          [
            -5.9940679,
            37.3860718
          ],
          [
            -5.9940344,
            37.3857616
          ],
          [
            -5.993999,
            37.385447
          ],
          [
            -5.9934331,
            37.3854932
          ],
          [
            -5.9929686,
            37.3855304
          ],
          [
            -5.992619,
            37.385552
          ],
          [
            -5.9926646,
            37.3858225
          ],
          [
            -5.99271,
            37.386038
          ],
          [
            -5.992325,
            37.386077
          ],
          [
            -5.992365,
            37.386288
          ],
          [
            -5.992492,
            37.386409
          ],
          [
            -5.9925251,
            37.3867423
          ],
          [
            -5.9927475,
            37.3868044
          ],
          [
            -5.993024,
            37.3867758
          ],
          [
            -5.993042,
            37.3870002
          ],
          [
            -5.9927836,
            37.3872438
          ],
          [
            -5.9924891,
            37.38743
          ],
          [
            -5.992542,
            37.387587
          ],
          [
            -5.992718,
            37.387895
          ],
          [
            -5.992766,
            37.388238
          ],
          [
            -5.9927633,
            37.3884709
          ],
          [
            -5.9927575,
            37.3885996
          ],
          [
            -5.9926569,
            37.3887551
          ],
          [
            -5.9925787,
            37.388946
          ],
          [
            -5.9925563,
            37.3892169
          ],
          [
            -5.9925619,
            37.3894345
          ],
          [
            -5.9924278,
            37.3895988
          ],
          [
            -5.9923216,
            37.3897828
          ],
          [
            -5.9923272,
            37.3900004
          ],
          [
            -5.9923866,
            37.3903598
          ],
          [
            -5.9923871,
            37.3910159
          ],
          [
            -5.9922867,
            37.3910709
          ],
          [
            -5.9922175,
            37.3911451
          ],
          [
            -5.9921518,
            37.3912771
          ],
          [
            -5.9921172,
            37.3914228
          ],
          [
            -5.9920376,
            37.3918324
          ],
          [
            -5.9919684,
            37.3922863
          ],
          [
            -5.9922244,
            37.3922973
          ],
          [
            -5.992221,
            37.3927949
          ],
          [
            -5.991499,
            37.3927
          ],
          [
            -5.99088,
            37.39261
          ],
          [
            -5.9901991,
            37.3925095
          ],
          [
            -5.989692,
            37.392505
          ],
          [
            -5.989031,
            37.392704
          ],
          [
            -5.9886598,
            37.3928715
          ],
          [
            -5.988267,
            37.392909
          ],
          [
            -5.9874685,
            37.3930804
          ],
          [
            -5.9865688,
            37.3933251
          ],
          [
            -5.9855057,
            37.3935423
          ],
          [
            -5.9850559,
            37.393655
          ],
          [
            -5.9845126,
            37.3939272
          ],
          [
            -5.9844227,
            37.3939024
          ],
          [
            -5.9841078,
            37.3942461
          ],
          [
            -5.983959,
            37.3943945
          ],
          [
            -5.9839002,
            37.3945979
          ],
          [
            -5.9839521,
            37.3948344
          ],
          [
            -5.9839105,
            37.3948399
          ],
          [
            -5.9838552,
            37.3946749
          ],
          [
            -5.9836419,
            37.3946234
          ],
          [
            -5.9834261,
            37.3945485
          ],
          [
            -5.9832772,
            37.3947219
          ],
          [
            -5.9826267,
            37.394414
          ],
          [
            -5.9819554,
            37.3941223
          ],
          [
            -5.9812338,
            37.3951153
          ],
          [
            -5.9801646,
            37.394626
          ],
          [
            -5.9801058,
            37.3946947
          ],
          [
            -5.9788894,
            37.3954101
          ],
          [
            -5.977847,
            37.3959989
          ],
          [
            -5.9771567,
            37.3962345
          ],
          [
            -5.97541,
            37.3970369
          ],
          [
            -5.9746546,
            37.3961315
          ],
          [
            -5.9733316,
            37.3950985
          ],
          [
            -5.9720582,
            37.394106
          ],
          [
            -5.9711817,
            37.3934299
          ],
          [
            -5.9709703,
            37.3934004
          ],
          [
            -5.9707745,
            37.3933393
          ],
          [
            -5.9706934,
            37.3931804
          ],
          [
            -5.9707093,
            37.3929769
          ],
          [
            -5.9698426,
            37.3922651
          ],
          [
            -5.9687939,
            37.3914558
          ],
          [
            -5.9678557,
            37.3921821
          ],
          [
            -5.9666448,
            37.3923019
          ],
          [
            -5.9664588,
            37.3924843
          ],
          [
            -5.9656257,
            37.3940648
          ],
          [
            -5.9648181,
            37.3948353
          ],
          [
            -5.9641438,
            37.395464
          ],
          [
            -5.9630752,
            37.3962674
          ],
          [
            -5.9624339,
            37.3967958
          ],
          [
            -5.9619439,
            37.3973148
          ],
          [
            -5.9614134,
            37.3977016
          ],
          [
            -5.9606622,
            37.3980791
          ],
          [
            -5.9598863,
            37.3984093
          ],
          [
            -5.9593157,
            37.3986357
          ],
          [
            -5.9589872,
            37.3988244
          ],
          [
            -5.9587378,
            37.3990477
          ]
        ]
      }
    },
    {
      "type": "Feature",
      "properties": {
        "id_hdad": 10,
        "hermandad": "San Pablo",
        "calle": "Avenida de Pedro Romero",
        "osm": "Avenida de Pedro Romero"
      },
      "geometry": {
        "type": "Point",
        "coordinates": [
          -5.958713,
          37.3991125
        ]
      }
    },
    {
      "type": "Feature",
      "properties": {
        "id_hdad": 10,
        "hermandad": "San Pablo",
        "calle": "Calle Luis Montoto",
        "osm": "Calle Luis Montoto"
      },
      "geometry": {
        "type": "Point",
        "coordinates": [
          -5.98221,
          37.388102
        ]
      }
    },
    {
      "type": "Feature",
      "properties": {
        "id_hdad": 10,
        "hermandad": "San Pablo",
        "calle": "Calle Puerta de Carmona",
        "osm": "Calle Puerta de Carmona"
      },
      "geometry": {
        "type": "Point",
        "coordinates": [
          -5.9846,
          37.389231
        ]
      }
    },
    {
      "type": "Feature",
      "properties": {
        "id_hdad": 10,
        "hermandad": "San Pablo",
        "calle": "Calle San Esteban",
        "osm": "Calle San Esteban"
      },
      "geometry": {
        "type": "Point",
        "coordinates": [
          -5.985444,
          37.389615
        ]
      }
    },
    {
      "type": "Feature",
      "properties": {
        "id_hdad": 10,
        "hermandad": "San Pablo",
        "calle": "Plaza de Pilatos",
        "osm": "Plaza de Pilatos"
      },
      "geometry": {
        "type": "Point",
        "coordinates": [
          -5.987031,
          37.389815
        ]
      }
    },
    {
      "type": "Feature",
      "properties": {
        "id_hdad": 10,
        "hermandad": "San Pablo",
        "calle": "Calle Águilas",
        "osm": "Calle Águilas"
      },
      "geometry": {
        "type": "Point",
        "coordinates": [
          -5.987752,
          37.389879
        ]
      }
    },
    {
      "type": "Feature",
      "properties": {
        "id_hdad": 10,
        "hermandad": "San Pablo",
        "calle": "Calle Alfalfa",
        "osm": "Calle Alfalfa"
      },
      "geometry": {
        "type": "Point",
        "coordinates": [
          -5.989974,
          37.390022
        ]
      }
    },
    {
      "type": "Feature",
      "properties": {
        "id_hdad": 10,
        "hermandad": "San Pablo",
        "calle": "Calle Jesús de las Tres Caídas",
        "osm": "Calle Jesús de las Tres Caídas"
      },
      "geometry": {
        "type": "Point",
        "coordinates": [
          -5.990668,
          37.389983
        ]
      }
    },
    {
      "type": "Feature",
      "properties": {
        "id_hdad": 10,
        "hermandad": "San Pablo",
        "calle": "Cuesta del Rosario",
        "osm": "Calle Cuesta del Rosario"
      },
      "geometry": {
        "type": "Point",
        "coordinates": [
          -5.991877737588801,
          37.389764333519445
        ]
      }
    },
    {
      "type": "Feature",
      "properties": {
        "id_hdad": 10,
        "hermandad": "San Pablo",
        "calle": "Calle Villegas",
        "osm": "Calle Villegas"
      },
      "geometry": {
        "type": "Point",
        "coordinates": [
          -5.99276171628195,
          37.38971492214055
        ]
      }
    },
    {
      "type": "Feature",
      "properties": {
        "id_hdad": 10,
        "hermandad": "San Pablo",
        "calle": "Calle Álvarez Quintero",
        "osm": "Calle Álvarez Quintero"
      },
      "geometry": {
        "type": "Point",
        "coordinates": [
          -5.993273,
          37.38953
        ]
      }
    },
    {
      "type": "Feature",
      "properties": {
        "id_hdad": 10,
        "hermandad": "San Pablo",
        "calle": "Calle Entrecárceles",
        "osm": "Calle Entrecárceles"
      },
      "geometry": {
        "type": "Point",
        "coordinates": [
          -5.99373,
          37.38936
        ]
      }
    },
    {
      "type": "Feature",
      "properties": {
        "id_hdad": 10,
        "hermandad": "San Pablo",
        "calle": "Calle Francisco Bruna",
        "osm": "Calle Francisco Bruna"
      },
      "geometry": {
        "type": "Point",
        "coordinates": [
          -5.9939092,
          37.3892628
        ]
      }
    },
    {
      "type": "Feature",
      "properties": {
        "id_hdad": 10,
        "hermandad": "San Pablo",
        "calle": "Plaza de San Francisco",
        "osm": "Plaza de San Francisco"
      },
      "geometry": {
        "type": "Point",
        "coordinates": [
          -5.994154,
          37.38867
        ]
      }
    },
    {
      "type": "Feature",
      "properties": {
        "id_hdad": 10,
        "hermandad": "San Pablo",
        "calle": "Calle Granada",
        "osm": "Calle Granada"
      },
      "geometry": {
        "type": "Point",
        "coordinates": [
          -5.9946844,
          37.3890739
        ]
      }
    },
    {
      "type": "Feature",
      "properties": {
        "id_hdad": 10,
        "hermandad": "San Pablo",
        "calle": "Calle Tetuán",
        "osm": "Calle Tetuán"
      },
      "geometry": {
        "type": "Point",
        "coordinates": [
          -5.9951669,
          37.3902317
        ]
      }
    },
    {
      "type": "Feature",
      "properties": {
        "id_hdad": 10,
        "hermandad": "San Pablo",
        "calle": "Calle Velázquez",
        "osm": "Calle Velázquez"
      },
      "geometry": {
        "type": "Point",
        "coordinates": [
          -5.9954035,
          37.3911654
        ]
      }
    },
    {
      "type": "Feature",
      "properties": {
        "id_hdad": 10,
        "hermandad": "San Pablo",
        "calle": "Calle O'Donnell",
        "osm": "Calle O'Donnell"
      },
      "geometry": {
        "type": "Point",
        "coordinates": [
          -5.995454,
          37.392155
        ]
      }
    },
    {
      "type": "Feature",
      "properties": {
        "id_hdad": 10,
        "hermandad": "San Pablo",
        "calle": "La Campana",
        "osm": "Calle Campana"
      },
      "geometry": {
        "type": "Point",
        "coordinates": [
          -5.995376,
          37.392725
        ]
      }
    },
    {
      "type": "Feature",
      "properties": {
        "id_hdad": 10,
        "hermandad": "San Pablo",
        "calle": "Calle Sierpes",
        "osm": "Calle Sierpes"
      },
      "geometry": {
        "type": "Point",
        "coordinates": [
          -5.9945871,
          37.3911633
        ]
      }
    },
    {
      "type": "Feature",
      "properties": {
        "id_hdad": 10,
        "hermandad": "San Pablo",
        "calle": "Plaza de San Francisco",
        "osm": "Plaza de San Francisco"
      },
      "geometry": {
        "type": "Point",
        "coordinates": [
          -5.994154,
          37.38867
        ]
      }
    },
    {
      "type": "Feature",
      "properties": {
        "id_hdad": 10,
        "hermandad": "San Pablo",
        "calle": "Avenida de la Constitución",
        "osm": "Avenida de la Constitución"
      },
      "geometry": {
        "type": "Point",
        "coordinates": [
          -5.994185,
          37.386838
        ]
      }
    },
    {
      "type": "Feature",
      "properties": {
        "id_hdad": 10,
        "hermandad": "San Pablo",
        "calle": "Calle Cardenal Carlos Amigo",
        "osm": "Calle Cardenal Carlos Amigo"
      },
      "geometry": {
        "type": "Point",
        "coordinates": [
          -5.992537,
          37.386555
        ]
      }
    },
    {
      "type": "Feature",
      "properties": {
        "id_hdad": 10,
        "hermandad": "San Pablo",
        "calle": "Calle Alemanes",
        "osm": "Calle Alemanes"
      },
      "geometry": {
        "type": "Point",
        "coordinates": [
          -5.992807,
          37.386777
        ]
      }
    },
    {
      "type": "Feature",
      "properties": {
        "id_hdad": 10,
        "hermandad": "San Pablo",
        "calle": "Calle Álvarez Quintero",
        "osm": "Calle Álvarez Quintero"
      },
      "geometry": {
        "type": "Point",
        "coordinates": [
          -5.993054,
          37.386917
        ]
      }
    },
    {
      "type": "Feature",
      "properties": {
        "id_hdad": 10,
        "hermandad": "San Pablo",
        "calle": "Calle Argote de Molina",
        "osm": "Calle Argote de Molina"
      },
      "geometry": {
        "type": "Point",
        "coordinates": [
          -5.992697,
          37.387288
        ]
      }
    },
    {
      "type": "Feature",
      "properties": {
        "id_hdad": 10,
        "hermandad": "San Pablo",
        "calle": "Calle Placentines",
        "osm": "Calle Placentines"
      },
      "geometry": {
        "type": "Point",
        "coordinates": [
          -5.992594,
          37.387654
        ]
      }
    },
    {
      "type": "Feature",
      "properties": {
        "id_hdad": 10,
        "hermandad": "San Pablo",
        "calle": "Calle Francos",
        "osm": "Calle Francos"
      },
      "geometry": {
        "type": "Point",
        "coordinates": [
          -5.9927503,
          37.3882811
        ]
      }
    },
    {
      "type": "Feature",
      "properties": {
        "id_hdad": 10,
        "hermandad": "San Pablo",
        "calle": "Calle Lineros",
        "osm": "Calle Lineros"
      },
      "geometry": {
        "type": "Point",
        "coordinates": [
          -5.9923836,
          37.3907074
        ]
      }
    },
    {
      "type": "Feature",
      "properties": {
        "id_hdad": 10,
        "hermandad": "San Pablo",
        "calle": "Plaza de la Encarnación",
        "osm": "Plaza de la Encarnación"
      },
      "geometry": {
        "type": "Point",
        "coordinates": [
          -5.991499,
          37.3927
        ]
      }
    },
    {
      "type": "Feature",
      "properties": {
        "id_hdad": 10,
        "hermandad": "San Pablo",
        "calle": "Calle Imagen",
        "osm": "Calle Imagen"
      },
      "geometry": {
        "type": "Point",
        "coordinates": [
          -5.99088,
          37.39261
        ]
      }
    },
    {
      "type": "Feature",
      "properties": {
        "id_hdad": 10,
        "hermandad": "San Pablo",
        "calle": "Plaza de San Pedro",
        "osm": "Plaza de San Pedro"
      },
      "geometry": {
        "type": "Point",
        "coordinates": [
          -5.989692,
          37.392505
        ]
      }
    },
    {
      "type": "Feature",
      "properties": {
        "id_hdad": 10,
        "hermandad": "San Pablo",
        "calle": "Calle Almirante Apodaca",
        "osm": "Calle Almirante Apodaca"
      },
      "geometry": {
        "type": "Point",
        "coordinates": [
          -5.989031,
          37.392704
        ]
      }
    },
    {
      "type": "Feature",
      "properties": {
        "id_hdad": 10,
        "hermandad": "San Pablo",
        "calle": "Calle Juan de Mesa",
        "osm": "Calle Juan de Mesa"
      },
      "geometry": {
        "type": "Point",
        "coordinates": [
          -5.988267,
          37.392909
        ]
      }
    },
    {
      "type": "Feature",
      "properties": {
        "id_hdad": 10,
        "hermandad": "San Pablo",
        "calle": "Plaza de Ponce de León",
        "osm": "Plaza Ponce de León"
      },
      "geometry": {
        "type": "Point",
        "coordinates": [
          -5.9874545,
          37.393084
        ]
      }
    },
    {
      "type": "Feature",
      "properties": {
        "id_hdad": 10,
        "hermandad": "San Pablo",
        "calle": "Calle Pinto",
        "osm": "Calle Pinto"
      },
      "geometry": {
        "type": "Point",
        "coordinates": [
          -5.984483,
          37.3938976
        ]
      }
    },
    {
      "type": "Feature",
      "properties": {
        "id_hdad": 10,
        "hermandad": "San Pablo",
        "calle": "Calle Valle",
        "osm": "Calle Valle"
      },
      "geometry": {
        "type": "Point",
        "coordinates": [
          -5.9841701,
          37.3941856
        ]
      }
    },
    {
      "type": "Feature",
      "properties": {
        "id_hdad": 10,
        "hermandad": "San Pablo",
        "calle": "Calle Mateos",
        "osm": "Calle Mateos"
      },
      "geometry": {
        "type": "Point",
        "coordinates": [
          -5.9836419,
          37.3946234
        ]
      }
    },
    {
      "type": "Feature",
      "properties": {
        "id_hdad": 10,
        "hermandad": "San Pablo",
        "calle": "Calle María Auxiliadora",
        "osm": "Calle María Auxiliadora"
      },
      "geometry": {
        "type": "Point",
        "coordinates": [
          -5.9833741,
          37.3946202
        ]
      }
    },
    {
      "type": "Feature",
      "properties": {
        "id_hdad": 10,
        "hermandad": "San Pablo",
        "calle": "Avenida de Pedro Romero",
        "osm": "Avenida de Pedro Romero"
      },
      "geometry": {
        "type": "Point",
        "coordinates": [
          -5.9587284,
          37.3990879
        ]
      }
    }
  ]
}