{
  "type": "FeatureCollection",
  "features": [
    {
      "type": "Feature",
      "properties": {
        "id_hdad": 11,
        "nombre": "Redención",
        "dia": "lunes-santo"
      },
      "geometry": {
        "type": "LineString",
        "coordinates": [
          [
            -5.9866049,
            37.3914348
          ],
          [
            -5.9866341,
            37.3914724
          ],
          [
            -5.9864703,
            37.3915592
          ],
          [
            -5.9869653,
            37.3919381
          ],
          [
            -5.98747,
            37.392401
          ],
          [
            -5.987862,
            37.392952
          ],
          [
            -5.988267,
            37.392909
          ],
          [
            -5.988666,
            37.39284
          ],
          [
            -5.989031,
            37.392704
          ],
          [
            -5.989692,
            37.392505
          ],
          [
            -5.990142,
            37.392465
          ],
          [
            -5.99088,
            37.39261
          ],
          [
            -5.991499,
            37.3927
          ],
          [
            -5.9922302,
            37.392777
          ],
          [
            -5.992981,
            37.392804
          ],
          [
            -5.9933169,
            37.3928037
          ],
          [
            -5.9936593,
            37.3928157
          ],
          [
            -5.9936853,
            37.3929311
          ],
          [
            -5.993689,
            37.393287
          ],
          [
            -5.9936844,
            37.3934442
          ],
          [
            -5.993838,
            37.393693
          ],
          [
            -5.9940973,
            37.3936496
          ],
          [
            -5.9942892,
            37.3936065
          ],
          [
            -5.994575,
            37.393545
          ],
          [
            -5.9947522,
            37.3935137
          ],
          [
            -5.99499,
            37.3936695
          ],
          [
            -5.995283,
            37.393895
          ],
          [
            -5.99537,
            37.393742
          ],
          [
            -5.995446,
            37.393623
          ],
          [
            -5.995615,
            37.39345
          ],
          [
            -5.995633,
            37.393113
          ],
          [
            -5.995631,
            37.392901
          ],
          [
            -5.9956364,
            37.3927183
          ],
          [
            -5.995376,
            37.392725
          ],
          [
            -5.994924,
            37.392751
          ],
          [
            -5.994797,
            37.391803
          ],
          [
            -5.9945202,
            37.3909414
          ],
          [
            -5.994258,
            37.389845
          ],
          [
            -5.994175,
            37.389143
          ],
          [
            -5.994154,
            37.38867
          ],
          [
            -5.994169,
            37.388187
          ],
          [
            -5.994296,
            37.388071
          ],
          [
            -5.9943041,
            37.3879286
          ],
          [
            -5.9942267,
            37.38731
          ],
          [
            -5.9941493,
            37.386713
          ],
          [
            -5.9940679,
            37.3860718
          ],
          [
            -5.9940344,
            37.3857616
          ],
          [
            -5.993999,
            37.385447
          ],
          [
            -5.9934331,
            37.3854932
          ],
          [
            -5.9929686,
            37.3855304
          ],
          [
            -5.992619,
            37.385552
          ],
          [
            -5.9926646,
            37.3858225
          ],
          [
            -5.99271,
            37.386038
          ],
          [
            -5.992325,
            37.386077
          ],
          [
            -5.992365,
            37.386288
          ],
          [
            -5.9924514,
            37.3863233
          ],
          [
            -5.9925171,
            37.3864123
          ],
          [
            -5.992537,
            37.386555
          ],
          [
            -5.992515,
            37.38666
          ],
          [
            -5.992549,
            37.386763
          ],
          [
            -5.992807,
            37.386777
          ],
          [
            -5.993037,
            37.386751
          ],
          [
            -5.993054,
            37.386917
          ],
          [
            -5.9930245,
            37.3870101
          ],
          [
            -5.9929267,
            37.3871073
          ],
          [
            -5.992697,
            37.387288
          ],
          [
            -5.992489,
            37.387452
          ],
          [
            -5.992594,
            37.387654
          ],
          [
            -5.992704,
            37.387858
          ],
          [
            -5.99277,
            37.38804
          ],
          [
            -5.9927937,
            37.3883437
          ],
          [
            -5.992748,
            37.388584
          ],
          [
            -5.992999,
            37.388611
          ],
          [
            -5.993264,
            37.388615
          ],
          [
            -5.993288,
            37.389051
          ],
          [
            -5.99338,
            37.389346
          ],
          [
            -5.993302,
            37.389446
          ],
          [
            -5.993273,
            37.38953
          ],
          [
            -5.992781,
            37.389701
          ],
          [
            -5.991765,
            37.389785
          ],
          [
            -5.991357,
            37.389798
          ],
          [
            -5.991092,
            37.38979
          ],
          [
            -5.990856,
            37.389772
          ],
          [
            -5.990668,
            37.389983
          ],
          [
            -5.9903819,
            37.3904418
          ],
          [
            -5.9902529,
            37.3906875
          ],
          [
            -5.9904478,
            37.3907416
          ],
          [
            -5.9903251,
            37.390862
          ],
          [
            -5.990158,
            37.3910193
          ],
          [
            -5.9900213,
            37.3911556
          ],
          [
            -5.9899556,
            37.3912991
          ],
          [
            -5.989917,
            37.3914874
          ],
          [
            -5.9896613,
            37.3914659
          ],
          [
            -5.9894715,
            37.3914999
          ],
          [
            -5.9893223,
            37.3915316
          ],
          [
            -5.9891074,
            37.3915506
          ],
          [
            -5.9888014,
            37.3915014
          ],
          [
            -5.9888261,
            37.3912306
          ],
          [
            -5.9885589,
            37.3910758
          ],
          [
            -5.9883511,
            37.39097
          ],
          [
            -5.9882658,
            37.3910695
          ],
          [
            -5.9881593,
            37.3912219
          ],
          [
            -5.9880689,
            37.3914025
          ],
          [
            -5.9880143,
            37.3916455
          ],
          [
            -5.9879415,
            37.3921737
          ],
          [
            -5.9879415,
            37.3923472
          ],
          [
            -5.9879706,
            37.3925439
          ],
          [
            -5.9880173,
            37.39293
          ],
          [
            -5.9878572,
            37.3929561
          ],
          [
            -5.9875259,
            37.3924528
          ],
          [
            -5.9869653,
            37.3919352
          ],
          [
            -5.9867105,
            37.3917472
          ],
          [
            -5.9864666,
            37.3915592
          ],
          [
            -5.9866341,
            37.3914782
          ],
          [
            -5.9866049,
            37.391429
          ]
        ]
      }
    },
    {
      "type": "Feature",
      "properties": {
        "id_hdad": 11,
        "hermandad": "Redención",
        "calle": "Calle Santiago",
        "osm": "Calle Santiago"
      },
      "geometry": {
        "type": "Point",
        "coordinates": [
          -5.9868,
          37.391806
        ]
      }
    },
    {
      "type": "Feature",
      "properties": {
        "id_hdad": 11,
        "hermandad": "Redención",
        "calle": "Calle Juan de Mesa",
        "osm": "Calle Juan de Mesa"
      },
      "geometry": {
        "type": "Point",
        "coordinates": [
          -5.9882657,
          37.3929042
        ]
      }
    },
    {
      "type": "Feature",
      "properties": {
        "id_hdad": 11,
        "hermandad": "Redención",
        "calle": "Calle Almirante Apodaca",
        "osm": "Calle Almirante Apodaca"
      },
      "geometry": {
        "type": "Point",
        "coordinates": [
          -5.989031,
          37.392704
        ]
      }
    },
    {
      "type": "Feature",
      "properties": {
        "id_hdad": 11,
        "hermandad": "Redención",
        "calle": "Plaza de San Pedro",
        "osm": "Plaza de San Pedro"
      },
      "geometry": {
        "type": "Point",
        "coordinates": [
          -5.989692,
          37.392505
        ]
      }
    },
    {
      "type": "Feature",
      "properties": {
        "id_hdad": 11,
        "hermandad": "Redención",
        "calle": "Calle Imagen",
        "osm": "Calle Imagen"
      },
      "geometry": {
        "type": "Point",
        "coordinates": [
          -5.99088,
          37.39261
        ]
      }
    },
    {
      "type": "Feature",
      "properties": {
        "id_hdad": 11,
        "hermandad": "Redención",
        "calle": "Plaza de la Encarnación",
        "osm": "Plaza de la Encarnación"
      },
      "geometry": {
        "type": "Point",
        "coordinates": [
          -5.991499,
          37.3927
        ]
      }
    },
    {
      "type": "Feature",
      "properties": {
        "id_hdad": 11,
        "hermandad": "Redención",
        "calle": "Calle Laraña",
        "osm": "Calle Laraña"
      },
      "geometry": {
        "type": "Point",
        "coordinates": [
          -5.992981,
          37.392804
        ]
      }
    },
    {
      "type": "Feature",
      "properties": {
        "id_hdad": 11,
        "hermandad": "Redención",
        "calle": "Calle Orfila",
        "osm": "Calle Orfila"
      },
      "geometry": {
        "type": "Point",
        "coordinates": [
          -5.993689,
          37.393287
        ]
      }
    },
    {
      "type": "Feature",
      "properties": {
        "id_hdad": 11,
        "hermandad": "Redención",
        "calle": "Calle Javier Lasso de la Vega",
        "osm": "Calle Javier Lasso de la Vega"
      },
      "geometry": {
        "type": "Point",
        "coordinates": [
          -5.994575,
          37.393545
        ]
      }
    },
    {
      "type": "Feature",
      "properties": {
        "id_hdad": 11,
        "hermandad": "Redención",
        "calle": "Calle Trajano",
        "osm": "Calle Trajano"
      },
      "geometry": {
        "type": "Point",
        "coordinates": [
          -5.99537,
          37.393742
        ]
      }
    },
    {
      "type": "Feature",
      "properties": {
        "id_hdad": 11,
        "hermandad": "Redención",
        "calle": "Plaza del Duque de la Victoria (lado derecho)",
        "osm": "Plaza del Duque de la Victoria (lado derecho)"
      },
      "geometry": {
        "type": "Point",
        "coordinates": [
          -5.995633,
          37.393113
        ]
      }
    },
    {
      "type": "Feature",
      "properties": {
        "id_hdad": 11,
        "hermandad": "Redención",
        "calle": "La Campana",
        "osm": "Calle Campana"
      },
      "geometry": {
        "type": "Point",
        "coordinates": [
          -5.995376,
          37.392725
        ]
      }
    },
    {
      "type": "Feature",
      "properties": {
        "id_hdad": 11,
        "hermandad": "Redención",
        "calle": "Calle Sierpes",
        "osm": "Calle Sierpes"
      },
      "geometry": {
        "type": "Point",
        "coordinates": [
          -5.9947885,
          37.3908748
        ]
      }
    },
    {
      "type": "Feature",
      "properties": {
        "id_hdad": 11,
        "hermandad": "Redención",
        "calle": "Plaza de San Francisco",
        "osm": "Plaza de San Francisco"
      },
      "geometry": {
        "type": "Point",
        "coordinates": [
          -5.994154,
          37.38867
        ]
      }
    },
    {
      "type": "Feature",
      "properties": {
        "id_hdad": 11,
        "hermandad": "Redención",
        "calle": "Avenida de la Constitución",
        "osm": "Avenida de la Constitución"
      },
      "geometry": {
        "type": "Point",
        "coordinates": [
          -5.994185,
          37.386838
        ]
      }
    },
    {
      "type": "Feature",
      "properties": {
        "id_hdad": 11,
        "hermandad": "Redención",
        "calle": "Calle Cardenal Carlos Amigo",
        "osm": "Calle Cardenal Carlos Amigo"
      },
      "geometry": {
        "type": "Point",
        "coordinates": [
          -5.992537,
          37.386555
        ]
      }
    },
    {
      "type": "Feature",
      "properties": {
        "id_hdad": 11,
        "hermandad": "Redención",
        "calle": "Calle Alemanes",
        "osm": "Calle Alemanes"
      },
      "geometry": {
        "type": "Point",
        "coordinates": [
          -5.992807,
          37.386777
        ]
      }
    },
    {
      "type": "Feature",
      "properties": {
        "id_hdad": 11,
        "hermandad": "Redención",
        "calle": "Calle Álvarez Quintero",
        "osm": "Calle Álvarez Quintero"
      },
      "geometry": {
        "type": "Point",
        "coordinates": [
          -5.993054,
          37.386917
        ]
      }
    },
    {
      "type": "Feature",
      "properties": {
        "id_hdad": 11,
        "hermandad": "Redención",
        "calle": "Calle Argote de Molina",
        "osm": "Calle Argote de Molina"
      },
      "geometry": {
        "type": "Point",
        "coordinates": [
          -5.992697,
          37.387288
        ]
      }
    },
    {
      "type": "Feature",
      "properties": {
        "id_hdad": 11,
        "hermandad": "Redención",
        "calle": "Calle Placentines",
        "osm": "Calle Placentines"
      },
      "geometry": {
        "type": "Point",
        "coordinates": [
          -5.992594,
          37.387654
        ]
      }
    },
    {
      "type": "Feature",
      "properties": {
        "id_hdad": 11,
        "hermandad": "Redención",
        "calle": "Calle Francos",
        "osm": "Calle Francos"
      },
      "geometry": {
        "type": "Point",
        "coordinates": [
          -5.9927827,
          37.3883332
        ]
      }
    },
    {
      "type": "Feature",
      "properties": {
        "id_hdad": 11,
        "hermandad": "Redención",
        "calle": "Calle Chapineros",
        "osm": "Calle Chapineros"
      },
      "geometry": {
        "type": "Point",
        "coordinates": [
          -5.992999,
          37.388611
        ]
      }
    },
    {
      "type": "Feature",
      "properties": {
        "id_hdad": 11,
        "hermandad": "Redención",
        "calle": "Calle Álvarez Quintero",
        "osm": "Calle Álvarez Quintero"
      },
      "geometry": {
        "type": "Point",
        "coordinates": [
          -5.993273,
          37.38953
        ]
      }
    },
    {
      "type": "Feature",
      "properties": {
        "id_hdad": 11,
        "hermandad": "Redención",
        "calle": "Calle Villegas",
        "osm": "Calle Villegas"
      },
      "geometry": {
        "type": "Point",
        "coordinates": [
          -5.992781,
          37.389701
        ]
      }
    },
    {
      "type": "Feature",
      "properties": {
        "id_hdad": 11,
        "hermandad": "Redención",
        "calle": "Cuesta del Rosario",
        "osm": "Calle Cuesta del Rosario"
      },
      "geometry": {
        "type": "Point",
        "coordinates": [
          -5.991765,
          37.389785
        ]
      }
    },
    {
      "type": "Feature",
      "properties": {
        "id_hdad": 11,
        "hermandad": "Redención",
        "calle": "Calle Jesús de las Tres Caídas",
        "osm": "Calle Jesús de las Tres Caídas"
      },
      "geometry": {
        "type": "Point",
        "coordinates": [
          -5.990668,
          37.389983
        ]
      }
    },
    {
      "type": "Feature",
      "properties": {
        "id_hdad": 11,
        "hermandad": "Redención",
        "calle": "Calle Odreros",
        "osm": "Calle Odreros"
      },
      "geometry": {
        "type": "Point",
        "coordinates": [
          -5.9903819,
          37.3904418
        ]
      }
    },
    {
      "type": "Feature",
      "properties": {
        "id_hdad": 11,
        "hermandad": "Redención",
        "calle": "Calle Boteros",
        "osm": "Calle Boteros"
      },
      "geometry": {
        "type": "Point",
        "coordinates": [
          -5.9904407,
          37.3907341
        ]
      }
    },
    {
      "type": "Feature",
      "properties": {
        "id_hdad": 11,
        "hermandad": "Redención",
        "calle": "Calle Sales y Ferré",
        "osm": "Calle Sales y Ferré"
      },
      "geometry": {
        "type": "Point",
        "coordinates": [
          -5.9900259,
          37.3911493
        ]
      }
    },
    {
      "type": "Feature",
      "properties": {
        "id_hdad": 11,
        "hermandad": "Redención",
        "calle": "Plaza del Cristo de Burgos",
        "osm": "Plaza del Cristo de Burgos"
      },
      "geometry": {
        "type": "Point",
        "coordinates": [
          -5.9899441,
          37.3914474
        ]
      }
    },
    {
      "type": "Feature",
      "properties": {
        "id_hdad": 11,
        "hermandad": "Redención",
        "calle": "Calle Dormitorio",
        "osm": "Calle Dormitorio"
      },
      "geometry": {
        "type": "Point",
        "coordinates": [
          -5.98921,
          37.3915383
        ]
      }
    },
    {
      "type": "Feature",
      "properties": {
        "id_hdad": 11,
        "hermandad": "Redención",
        "calle": "Calle Alhóndiga",
        "osm": "Calle Alhóndiga"
      },
      "geometry": {
        "type": "Point",
        "coordinates": [
          -5.9888169,
          37.3913322
        ]
      }
    },
    {
      "type": "Feature",
      "properties": {
        "id_hdad": 11,
        "hermandad": "Redención",
        "calle": "Plaza de San Leandro",
        "osm": "Plaza de San Leandro"
      },
      "geometry": {
        "type": "Point",
        "coordinates": [
          -5.9886202,
          37.3911076
        ]
      }
    },
    {
      "type": "Feature",
      "properties": {
        "id_hdad": 11,
        "hermandad": "Redención",
        "calle": "Calle Francisco Carrión Mejías",
        "osm": "Calle Francisco Carrión Mejías"
      },
      "geometry": {
        "type": "Point",
        "coordinates": [
          -5.9880798,
          37.3913813
        ]
      }
    },
    {
      "type": "Feature",
      "properties": {
        "id_hdad": 11,
        "hermandad": "Redención",
        "calle": "Calle Juan de Mesa",
        "osm": "Calle Juan de Mesa"
      },
      "geometry": {
        "type": "Point",
        "coordinates": [
          -5.9882773,
          37.3929045
        ]
      }
    },
    {
      "type": "Feature",
      "properties": {
        "id_hdad": 11,
        "hermandad": "Redención",
        "calle": "Calle Santiago",
        "osm": "Calle Santiago"
      },
      "geometry": {
        "type": "Point",
        "coordinates": [
          -5.9868,
          37.391806
        ]
      }
    }
  ]
}