{
  "type": "FeatureCollection",
  "features": [
    {
      "type": "Feature",
      "properties": {
        "id_hdad": 21,
        "nombre": "La Candelaria",
        "dia": "martes-santo"
      },
      "geometry": {
        "type": "LineString",
        "coordinates": [
          [
            -5.9892314,
            37.3885302
          ],
          [
            -5.9891971,
            37.3884513
          ],
          [
            -5.9896368,
            37.3885724
          ],
          [
            -5.9897912,
            37.3887028
          ],
          [
            -5.9898688,
            37.3888726
          ],
          [
            -5.9899372,
            37.3890201
          ],
          [
            -5.9900154,
            37.389275
          ],
          [
            -5.9900734,
            37.389412
          ],
          [
            -5.9899874,
            37.3895921
          ],
          [
            -5.9901589083914715,
            37.38984005540638
          ],
          [
            -5.9902384,
            37.3900587
          ],
          [
            -5.9903449,
            37.390137
          ],
          [
            -5.9904691,
            37.3902124
          ],
          [
            -5.9905179,
            37.3902947
          ],
          [
            -5.9907029,
            37.390336
          ],
          [
            -5.9910223,
            37.3904407
          ],
          [
            -5.9911532,
            37.3904096
          ],
          [
            -5.9912273,
            37.3900874
          ],
          [
            -5.9912915,
            37.3898159
          ],
          [
            -5.991877737588801,
            37.389764333519445
          ],
          [
            -5.99276171628195,
            37.38971492214055
          ],
          [
            -5.993087,
            37.389679
          ],
          [
            -5.993132428703218,
            37.39005314738425
          ],
          [
            -5.993169,
            37.390185
          ],
          [
            -5.993243,
            37.390261
          ],
          [
            -5.993364,
            37.390816
          ],
          [
            -5.993467,
            37.391235
          ],
          [
            -5.9935458,
            37.3917711
          ],
          [
            -5.9936749,
            37.3930478
          ],
          [
            -5.9936844,
            37.3934442
          ],
          [
            -5.993838,
            37.393693
          ],
          [
            -5.9940973,
            37.3936496
          ],
          [
            -5.9942892,
            37.3936065
          ],
          [
            -5.994575,
            37.393545
          ],
          [
            -5.9947522,
            37.3935137
          ],
          [
            -5.99499,
            37.3936695
          ],
          [
            -5.995283,
            37.393895
          ],
          [
            -5.99537,
            37.393742
          ],
          [
            -5.995446,
            37.393623
          ],
          [
            -5.995615,
            37.39345
          ],
          [
            -5.995633,
            37.393113
          ],
          [
            -5.995631,
            37.392901
          ],
          [
            -5.9956336,
            37.3927225
          ],
          [
            -5.995376,
            37.392725
          ],
          [
            -5.994924,
            37.392751
          ],
          [
            -5.994797,
            37.391803
          ],
          [
            -5.9945202,
            37.3909414
          ],
          [
            -5.994258,
            37.389845
          ],
          [
            -5.994175,
            37.389143
          ],
          [
            -5.994154,
            37.38867
          ],
          [
            -5.994169,
            37.388187
          ],
          [
            -5.994296,
            37.388071
          ],
          [
            -5.9943041,
            37.3879286
          ],
          [
            -5.9942267,
            37.38731
          ],
          [
            -5.994185,
            37.386838
          ],
          [
            -5.9940344,
            37.3857616
          ],
          [
            -5.993999,
            37.385447
          ],
          [
            -5.9934331,
            37.3854932
          ],
          [
            -5.9929686,
            37.3855304
          ],
          [
            -5.992619,
            37.385552
          ],
          [
            -5.9926646,
            37.3858225
          ],
          [
            -5.99271,
            37.386038
          ],
          [
            -5.992325,
            37.386077
          ],
          [
            -5.9922162,
            37.3855949
          ],
          [
            -5.9921519,
            37.3853995
          ],
          [
            -5.9920345,
            37.385324
          ],
          [
            -5.9919283,
            37.3852485
          ],
          [
            -5.9918473,
            37.3851486
          ],
          [
            -5.9918473,
            37.3850842
          ],
          [
            -5.9921519,
            37.3849399
          ],
          [
            -5.9924191,
            37.384767
          ],
          [
            -5.9923917,
            37.3845631
          ],
          [
            -5.9922662,
            37.3843614
          ],
          [
            -5.9925309,
            37.3841793
          ],
          [
            -5.9926543,
            37.3840931
          ],
          [
            -5.992504,
            37.3837765
          ],
          [
            -5.992534,
            37.3836746
          ],
          [
            -5.992725,
            37.3835554
          ],
          [
            -5.9927687,
            37.3834448
          ],
          [
            -5.9929542,
            37.3830633
          ],
          [
            -5.9931343,
            37.3827254
          ],
          [
            -5.9932445,
            37.3823466
          ],
          [
            -5.9929076,
            37.3823011
          ],
          [
            -5.9918995,
            37.3820298
          ],
          [
            -5.9893917,
            37.3814097
          ],
          [
            -5.9888042,
            37.3824466
          ],
          [
            -5.9882289,
            37.38344
          ],
          [
            -5.9875125,
            37.3847282
          ],
          [
            -5.9868322,
            37.3859098
          ],
          [
            -5.9872648,
            37.3863201
          ],
          [
            -5.9877116,
            37.3866645
          ],
          [
            -5.9881776,
            37.3870928
          ],
          [
            -5.9889261,
            37.3880054
          ],
          [
            -5.9891188,
            37.3883243
          ],
          [
            -5.9891991,
            37.3884528
          ],
          [
            -5.9892245,
            37.3885165
          ]
        ]
      }
    },
    {
      "type": "Feature",
      "properties": {
        "id_hdad": 21,
        "hermandad": "La Candelaria",
        "calle": "Plaza Nuestro Padre Jesús de la Salud",
        "osm": "Plaza Nuestro Padre Jesús de la Salud"
      },
      "geometry": {
        "type": "Point",
        "coordinates": [
          -5.9892314,
          37.3885302
        ]
      }
    },
    {
      "type": "Feature",
      "properties": {
        "id_hdad": 21,
        "hermandad": "La Candelaria",
        "calle": "Calle Muñoz y Pabón",
        "osm": "Calle Muñoz y Pabón"
      },
      "geometry": {
        "type": "Point",
        "coordinates": [
          -5.989934004001618,
          37.38901791442554
        ]
      }
    },
    {
      "type": "Feature",
      "properties": {
        "id_hdad": 21,
        "hermandad": "La Candelaria",
        "calle": "Calle Cabeza del Rey Don Pedro",
        "osm": "Calle Cabeza del Rey Don Pedro"
      },
      "geometry": {
        "type": "Point",
        "coordinates": [
          -5.9900042,
          37.3895335
        ]
      }
    },
    {
      "type": "Feature",
      "properties": {
        "id_hdad": 21,
        "hermandad": "La Candelaria",
        "calle": "Calle Candilejo",
        "osm": "Calle Candilejo"
      },
      "geometry": {
        "type": "Point",
        "coordinates": [
          -5.9901589083914715,
          37.38984005540638
        ]
      }
    },
    {
      "type": "Feature",
      "properties": {
        "id_hdad": 21,
        "hermandad": "La Candelaria",
        "calle": "Calle Alfalfa",
        "osm": "Calle Alfalfa"
      },
      "geometry": {
        "type": "Point",
        "coordinates": [
          -5.9903449,
          37.390137
        ]
      }
    },
    {
      "type": "Feature",
      "properties": {
        "id_hdad": 21,
        "hermandad": "La Candelaria",
        "calle": "Plaza de La Alfalfa",
        "osm": "Calle Alfalfa"
      },
      "geometry": {
        "type": "Point",
        "coordinates": [
          -5.9907029,
          37.390336
        ]
      }
    },
    {
      "type": "Feature",
      "properties": {
        "id_hdad": 21,
        "hermandad": "La Candelaria",
        "calle": "Calle Ángel María Camacho",
        "osm": "Calle Ángel María Camacho"
      },
      "geometry": {
        "type": "Point",
        "coordinates": [
          -5.9912273,
          37.3900874
        ]
      }
    },
    {
      "type": "Feature",
      "properties": {
        "id_hdad": 21,
        "hermandad": "La Candelaria",
        "calle": "Plaza de la Pescadería",
        "osm": "Plaza de la Pescadería"
      },
      "geometry": {
        "type": "Point",
        "coordinates": [
          -5.991289194661936,
          37.389882871212365
        ]
      }
    },
    {
      "type": "Feature",
      "properties": {
        "id_hdad": 21,
        "hermandad": "La Candelaria",
        "calle": "Cuesta del Rosario",
        "osm": "Calle Cuesta del Rosario"
      },
      "geometry": {
        "type": "Point",
        "coordinates": [
          -5.991877737588801,
          37.389764333519445
        ]
      }
    },
    {
      "type": "Feature",
      "properties": {
        "id_hdad": 21,
        "hermandad": "La Candelaria",
        "calle": "Calle Villegas",
        "osm": "Calle Villegas"
      },
      "geometry": {
        "type": "Point",
        "coordinates": [
          -5.99276171628195,
          37.38971492214055
        ]
      }
    },
    {
      "type": "Feature",
      "properties": {
        "id_hdad": 21,
        "hermandad": "La Candelaria",
        "calle": "Plaza del Salvador",
        "osm": "Plaza del Salvador"
      },
      "geometry": {
        "type": "Point",
        "coordinates": [
          -5.993132428703218,
          37.39005314738425
        ]
      }
    },
    {
      "type": "Feature",
      "properties": {
        "id_hdad": 21,
        "hermandad": "La Candelaria",
        "calle": "Calle Cuna",
        "osm": "Calle Cuna"
      },
      "geometry": {
        "type": "Point",
        "coordinates": [
          -5.9934667,
          37.3916005
        ]
      }
    },
    {
      "type": "Feature",
      "properties": {
        "id_hdad": 21,
        "hermandad": "La Candelaria",
        "calle": "Calle Orfila",
        "osm": "Calle Orfila"
      },
      "geometry": {
        "type": "Point",
        "coordinates": [
          -5.9937493,
          37.3932616
        ]
      }
    },
    {
      "type": "Feature",
      "properties": {
        "id_hdad": 21,
        "hermandad": "La Candelaria",
        "calle": "Calle Javier Lasso de la Vega",
        "osm": "Calle Javier Lasso de la Vega"
      },
      "geometry": {
        "type": "Point",
        "coordinates": [
          -5.994575,
          37.393545
        ]
      }
    },
    {
      "type": "Feature",
      "properties": {
        "id_hdad": 21,
        "hermandad": "La Candelaria",
        "calle": "Calle Trajano",
        "osm": "Calle Trajano"
      },
      "geometry": {
        "type": "Point",
        "coordinates": [
          -5.99537,
          37.393742
        ]
      }
    },
    {
      "type": "Feature",
      "properties": {
        "id_hdad": 21,
        "hermandad": "La Candelaria",
        "calle": "Plaza del Duque de la Victoria (lado derecho)",
        "osm": "Plaza del Duque de la Victoria (lado derecho)"
      },
      "geometry": {
        "type": "Point",
        "coordinates": [
          -5.995633,
          37.393113
        ]
      }
    },
    {
      "type": "Feature",
      "properties": {
        "id_hdad": 21,
        "hermandad": "La Candelaria",
        "calle": "La Campana",
        "osm": "Calle Campana"
      },
      "geometry": {
        "type": "Point",
        "coordinates": [
          -5.995376,
          37.392725
        ]
      }
    },
    {
      "type": "Feature",
      "properties": {
        "id_hdad": 21,
        "hermandad": "La Candelaria",
        "calle": "Calle Sierpes",
        "osm": "Calle Sierpes"
      },
      "geometry": {
        "type": "Point",
        "coordinates": [
          -5.9947885,
          37.3908748
        ]
      }
    },
    {
      "type": "Feature",
      "properties": {
        "id_hdad": 21,
        "hermandad": "La Candelaria",
        "calle": "Plaza de San Francisco",
        "osm": "Plaza de San Francisco"
      },
      "geometry": {
        "type": "Point",
        "coordinates": [
          -5.994154,
          37.38867
        ]
      }
    },
    {
      "type": "Feature",
      "properties": {
        "id_hdad": 21,
        "hermandad": "La Candelaria",
        "calle": "Avenida de la Constitución",
        "osm": "Avenida de la Constitución"
      },
      "geometry": {
        "type": "Point",
        "coordinates": [
          -5.994185,
          37.386838
        ]
      }
    },
    {
      "type": "Feature",
      "properties": {
        "id_hdad": 21,
        "hermandad": "La Candelaria",
        "calle": "Calle Miguel Mañara",
        "osm": "Calle Miguel Mañara"
      },
      "geometry": {
        "type": "Point",
        "coordinates": [
          -5.992479,
          37.3842205
        ]
      }
    },
    {
      "type": "Feature",
      "properties": {
        "id_hdad": 21,
        "hermandad": "La Candelaria",
        "calle": "Plaza de La Contratación",
        "osm": "Plaza de la Contratación"
      },
      "geometry": {
        "type": "Point",
        "coordinates": [
          -5.992534,
          37.383679
        ]
      }
    },
    {
      "type": "Feature",
      "properties": {
        "id_hdad": 21,
        "hermandad": "La Candelaria",
        "calle": "Calle San Gregorio",
        "osm": "Plaza de San Gregorio"
      },
      "geometry": {
        "type": "Point",
        "coordinates": [
          -5.9928723,
          37.383241
        ]
      }
    },
    {
      "type": "Feature",
      "properties": {
        "id_hdad": 21,
        "hermandad": "La Candelaria",
        "calle": "Plaza Puerta de Jerez",
        "osm": "Plaza Puerta de Jerez"
      },
      "geometry": {
        "type": "Point",
        "coordinates": [
          -5.9932597,
          37.3823431
        ]
      }
    },
    {
      "type": "Feature",
      "properties": {
        "id_hdad": 21,
        "hermandad": "La Candelaria",
        "calle": "Calle San Fernando",
        "osm": "Calle San Fernando"
      },
      "geometry": {
        "type": "Point",
        "coordinates": [
          -5.9909424,
          37.38181
        ]
      }
    },
    {
      "type": "Feature",
      "properties": {
        "id_hdad": 21,
        "hermandad": "La Candelaria",
        "calle": "Calle Paseo de Catalina de Ribera",
        "osm": "Paseo de Catalina de Ribera"
      },
      "geometry": {
        "type": "Point",
        "coordinates": [
          -5.9882289,
          37.38344
        ]
      }
    },
    {
      "type": "Feature",
      "properties": {
        "id_hdad": 21,
        "hermandad": "La Candelaria",
        "calle": "Calle Cano y Cueto",
        "osm": "Calle Cano y Cueto"
      },
      "geometry": {
        "type": "Point",
        "coordinates": [
          -5.9870272,
          37.3856852
        ]
      }
    },
    {
      "type": "Feature",
      "properties": {
        "id_hdad": 21,
        "hermandad": "La Candelaria",
        "calle": "Calle Santa María la Blanca",
        "osm": "Calle Santa María la Blanca"
      },
      "geometry": {
        "type": "Point",
        "coordinates": [
          -5.9873414,
          37.3863291
        ]
      }
    },
    {
      "type": "Feature",
      "properties": {
        "id_hdad": 21,
        "hermandad": "La Candelaria",
        "calle": "Calle San José",
        "osm": "Calle San José"
      },
      "geometry": {
        "type": "Point",
        "coordinates": [
          -5.9889261,
          37.3880054
        ]
      }
    }
  ]
}