{"type":"FeatureCollection","features":[{"type":"Feature","properties":{"id_hdad":22,"nombre":"San Benito","dia":"martes-santo"},"geometry":{"type":"LineString","coordinates":[[-5.979652,37.387797],[-5.979698,37.387607],[-5.980994,37.387775],[-5.981674,37.387856],[-5.98221,37.388102],[-5.983147,37.388664],[-5.984131,37.389047],[-5.984472,37.389187],[-5.984705,37.389268],[-5.984774,37.389354],[-5.984857,37.389636],[-5.985563,37.390327],[-5.985582,37.390469],[-5.985512,37.390555],[-5.985467,37.390696],[-5.986751,37.391775],[-5.98747,37.392401],[-5.987862,37.392952],[-5.988267,37.392909],[-5.988666,37.39284],[-5.989031,37.392704],[-5.989692,37.392505],[-5.990142,37.392465],[-5.99088,37.39261],[-5.991499,37.3927],[-5.992981,37.392804],[-5.993644,37.39282],[-5.9937,37.393434],[-5.993802,37.393688],[-5.994752,37.393518],[-5.995283,37.393895],[-5.995408,37.393656],[-5.995613,37.39343],[-5.995634,37.39313],[-5.995631,37.392901],[-5.99564,37.392719],[-5.994924,37.392751],[-5.994797,37.391803],[-5.994542,37.390976],[-5.994258,37.389845],[-5.994175,37.389143],[-5.994151,37.388605],[-5.994169,37.388187],[-5.994296,37.388071],[-5.9943041,37.3879286],[-5.9942267,37.38731],[-5.9941493,37.386713],[-5.9940679,37.3860718],[-5.9940344,37.3857616],[-5.993999,37.385447],[-5.9934331,37.3854932],[-5.9929686,37.3855304],[-5.992619,37.385552],[-5.9926646,37.3858225],[-5.99271,37.386038],[-5.992325,37.386077],[-5.992365,37.386288],[-5.9924527,37.3863161],[-5.9925164,37.3863997],[-5.992537,37.386555],[-5.992515,37.38666],[-5.992549,37.386763],[-5.992807,37.386777],[-5.993037,37.386751],[-5.993054,37.386917],[-5.9930245,37.3870101],[-5.9929267,37.3871073],[-5.992697,37.387288],[-5.992489,37.387452],[-5.992594,37.387654],[-5.992704,37.387858],[-5.99277,37.38804],[-5.992784,37.388285],[-5.992744,37.388583],[-5.992621,37.388828],[-5.992568,37.389176],[-5.992542,37.389426],[-5.992353,37.389737],[-5.991765,37.389785],[-5.991357,37.389798],[-5.991092,37.38979],[-5.990856,37.389772],[-5.990668,37.389983],[-5.990468,37.390211],[-5.990236,37.39008],[-5.989978,37.390008],[-5.989687,37.389964],[-5.989119,37.389864],[-5.988967,37.389833],[-5.988735,37.389857],[-5.988358,37.389922],[-5.987752,37.389879],[-5.987033,37.389815],[-5.98665,37.389741],[-5.98593,37.389743],[-5.985625,37.389691],[-5.985335,37.389578],[-5.984798,37.389296],[-5.984131,37.389049],[-5.983147,37.388662],[-5.98221,37.388102],[-5.981672,37.387859],[-5.980994,37.387779],[-5.979702,37.387608],[-5.979647,37.3878]]}},{"type":"Feature","properties":{"id_hdad":22,"hermandad":"San Benito","calle":"Calle San Benito","osm":"Calle San Benito"},"geometry":{"type":"Point","coordinates":[-5.979661,37.387818]}},{"type":"Feature","properties":{"id_hdad":22,"hermandad":"San Benito","calle":"Calle Luis Montoto","osm":"Calle Luis Montoto"},"geometry":{"type":"Point","coordinates":[-5.98221,37.388102]}},{"type":"Feature","properties":{"id_hdad":22,"hermandad":"San Benito","calle":"Calle Puerta de Carmona","osm":"Calle Puerta de Carmona"},"geometry":{"type":"Point","coordinates":[-5.9846,37.389231]}},{"type":"Feature","properties":{"id_hdad":22,"hermandad":"San Benito","calle":"Calle Muro de los Navarros","osm":"Calle Muro de los Navarros"},"geometry":{"type":"Point","coordinates":[-5.985496,37.390257]}},{"type":"Feature","properties":{"id_hdad":22,"hermandad":"San Benito","calle":"Calle Santiago","osm":"Calle Santiago"},"geometry":{"type":"Point","coordinates":[-5.9868,37.391806]}},{"type":"Feature","properties":{"id_hdad":22,"hermandad":"San Benito","calle":"Calle Juan de Mesa","osm":"Calle Juan de Mesa"},"geometry":{"type":"Point","coordinates":[-5.988267,37.392909]}},{"type":"Feature","properties":{"id_hdad":22,"hermandad":"San Benito","calle":"Calle Almirante Apodaca","osm":"Calle Almirante Apodaca"},"geometry":{"type":"Point","coordinates":[-5.989031,37.392704]}},{"type":"Feature","properties":{"id_hdad":22,"hermandad":"San Benito","calle":"Plaza de San Pedro","osm":"Plaza de San Pedro"},"geometry":{"type":"Point","coordinates":[-5.989692,37.392505]}},{"type":"Feature","properties":{"id_hdad":22,"hermandad":"San Benito","calle":"Calle Imagen","osm":"Calle Imagen"},"geometry":{"type":"Point","coordinates":[-5.99088,37.39261]}},{"type":"Feature","properties":{"id_hdad":22,"hermandad":"San Benito","calle":"Plaza de la Encarnación","osm":"Plaza de la Encarnación"},"geometry":{"type":"Point","coordinates":[-5.991499,37.3927]}},{"type":"Feature","properties":{"id_hdad":22,"hermandad":"San Benito","calle":"Calle Laraña","osm":"Calle Laraña"},"geometry":{"type":"Point","coordinates":[-5.992981,37.392804]}},{"type":"Feature","properties":{"id_hdad":22,"hermandad":"San Benito","calle":"Calle Orfila","osm":"Calle Orfila"},"geometry":{"type":"Point","coordinates":[-5.993689,37.393287]}},{"type":"Feature","properties":{"id_hdad":22,"hermandad":"San Benito","calle":"Calle Javier Lasso de la Vega","osm":"Calle Javier Lasso de la Vega"},"geometry":{"type":"Point","coordinates":[-5.994575,37.393545]}},{"type":"Feature","properties":{"id_hdad":22,"hermandad":"San Benito","calle":"Calle Trajano","osm":"Calle Trajano"},"geometry":{"type":"Point","coordinates":[-5.99537,37.393742]}},{"type":"Feature","properties":{"id_hdad":22,"hermandad":"San Benito","calle":"Plaza del Duque de la Victoria (lado derecho)","osm":"Plaza del Duque de la Victoria (lado derecho"},"geometry":{"type":"Point","coordinates":[-5.99564,37.393105]}},{"type":"Feature","properties":{"id_hdad":22,"hermandad":"San Benito","calle":"La Campana","osm":"Calle Campana"},"geometry":{"type":"Point","coordinates":[-5.995376,37.392725]}},{"type":"Feature","properties":{"id_hdad":22,"hermandad":"San Benito","calle":"Calle Sierpes","osm":"Calle Sierpes"},"geometry":{"type":"Point","coordinates":[-5.994481,37.390665]}},{"type":"Feature","properties":{"id_hdad":22,"hermandad":"San Benito","calle":"Plaza de San Francisco","osm":"Plaza de San Francisco"},"geometry":{"type":"Point","coordinates":[-5.994154,37.38867]}},{"type":"Feature","properties":{"id_hdad":22,"hermandad":"San Benito","calle":"Avenida de la Constitución","osm":"Avenida de la Constitución"},"geometry":{"type":"Point","coordinates":[-5.993664,37.383475]}},{"type":"Feature","properties":{"id_hdad":22,"hermandad":"San Benito","calle":"Calle Cardenal Carlos Amigo","osm":"Calle Cardenal Carlos Amigo"},"geometry":{"type":"Point","coordinates":[-5.992467,37.386496]}},{"type":"Feature","properties":{"id_hdad":22,"hermandad":"San Benito","calle":"Calle Alemanes","osm":"Calle Alemanes"},"geometry":{"type":"Point","coordinates":[-5.9928,37.38678]}},{"type":"Feature","properties":{"id_hdad":22,"hermandad":"San Benito","calle":"Calle Argote de Molina","osm":"Calle Argote de Molina"},"geometry":{"type":"Point","coordinates":[-5.992707,37.387306]}},{"type":"Feature","properties":{"id_hdad":22,"hermandad":"San Benito","calle":"Calle Placentines","osm":"Calle Placentines"},"geometry":{"type":"Point","coordinates":[-5.992541,37.387619]}},{"type":"Feature","properties":{"id_hdad":22,"hermandad":"San Benito","calle":"Calle Francos","osm":"Calle Francos"},"geometry":{"type":"Point","coordinates":[-5.992784,37.388285]}},{"type":"Feature","properties":{"id_hdad":22,"hermandad":"San Benito","calle":"Cuesta del Rosario","osm":"Calle Cuesta del Rosario"},"geometry":{"type":"Point","coordinates":[-5.991765,37.389785]}},{"type":"Feature","properties":{"id_hdad":22,"hermandad":"San Benito","calle":"Calle Jesús de las Tres Caídas","osm":"Calle Jesús de las Tres Caídas"},"geometry":{"type":"Point","coordinates":[-5.990668,37.389983]}},{"type":"Feature","properties":{"id_hdad":22,"hermandad":"San Benito","calle":"Calle Alfalfa","osm":"Calle Alfalfa"},"geometry":{"type":"Point","coordinates":[-5.989974,37.390022]}},{"type":"Feature","properties":{"id_hdad":22,"hermandad":"San Benito","calle":"Calle Águilas","osm":"Calle Águilas"},"geometry":{"type":"Point","coordinates":[-5.987752,37.389879]}},{"type":"Feature","properties":{"id_hdad":22,"hermandad":"San Benito","calle":"Plaza de Pilatos","osm":"Plaza de Pilatos"},"geometry":{"type":"Point","coordinates":[-5.987031,37.389815]}},{"type":"Feature","properties":{"id_hdad":22,"hermandad":"San Benito","calle":"Calle San Esteban","osm":"Calle San Esteban"},"geometry":{"type":"Point","coordinates":[-5.985444,37.389615]}},{"type":"Feature","properties":{"id_hdad":22,"hermandad":"San Benito","calle":"Calle Puerta de Carmona","osm":"Calle Puerta de Carmona"},"geometry":{"type":"Point","coordinates":[-5.984607,37.389236]}},{"type":"Feature","properties":{"id_hdad":22,"hermandad":"San Benito","calle":"Calle Luis Montoto","osm":"Calle Luis Montoto"},"geometry":{"type":"Point","coordinates":[-5.98221,37.388102]}},{"type":"Feature","properties":{"id_hdad":22,"hermandad":"San Benito","calle":"Calle San Benito","osm":"Calle San Benito"},"geometry":{"type":"Point","coordinates":[-5.979661,37.387818]}}]}