{"type":"FeatureCollection","features":[{"type":"Feature","properties":{"id_hdad":30,"nombre":"San Bernardo","dia":"miercoles-santo"},"geometry":{"type":"LineString","coordinates":[[-5.982031,37.3824826],[-5.982018,37.3827611],[-5.9827037,37.3827859],[-5.9832501,37.3828028],[-5.9833291,37.3831504],[-5.9833003,37.3836495],[-5.9831923,37.38416],[-5.9831228,37.3844061],[-5.9829214,37.3843737],[-5.9827128,37.3844156],[-5.9827008,37.3844804],[-5.9827703,37.384507],[-5.9829981,37.3845528],[-5.9833433,37.3846213],[-5.9837171,37.3846827],[-5.9840213,37.3847634],[-5.9848317,37.3851102],[-5.9856806,37.3854852],[-5.9865341,37.385811],[-5.9867961,37.3859103],[-5.9873414,37.3863291],[-5.9878393,37.3867752],[-5.9882417,37.3871368],[-5.9884049,37.3873194],[-5.9885733,37.3875537],[-5.9890097,37.3881369],[-5.9892009,37.3884538],[-5.9895958,37.3885512],[-5.9898065,37.3887185],[-5.9898928,37.3888843],[-5.989948,37.3890633],[-5.9900672,37.3893967],[-5.99003,37.3895097],[-5.9899905,37.3896081],[-5.9901488,37.3898143],[-5.9902114,37.3899738],[-5.9902773,37.3900833],[-5.9905,37.3902412],[-5.9905302,37.3902997],[-5.9906339,37.3903326],[-5.9909959,37.390439],[-5.9911618,37.3904165],[-5.9911732,37.3902771],[-5.9912273,37.3900874],[-5.9912599,37.3899385],[-5.9912949,37.3898052],[-5.9920412,37.3897624],[-5.9926429,37.3897232],[-5.9930936,37.3896918],[-5.9931319,37.3900507],[-5.9934667,37.3916005],[-5.9937493,37.3932616],[-5.9945728,37.3937054],[-5.9952985,37.3939039],[-5.995615,37.39345],[-5.995644,37.393115],[-5.995643,37.39272],[-5.994924,37.392751],[-5.994797,37.391803],[-5.994542,37.390976],[-5.994258,37.389845],[-5.994175,37.389143],[-5.994151,37.388605],[-5.994169,37.388187],[-5.994296,37.388071],[-5.9943041,37.3879286],[-5.9942267,37.38731],[-5.9941493,37.386713],[-5.9940679,37.3860718],[-5.9940344,37.3857616],[-5.993999,37.385447],[-5.9934331,37.3854932],[-5.9929686,37.3855304],[-5.992619,37.385552],[-5.9926646,37.3858225],[-5.99271,37.386038],[-5.992325,37.386077],[-5.9922045,37.3855227],[-5.9921553,37.385283],[-5.9925621,37.3851555],[-5.9926144,37.3850821],[-5.9925651,37.3849786],[-5.99246,37.384858],[-5.9923917,37.3848297],[-5.9923056,37.3848485],[-5.9919582,37.3850278],[-5.9915151,37.3852751],[-5.9912856,37.38541],[-5.9911668,37.3854572],[-5.9911075,37.3854678],[-5.99106,37.3854537],[-5.9910228,37.3854171],[-5.9909738,37.3853876],[-5.9909352,37.3853912],[-5.9907808,37.3855575],[-5.9907091,37.3856747],[-5.9907288,37.3857993],[-5.9907596,37.3859066],[-5.9908145,37.3859762],[-5.9908516,37.3860953],[-5.9903699,37.3862042],[-5.990198,37.386246],[-5.9899203,37.3865646],[-5.9896517,37.3868292],[-5.9893796,37.3871548],[-5.9893607,37.3872099],[-5.9895113,37.3874243],[-5.9895543,37.3875191],[-5.9895484,37.3875813],[-5.9893431,37.3875549],[-5.9890986,37.3875471],[-5.9888247,37.3875828],[-5.9886448,37.3876637],[-5.9884408,37.387372],[-5.9882021,37.3870984],[-5.9877972,37.3867316],[-5.9873423,37.3863254],[-5.9867555,37.3858894],[-5.9858676,37.3855513],[-5.9848343,37.3851073],[-5.984015,37.384749],[-5.983579,37.3846542],[-5.9827536,37.3845003],[-5.9827047,37.3844677],[-5.9827262,37.3844164],[-5.9829139,37.3843807],[-5.9831193,37.3844055],[-5.9833056,37.3835695],[-5.9833389,37.3831592],[-5.9831944,37.3826265],[-5.98312,37.3824275],[-5.983073,37.3823078],[-5.982582,37.3822813],[-5.9820979,37.3822724],[-5.9820388,37.3824919]]}},{"type":"Feature","properties":{"id_hdad":30,"hermandad":"San Bernardo","calle":"Calle San Bernardo","osm":"Calle San Bernardo"},"geometry":{"type":"Point","coordinates":[-5.9833025,37.3834588]}},{"type":"Feature","properties":{"id_hdad":30,"hermandad":"San Bernardo","calle":"Avenida de Eduardo Dato","osm":"Avenida de Eduardo Dato"},"geometry":{"type":"Point","coordinates":[-5.9832799,37.3845979]}},{"type":"Feature","properties":{"id_hdad":30,"hermandad":"San Bernardo","calle":"Calle Demetrio de los Ríos","osm":"Calle Demetrio de los Ríos"},"geometry":{"type":"Point","coordinates":[-5.9848812,37.3851196]}},{"type":"Feature","properties":{"id_hdad":30,"hermandad":"San Bernardo","calle":"Calle Puerta de la Carne","osm":"Calle Puerta de la Carne"},"geometry":{"type":"Point","coordinates":[-5.9865901,37.3858286]}},{"type":"Feature","properties":{"id_hdad":30,"hermandad":"San Bernardo","calle":"Calle Santa María la Blanca","osm":"Calle Santa María la Blanca"},"geometry":{"type":"Point","coordinates":[-5.9873414,37.3863291]}},{"type":"Feature","properties":{"id_hdad":30,"hermandad":"San Bernardo","calle":"Calle San José","osm":"Calle San José"},"geometry":{"type":"Point","coordinates":[-5.9889261,37.3880054]}},{"type":"Feature","properties":{"id_hdad":30,"hermandad":"San Bernardo","calle":"Plaza Nuestro Padre Jesús de la Salud","osm":"Plaza Nuestro Padre Jesús de la Salud"},"geometry":{"type":"Point","coordinates":[-5.9892314,37.3885302]}},{"type":"Feature","properties":{"id_hdad":30,"hermandad":"San Bernardo","calle":"Calle Muñoz y Pabón","osm":"Calle Muñoz y Pabón"},"geometry":{"type":"Point","coordinates":[-5.989934004001618,37.38901791442554]}},{"type":"Feature","properties":{"id_hdad":30,"hermandad":"San Bernardo","calle":"Calle Cabeza del Rey Don Pedro","osm":"Calle Cabeza del Rey Don Pedro"},"geometry":{"type":"Point","coordinates":[-5.99003,37.3895097]}},{"type":"Feature","properties":{"id_hdad":30,"hermandad":"San Bernardo","calle":"Calle Candilejo","osm":"Calle Candilejo"},"geometry":{"type":"Point","coordinates":[-5.9901589083914715,37.38984005540638]}},{"type":"Feature","properties":{"id_hdad":30,"hermandad":"San Bernardo","calle":"Calle Alfalfa","osm":"Calle Alfalfa"},"geometry":{"type":"Point","coordinates":[-5.9903449,37.390137]}},{"type":"Feature","properties":{"id_hdad":30,"hermandad":"San Bernardo","calle":"Plaza de La Alfalfa","osm":"Calle Alfalfa"},"geometry":{"type":"Point","coordinates":[-5.9907029,37.390336]}},{"type":"Feature","properties":{"id_hdad":30,"hermandad":"San Bernardo","calle":"Calle Ángel María Camacho","osm":"Calle Ángel María Camacho"},"geometry":{"type":"Point","coordinates":[-5.9912273,37.3900874]}},{"type":"Feature","properties":{"id_hdad":30,"hermandad":"San Bernardo","calle":"Plaza de la Pescadería","osm":"Plaza de la Pescadería"},"geometry":{"type":"Point","coordinates":[-5.991289194661936,37.389882871212365]}},{"type":"Feature","properties":{"id_hdad":30,"hermandad":"San Bernardo","calle":"Cuesta del Rosario","osm":"Calle Cuesta del Rosario"},"geometry":{"type":"Point","coordinates":[-5.991877737588801,37.389764333519445]}},{"type":"Feature","properties":{"id_hdad":30,"hermandad":"San Bernardo","calle":"Calle Villegas","osm":"Calle Villegas"},"geometry":{"type":"Point","coordinates":[-5.99276171628195,37.38971492214055]}},{"type":"Feature","properties":{"id_hdad":30,"hermandad":"San Bernardo","calle":"Plaza del Salvador","osm":"Plaza del Salvador"},"geometry":{"type":"Point","coordinates":[-5.993132428703218,37.39005314738425]}},{"type":"Feature","properties":{"id_hdad":30,"hermandad":"San Bernardo","calle":"Calle Cuna","osm":"Calle Cuna"},"geometry":{"type":"Point","coordinates":[-5.9934667,37.3916005]}},{"type":"Feature","properties":{"id_hdad":30,"hermandad":"San Bernardo","calle":"Calle Orfila","osm":"Calle Orfila"},"geometry":{"type":"Point","coordinates":[-5.9937493,37.3932616]}},{"type":"Feature","properties":{"id_hdad":30,"hermandad":"San Bernardo","calle":"Calle Javier Lasso de la Vega","osm":"Calle Javier Lasso de la Vega"},"geometry":{"type":"Point","coordinates":[-5.9945728,37.3937054]}},{"type":"Feature","properties":{"id_hdad":30,"hermandad":"San Bernardo","calle":"Calle Trajano","osm":"Calle Trajano"},"geometry":{"type":"Point","coordinates":[-5.9952985,37.3939039]}},{"type":"Feature","properties":{"id_hdad":30,"hermandad":"San Bernardo","calle":"Plaza del Duque de la Victoria (lado derecho)","osm":"Plaza del Duque de la Victoria (lado derecho)"},"geometry":{"type":"Point","coordinates":[-5.995633,37.393113]}},{"type":"Feature","properties":{"id_hdad":30,"hermandad":"San Bernardo","calle":"La Campana","osm":"Calle Campana"},"geometry":{"type":"Point","coordinates":[-5.9953759,37.3927251]}},{"type":"Feature","properties":{"id_hdad":30,"hermandad":"San Bernardo","calle":"Calle Sierpes","osm":"Calle Sierpes"},"geometry":{"type":"Point","coordinates":[-5.9947885,37.3908748]}},{"type":"Feature","properties":{"id_hdad":30,"hermandad":"San Bernardo","calle":"Plaza de San Francisco","osm":"Plaza de San Francisco"},"geometry":{"type":"Point","coordinates":[-5.9939375,37.3886765]}},{"type":"Feature","properties":{"id_hdad":30,"hermandad":"San Bernardo","calle":"Avenida de la Constitución","osm":"Avenida de la Constitución"},"geometry":{"type":"Point","coordinates":[-5.9936639,37.3834745]}},{"type":"Feature","properties":{"id_hdad":30,"hermandad":"San Bernardo","calle":"Calle Joaquín Romero Murube","osm":"Calle Joaquín Romero Murube"},"geometry":{"type":"Point","coordinates":[-5.9915151,37.3852751]}},{"type":"Feature","properties":{"id_hdad":30,"hermandad":"San Bernardo","calle":"Plaza de La Alianza","osm":"Plaza de la Alianza"},"geometry":{"type":"Point","coordinates":[-5.9911357,37.385469]}},{"type":"Feature","properties":{"id_hdad":30,"hermandad":"San Bernardo","calle":"Calle Rodrigo Caro","osm":"Calle Rodrigo Caro"},"geometry":{"type":"Point","coordinates":[-5.9907288,37.3857993]}},{"type":"Feature","properties":{"id_hdad":30,"hermandad":"San Bernardo","calle":"Calle Mateos Gago","osm":"Calle Mateos Gago"},"geometry":{"type":"Point","coordinates":[-5.9901078,37.3863394]}},{"type":"Feature","properties":{"id_hdad":30,"hermandad":"San Bernardo","calle":"Calle Fabiola","osm":"Calle Fabiola"},"geometry":{"type":"Point","coordinates":[-5.9894598,37.3873367]}},{"type":"Feature","properties":{"id_hdad":30,"hermandad":"San Bernardo","calle":"Calle Madre de Dios","osm":"Calle Madre de Dios"},"geometry":{"type":"Point","coordinates":[-5.9893372,37.3875549]}},{"type":"Feature","properties":{"id_hdad":30,"hermandad":"San Bernardo","calle":"Calle San José","osm":"Calle San José"},"geometry":{"type":"Point","coordinates":[-5.9889348,37.3880184]}},{"type":"Feature","properties":{"id_hdad":30,"hermandad":"San Bernardo","calle":"Calle Santa María la Blanca","osm":"Calle Santa María la Blanca"},"geometry":{"type":"Point","coordinates":[-5.9873681,37.3863417]}},{"type":"Feature","properties":{"id_hdad":30,"hermandad":"San Bernardo","calle":"Calle Puerta de la Carne","osm":"Calle Puerta de la Carne"},"geometry":{"type":"Point","coordinates":[-5.9865805,37.3858234]}},{"type":"Feature","properties":{"id_hdad":30,"hermandad":"San Bernardo","calle":"Calle Demetrio de los Ríos","osm":"Calle Demetrio de los Ríos"},"geometry":{"type":"Point","coordinates":[-5.9848812,37.3851196]}},{"type":"Feature","properties":{"id_hdad":30,"hermandad":"San Bernardo","calle":"Avenida de Eduardo Dato","osm":"Avenida de Eduardo Dato"},"geometry":{"type":"Point","coordinates":[-5.9832414,37.384581]}},{"type":"Feature","properties":{"id_hdad":30,"hermandad":"San Bernardo","calle":"Calle San Bernardo","osm":"Calle San Bernardo"},"geometry":{"type":"Point","coordinates":[-5.9833025,37.3834588]}}]}