{
  "type": "FeatureCollection",
  "features": [
    {
      "type": "Feature",
      "properties": {
        "id_hdad": 33,
        "nombre": "Los Panaderos",
        "dia": "miercoles-santo"
      },
      "geometry": {
        "type": "LineString",
        "coordinates": [
          [
            -5.9936743,
            37.3935191
          ],
          [
            -5.9937495,
            37.3935522
          ],
          [
            -5.9938521,
            37.3937374
          ],
          [
            -5.9940038,
            37.3939681
          ],
          [
            -5.9941513,
            37.3941982
          ],
          [
            -5.9941921,
            37.394338
          ],
          [
            -5.994239,
            37.3945012
          ],
          [
            -5.994448,
            37.3945001
          ],
          [
            -5.9946464,
            37.3944977
          ],
          [
            -5.9947188,
            37.3943658
          ],
          [
            -5.9947526,
            37.3942963
          ],
          [
            -5.9952711,
            37.3943445
          ],
          [
            -5.9953086,
            37.3938157
          ],
          [
            -5.99537,
            37.393742
          ],
          [
            -5.995446,
            37.393623
          ],
          [
            -5.995615,
            37.39345
          ],
          [
            -5.995644,
            37.393115
          ],
          [
            -5.995643,
            37.39272
          ],
          [
            -5.994924,
            37.392751
          ],
          [
            -5.994797,
            37.391803
          ],
          [
            -5.994542,
            37.390976
          ],
          [
            -5.994258,
            37.389845
          ],
          [
            -5.994175,
            37.389143
          ],
          [
            -5.994151,
            37.388605
          ],
          [
            -5.994169,
            37.388187
          ],
          [
            -5.994296,
            37.388071
          ],
          [
            -5.9943041,
            37.3879286
          ],
          [
            -5.9942267,
            37.38731
          ],
          [
            -5.9941493,
            37.386713
          ],
          [
            -5.9940679,
            37.3860718
          ],
          [
            -5.9940344,
            37.3857616
          ],
          [
            -5.993999,
            37.385447
          ],
          [
            -5.9934331,
            37.3854932
          ],
          [
            -5.9929686,
            37.3855304
          ],
          [
            -5.992619,
            37.385552
          ],
          [
            -5.9926646,
            37.3858225
          ],
          [
            -5.99271,
            37.386038
          ],
          [
            -5.992325,
            37.386077
          ],
          [
            -5.992343,
            37.386298
          ],
          [
            -5.992461,
            37.386331
          ],
          [
            -5.992523,
            37.386502
          ],
          [
            -5.99252,
            37.386657
          ],
          [
            -5.992542,
            37.386755
          ],
          [
            -5.992745,
            37.386784
          ],
          [
            -5.993037,
            37.386751
          ],
          [
            -5.993054,
            37.386917
          ],
          [
            -5.9930245,
            37.3870101
          ],
          [
            -5.9929267,
            37.3871073
          ],
          [
            -5.992697,
            37.387288
          ],
          [
            -5.992489,
            37.387452
          ],
          [
            -5.992594,
            37.387654
          ],
          [
            -5.992704,
            37.387858
          ],
          [
            -5.99277,
            37.38804
          ],
          [
            -5.9927904,
            37.3883323
          ],
          [
            -5.992748,
            37.388584
          ],
          [
            -5.992999,
            37.388611
          ],
          [
            -5.993264,
            37.388615
          ],
          [
            -5.993288,
            37.389051
          ],
          [
            -5.99338,
            37.389346
          ],
          [
            -5.993302,
            37.389446
          ],
          [
            -5.993273,
            37.38953
          ],
          [
            -5.993197,
            37.389673
          ],
          [
            -5.993105,
            37.389698
          ],
          [
            -5.993128,
            37.389988
          ],
          [
            -5.993132428703218,
            37.39005314738425
          ],
          [
            -5.993169,
            37.390185
          ],
          [
            -5.993243,
            37.390261
          ],
          [
            -5.993364,
            37.390816
          ],
          [
            -5.993467,
            37.391235
          ],
          [
            -5.9935179,
            37.3916066
          ],
          [
            -5.9936159,
            37.3924345
          ],
          [
            -5.9936354,
            37.3927375
          ],
          [
            -5.9936799,
            37.3929013
          ],
          [
            -5.9936883,
            37.3934217
          ],
          [
            -5.9937133,
            37.3935036
          ],
          [
            -5.9936688,
            37.3935146
          ]
        ]
      }
    },
    {
      "type": "Feature",
      "properties": {
        "id_hdad": 33,
        "hermandad": "Los Panaderos",
        "calle": "Calle Orfila",
        "osm": "Calle Orfila"
      },
      "geometry": {
        "type": "Point",
        "coordinates": [
          -5.993729,
          37.393322
        ]
      }
    },
    {
      "type": "Feature",
      "properties": {
        "id_hdad": 33,
        "hermandad": "Los Panaderos",
        "calle": "Plaza Fernando de Herrera",
        "osm": "Plaza Fernando de Herrera"
      },
      "geometry": {
        "type": "Point",
        "coordinates": [
          -5.994158,
          37.394243
        ]
      }
    },
    {
      "type": "Feature",
      "properties": {
        "id_hdad": 33,
        "hermandad": "Los Panaderos",
        "calle": "Calle Daoiz",
        "osm": "Calle Daoiz"
      },
      "geometry": {
        "type": "Point",
        "coordinates": [
          -5.9941921,
          37.394338
        ]
      }
    },
    {
      "type": "Feature",
      "properties": {
        "id_hdad": 33,
        "hermandad": "Los Panaderos",
        "calle": "Calle García Tassara",
        "osm": "Calle García Tassara"
      },
      "geometry": {
        "type": "Point",
        "coordinates": [
          -5.994448,
          37.3945001
        ]
      }
    },
    {
      "type": "Feature",
      "properties": {
        "id_hdad": 33,
        "hermandad": "Los Panaderos",
        "calle": "Calle Amor de Dios",
        "osm": "Calle Amor de Dios"
      },
      "geometry": {
        "type": "Point",
        "coordinates": [
          -5.994758,
          37.393914
        ]
      }
    },
    {
      "type": "Feature",
      "properties": {
        "id_hdad": 33,
        "hermandad": "Los Panaderos",
        "calle": "Calle San Miguel",
        "osm": "Calle San Miguel"
      },
      "geometry": {
        "type": "Point",
        "coordinates": [
          -5.995328,
          37.394392
        ]
      }
    },
    {
      "type": "Feature",
      "properties": {
        "id_hdad": 33,
        "hermandad": "Los Panaderos",
        "calle": "Calle Trajano",
        "osm": "Calle Trajano"
      },
      "geometry": {
        "type": "Point",
        "coordinates": [
          -5.99537,
          37.393742
        ]
      }
    },
    {
      "type": "Feature",
      "properties": {
        "id_hdad": 33,
        "hermandad": "Los Panaderos",
        "calle": "Plaza del Duque de la Victoria (lado derecho)",
        "osm": "Plaza del Duque de la Victoria (lado derecho)"
      },
      "geometry": {
        "type": "Point",
        "coordinates": [
          -5.995644,
          37.393115
        ]
      }
    },
    {
      "type": "Feature",
      "properties": {
        "id_hdad": 33,
        "hermandad": "Los Panaderos",
        "calle": "La Campana",
        "osm": "La Campana"
      },
      "geometry": {
        "type": "Point",
        "coordinates": [
          -5.995376,
          37.392725
        ]
      }
    },
    {
      "type": "Feature",
      "properties": {
        "id_hdad": 33,
        "hermandad": "Los Panaderos",
        "calle": "Calle Sierpes",
        "osm": "Calle Sierpes"
      },
      "geometry": {
        "type": "Point",
        "coordinates": [
          -5.9947885,
          37.3908748
        ]
      }
    },
    {
      "type": "Feature",
      "properties": {
        "id_hdad": 33,
        "hermandad": "Los Panaderos",
        "calle": "Plaza de San Francisco",
        "osm": "Plaza de San Francisco"
      },
      "geometry": {
        "type": "Point",
        "coordinates": [
          -5.994154,
          37.38867
        ]
      }
    },
    {
      "type": "Feature",
      "properties": {
        "id_hdad": 33,
        "hermandad": "Los Panaderos",
        "calle": "Avenida de la Constitución",
        "osm": "Avenida de la Constitución"
      },
      "geometry": {
        "type": "Point",
        "coordinates": [
          -5.994185,
          37.386838
        ]
      }
    },
    {
      "type": "Feature",
      "properties": {
        "id_hdad": 33,
        "hermandad": "Los Panaderos",
        "calle": "Calle Cardenal Carlos Amigo",
        "osm": "Calle Cardenal Carlos Amigo"
      },
      "geometry": {
        "type": "Point",
        "coordinates": [
          -5.992537,
          37.386555
        ]
      }
    },
    {
      "type": "Feature",
      "properties": {
        "id_hdad": 33,
        "hermandad": "Los Panaderos",
        "calle": "Calle Alemanes",
        "osm": "Calle Alemanes"
      },
      "geometry": {
        "type": "Point",
        "coordinates": [
          -5.992807,
          37.386777
        ]
      }
    },
    {
      "type": "Feature",
      "properties": {
        "id_hdad": 33,
        "hermandad": "Los Panaderos",
        "calle": "Calle Álvarez Quintero",
        "osm": "Calle Álvarez Quintero"
      },
      "geometry": {
        "type": "Point",
        "coordinates": [
          -5.993054,
          37.386917
        ]
      }
    },
    {
      "type": "Feature",
      "properties": {
        "id_hdad": 33,
        "hermandad": "Los Panaderos",
        "calle": "Calle Argote de Molina",
        "osm": "Calle Argote de Molina"
      },
      "geometry": {
        "type": "Point",
        "coordinates": [
          -5.992697,
          37.387288
        ]
      }
    },
    {
      "type": "Feature",
      "properties": {
        "id_hdad": 33,
        "hermandad": "Los Panaderos",
        "calle": "Calle Placentines",
        "osm": "Calle Placentines"
      },
      "geometry": {
        "type": "Point",
        "coordinates": [
          -5.992594,
          37.387654
        ]
      }
    },
    {
      "type": "Feature",
      "properties": {
        "id_hdad": 33,
        "hermandad": "Los Panaderos",
        "calle": "Calle Francos",
        "osm": "Calle Francos"
      },
      "geometry": {
        "type": "Point",
        "coordinates": [
          -5.9927793,
          37.3883411
        ]
      }
    },
    {
      "type": "Feature",
      "properties": {
        "id_hdad": 33,
        "hermandad": "Los Panaderos",
        "calle": "Calle Chapineros",
        "osm": "Calle Chapineros"
      },
      "geometry": {
        "type": "Point",
        "coordinates": [
          -5.992999,
          37.388611
        ]
      }
    },
    {
      "type": "Feature",
      "properties": {
        "id_hdad": 33,
        "hermandad": "Los Panaderos",
        "calle": "Calle Álvarez Quintero",
        "osm": "Calle Álvarez Quintero"
      },
      "geometry": {
        "type": "Point",
        "coordinates": [
          -5.993273,
          37.38953
        ]
      }
    },
    {
      "type": "Feature",
      "properties": {
        "id_hdad": 33,
        "hermandad": "Los Panaderos",
        "calle": "Plaza del Salvador",
        "osm": "Plaza del Salvador"
      },
      "geometry": {
        "type": "Point",
        "coordinates": [
          -5.993132428703218,
          37.39005314738425
        ]
      }
    },
    {
      "type": "Feature",
      "properties": {
        "id_hdad": 33,
        "hermandad": "Los Panaderos",
        "calle": "Calle Cuna",
        "osm": "Calle Cuna"
      },
      "geometry": {
        "type": "Point",
        "coordinates": [
          -5.9934667,
          37.3916005
        ]
      }
    },
    {
      "type": "Feature",
      "properties": {
        "id_hdad": 33,
        "hermandad": "Los Panaderos",
        "calle": "Calle Orfila",
        "osm": "Calle Orfila"
      },
      "geometry": {
        "type": "Point",
        "coordinates": [
          -5.993729,
          37.393322
        ]
      }
    }
  ]
}