{"type":"FeatureCollection","features":[{"type":"Feature","properties":{"id_hdad":1,"nombre":"La Borriquita","dia":"domingo-de-ramos"},"geometry":{"type":"LineString","coordinates":[[-5.993132428703218,37.39005314738425],[-5.9931046,37.3896987],[-5.9931969,37.3896742],[-5.9932174,37.389628],[-5.9933748,37.3893508],[-5.9937897,37.3893549],[-5.993902,37.3892819],[-5.994086,37.389118],[-5.994945,37.3890573],[-5.995071,37.3898416],[-5.9953927,37.3910497],[-5.9954081,37.3914999],[-5.9954462,37.3919353],[-5.9954904,37.3920734],[-5.995445,37.3921691],[-5.9954268,37.3922962],[-5.9954008,37.3925247],[-5.9954146,37.3927221],[-5.994924,37.392751],[-5.994861,37.3922847],[-5.994797,37.391803],[-5.9946698,37.3913397],[-5.9945161,37.3909308],[-5.994258,37.389845],[-5.994175,37.389143],[-5.994151,37.388605],[-5.994169,37.388187],[-5.994296,37.388071],[-5.9943041,37.3879286],[-5.9942267,37.38731],[-5.9941493,37.386713],[-5.9940679,37.3860718],[-5.9940344,37.3857616],[-5.993999,37.385447],[-5.9934331,37.3854932],[-5.9929686,37.3855304],[-5.992619,37.385552],[-5.9926646,37.3858225],[-5.99271,37.386038],[-5.992325,37.386077],[-5.992343,37.386298],[-5.992461,37.386331],[-5.992523,37.386502],[-5.99252,37.386657],[-5.992542,37.386755],[-5.992745,37.386784],[-5.993037,37.386751],[-5.993054,37.386952],[-5.992697,37.387288],[-5.992489,37.387452],[-5.992594,37.387654],[-5.992704,37.387858],[-5.99277,37.38804],[-5.9927931,37.3883288],[-5.992748,37.388584],[-5.992999,37.388611],[-5.993264,37.388615],[-5.993288,37.389051],[-5.99338,37.389346],[-5.993302,37.389446],[-5.993273,37.38953],[-5.993197,37.389673],[-5.993105,37.389698],[-5.993128,37.389988],[-5.993132428703218,37.39005314738425]]}},{"type":"Feature","properties":{"id_hdad":1,"hermandad":"La Borriquita","calle":"Plaza del Salvador"},"geometry":{"type":"Point","coordinates":[-5.993132428703218,37.39005314738425]}},{"type":"Feature","properties":{"id_hdad":1,"hermandad":"La Borriquita","calle":"Calle Entrecárceles"},"geometry":{"type":"Point","coordinates":[-5.9937897,37.3893549]}},{"type":"Feature","properties":{"id_hdad":1,"hermandad":"La Borriquita","calle":"Calle Granada"},"geometry":{"type":"Point","coordinates":[-5.994086,37.389118]}},{"type":"Feature","properties":{"id_hdad":1,"hermandad":"La Borriquita","calle":"Calle Tetuán"},"geometry":{"type":"Point","coordinates":[-5.995071,37.3898416]}},{"type":"Feature","properties":{"id_hdad":1,"hermandad":"La Borriquita","calle":"Calle Velázquez"},"geometry":{"type":"Point","coordinates":[-5.9954904,37.3920734]}},{"type":"Feature","properties":{"id_hdad":1,"hermandad":"La Borriquita","calle":"La Campana"},"geometry":{"type":"Point","coordinates":[-5.994924,37.392751]}},{"type":"Feature","properties":{"id_hdad":1,"hermandad":"La Borriquita","calle":"Calle Sierpes"},"geometry":{"type":"Point","coordinates":[-5.994542,37.390976]}},{"type":"Feature","properties":{"id_hdad":1,"hermandad":"La Borriquita","calle":"Plaza de San Francisco"},"geometry":{"type":"Point","coordinates":[-5.994296,37.388071]}},{"type":"Feature","properties":{"id_hdad":1,"hermandad":"La Borriquita","calle":"Avenida de la Constitución"},"geometry":{"type":"Point","coordinates":[-5.9940344,37.3857616]}},{"type":"Feature","properties":{"id_hdad":1,"hermandad":"La Borriquita","calle":"Calle Cardenal Carlos Amigo"},"geometry":{"type":"Point","coordinates":[-5.9926646,37.3858225]}},{"type":"Feature","properties":{"id_hdad":1,"hermandad":"La Borriquita","calle":"Calle Alemanes"},"geometry":{"type":"Point","coordinates":[-5.992523,37.386502]}},{"type":"Feature","properties":{"id_hdad":1,"hermandad":"La Borriquita","calle":"Calle Álvarez Quintero"},"geometry":{"type":"Point","coordinates":[-5.993054,37.386952]}},{"type":"Feature","properties":{"id_hdad":1,"hermandad":"La Borriquita","calle":"Calle Argote de Molina"},"geometry":{"type":"Point","coordinates":[-5.992697,37.387288]}},{"type":"Feature","properties":{"id_hdad":1,"hermandad":"La Borriquita","calle":"Calle Placentines"},"geometry":{"type":"Point","coordinates":[-5.992704,37.387858]}},{"type":"Feature","properties":{"id_hdad":1,"hermandad":"La Borriquita","calle":"Calle Francos"},"geometry":{"type":"Point","coordinates":[-5.992748,37.388584]}},{"type":"Feature","properties":{"id_hdad":1,"hermandad":"La Borriquita","calle":"Calle Chapineros"},"geometry":{"type":"Point","coordinates":[-5.99338,37.389346]}},{"type":"Feature","properties":{"id_hdad":1,"hermandad":"La Borriquita","calle":"Calle Álvarez Quintero"},"geometry":{"type":"Point","coordinates":[-5.993197,37.389673]}},{"type":"Feature","properties":{"id_hdad":1,"hermandad":"La Borriquita","calle":"Plaza del Salvador"},"geometry":{"type":"Point","coordinates":[-5.993132428703218,37.39005314738425]}}]}