{"type": "FeatureCollection", "features": [{"type": "Feature", "properties": {"id_hdad": 2, "nombre": "La Cena", "dia": "domingo-de-ramos"}, "geometry": {"type": "LineString", "coordinates": [[-5.9878229, 37.3938327], [-5.9880115, 37.393698], [-5.9882071, 37.39353], [-5.9882195, 37.3934345], [-5.9882221, 37.3933162], [-5.989031, 37.392704], [-5.989692, 37.392505], [-5.9899423, 37.3924834], [-5.9901595, 37.3924887], [-5.9905204, 37.3925657], [-5.99088, 37.39261], [-5.991499, 37.3927], [-5.9922302, 37.392777], [-5.992981, 37.392804], [-5.9933169, 37.3928037], [-5.9936593, 37.3928157], [-5.9936853, 37.3929311], [-5.993689, 37.393287], [-5.9936844, 37.3934442], [-5.993838, 37.393693], [-5.9940973, 37.3936496], [-5.9942892, 37.3936065], [-5.994575, 37.393545], [-5.996046, 37.393115], [-5.9960975, 37.392915], [-5.9961387, 37.3927242], [-5.9958656, 37.392719], [-5.9955948, 37.3927173], [-5.9954756, 37.3927173], [-5.995376, 37.392725], [-5.994924, 37.392751], [-5.994861, 37.3922847], [-5.994797, 37.391803], [-5.9946698, 37.3913397], [-5.9945161, 37.3909308], [-5.9943917, 37.3904014], [-5.994327, 37.3901151], [-5.9942735, 37.3898019], [-5.9941991, 37.3894656], [-5.994175, 37.389143], [-5.994154, 37.38867], [-5.994169, 37.388187], [-5.994296, 37.388071], [-5.9943041, 37.3879286], [-5.9942267, 37.38731], [-5.9941493, 37.386713], [-5.9940679, 37.3860718], [-5.9940344, 37.3857616], [-5.993999, 37.385447], [-5.9934331, 37.3854932], [-5.9929686, 37.3855304], [-5.992619, 37.385552], [-5.9926646, 37.3858225], [-5.99271, 37.386038], [-5.992325, 37.386077], [-5.992365, 37.386288], [-5.9924408, 37.3863144], [-5.9924973, 37.3863647], [-5.9925107, 37.3865266], [-5.992515, 37.38666], [-5.992549, 37.386763], [-5.992807, 37.386777], [-5.993037, 37.386751], [-5.993054, 37.386917], [-5.9930245, 37.3870101], [-5.9929267, 37.3871073], [-5.992697, 37.387288], [-5.992489, 37.387452], [-5.992594, 37.387654], [-5.992704, 37.387858], [-5.99277, 37.38804], [-5.992784, 37.388285], [-5.992744, 37.388583], [-5.992621, 37.388828], [-5.992568, 37.389176], [-5.992542, 37.389426], [-5.992353, 37.389737], [-5.991765, 37.389785], [-5.9912273, 37.3900874], [-5.9911748, 37.3902722], [-5.9911616, 37.3904076], [-5.9910099, 37.3904447], [-5.9908985, 37.390408], [-5.9904867, 37.3902882], [-5.9903819, 37.3904418], [-5.9902529, 37.3906875], [-5.9904478, 37.3907416], [-5.9898676, 37.3921092], [-5.9898384, 37.3923782], [-5.9897195, 37.3928768], [-5.9896104, 37.3932572], [-5.9895497, 37.3934523], [-5.9894588, 37.3936786], [-5.9893971, 37.3938287], [-5.9892255, 37.3941674], [-5.9891573, 37.3941149], [-5.9887906, 37.393903], [-5.9887193, 37.3938134], [-5.9885758, 37.3936531], [-5.988363, 37.3934283], [-5.9882202, 37.3933177], [-5.9882206, 37.3935318], [-5.9880077, 37.393698], [-5.9878299, 37.3938438]]}}, {"type": "Feature", "properties": {"id_hdad": 2, "hermandad": "La Cena", "calle": "Calle Sol"}, "geometry": {"type": "Point", "coordinates": [-5.9878229, 37.3938327]}}, {"type": "Feature", "properties": {"id_hdad": 2, "hermandad": "La Cena", "calle": "Plaza de Los Terceros"}, "geometry": {"type": "Point", "coordinates": [-5.9882071, 37.39353]}}, {"type": "Feature", "properties": {"id_hdad": 2, "hermandad": "La Cena", "calle": "Calle Capataz Manuel Santiago"}, "geometry": {"type": "Point", "coordinates": [-5.9882221, 37.3933162]}}, {"type": "Feature", "properties": {"id_hdad": 2, "hermandad": "La Cena", "calle": "Calle Almirante Apodaca"}, "geometry": {"type": "Point", "coordinates": [-5.989031, 37.392704]}}, {"type": "Feature", "properties": {"id_hdad": 2, "hermandad": "La Cena", "calle": "Plaza de San Pedro"}, "geometry": {"type": "Point", "coordinates": [-5.9899423, 37.3924834]}}, {"type": "Feature", "properties": {"id_hdad": 2, "hermandad": "La Cena", "calle": "Calle Imagen"}, "geometry": {"type": "Point", "coordinates": [-5.99088, 37.39261]}}, {"type": "Feature", "properties": {"id_hdad": 2, "hermandad": "La Cena", "calle": "Plaza de la Encarnación"}, "geometry": {"type": "Point", "coordinates": [-5.9922302, 37.392777]}}, {"type": "Feature", "properties": {"id_hdad": 2, "hermandad": "La Cena", "calle": "Calle Laraña"}, "geometry": {"type": "Point", "coordinates": [-5.9936593, 37.3928157]}}, {"type": "Feature", "properties": {"id_hdad": 2, "hermandad": "La Cena", "calle": "Calle Orfila"}, "geometry": {"type": "Point", "coordinates": [-5.993689, 37.393287]}}, {"type": "Feature", "properties": {"id_hdad": 2, "hermandad": "La Cena", "calle": "Calle Javier Lasso de la Vega"}, "geometry": {"type": "Point", "coordinates": [-5.994575, 37.393545]}}, {"type": "Feature", "properties": {"id_hdad": 2, "hermandad": "La Cena", "calle": "Plaza del Duque de la Victoria"}, "geometry": {"type": "Point", "coordinates": [-5.996046, 37.393115]}}, {"type": "Feature", "properties": {"id_hdad": 2, "hermandad": "La Cena", "calle": "La Campana"}, "geometry": {"type": "Point", "coordinates": [-5.995376, 37.392725]}}, {"type": "Feature", "properties": {"id_hdad": 2, "hermandad": "La Cena", "calle": "Calle Sierpes"}, "geometry": {"type": "Point", "coordinates": [-5.9945161, 37.3909308]}}, {"type": "Feature", "properties": {"id_hdad": 2, "hermandad": "La Cena", "calle": "Plaza de San Francisco"}, "geometry": {"type": "Point", "coordinates": [-5.994154, 37.38867]}}, {"type": "Feature", "properties": {"id_hdad": 2, "hermandad": "La Cena", "calle": "Avenida de la Constitución"}, "geometry": {"type": "Point", "coordinates": [-5.9940679, 37.3860718]}}, {"type": "Feature", "properties": {"id_hdad": 2, "hermandad": "La Cena", "calle": "Calle Cardenal Carlos Amigo"}, "geometry": {"type": "Point", "coordinates": [-5.9926646, 37.3858225]}}, {"type": "Feature", "properties": {"id_hdad": 2, "hermandad": "La Cena", "calle": "Calle Alemanes"}, "geometry": {"type": "Point", "coordinates": [-5.9924973, 37.3863647]}}, {"type": "Feature", "properties": {"id_hdad": 2, "hermandad": "La Cena", "calle": "Calle Álvarez Quintero"}, "geometry": {"type": "Point", "coordinates": [-5.993054, 37.386917]}}, {"type": "Feature", "properties": {"id_hdad": 2, "hermandad": "La Cena", "calle": "Calle Argote de Molina"}, "geometry": {"type": "Point", "coordinates": [-5.992489, 37.387452]}}, {"type": "Feature", "properties": {"id_hdad": 2, "hermandad": "La Cena", "calle": "Calle Placentines"}, "geometry": {"type": "Point", "coordinates": [-5.99277, 37.38804]}}, {"type": "Feature", "properties": {"id_hdad": 2, "hermandad": "La Cena", "calle": "Calle Francos"}, "geometry": {"type": "Point", "coordinates": [-5.992621, 37.388828]}}, {"type": "Feature", "properties": {"id_hdad": 2, "hermandad": "La Cena", "calle": "Cuesta del Rosario"}, "geometry": {"type": "Point", "coordinates": [-5.991765, 37.389785]}}, {"type": "Feature", "properties": {"id_hdad": 2, "hermandad": "La Cena", "calle": "Calle Ángel María Camacho"}, "geometry": {"type": "Point", "coordinates": [-5.9912273, 37.3900874]}}, {"type": "Feature", "properties": {"id_hdad": 2, "hermandad": "La Cena", "calle": "Plaza de La Alfalfa"}, "geometry": {"type": "Point", "coordinates": [-5.9908985, 37.390408]}}, {"type": "Feature", "properties": {"id_hdad": 2, "hermandad": "La Cena", "calle": "Calle Odreros"}, "geometry": {"type": "Point", "coordinates": [-5.9903819, 37.3904418]}}, {"type": "Feature", "properties": {"id_hdad": 2, "hermandad": "La Cena", "calle": "Calle Boteros"}, "geometry": {"type": "Point", "coordinates": [-5.9904478, 37.3907416]}}, {"type": "Feature", "properties": {"id_hdad": 2, "hermandad": "La Cena", "calle": "Plaza del Cristo de Burgos"}, "geometry": {"type": "Point", "coordinates": [-5.9898676, 37.3921092]}}, {"type": "Feature", "properties": {"id_hdad": 2, "hermandad": "La Cena", "calle": "Calle Doña María Coronel"}, "geometry": {"type": "Point", "coordinates": [-5.9896104, 37.3932572]}}, {"type": "Feature", "properties": {"id_hdad": 2, "hermandad": "La Cena", "calle": "Calle Gerona"}, "geometry": {"type": "Point", "coordinates": [-5.9893971, 37.3938287]}}, {"type": "Feature", "properties": {"id_hdad": 2, "hermandad": "La Cena", "calle": "Calle Capataz Manuel Santiago"}, "geometry": {"type": "Point", "coordinates": [-5.9887193, 37.3938134]}}, {"type": "Feature", "properties": {"id_hdad": 2, "hermandad": "La Cena", "calle": "Plaza de Los Terceros"}, "geometry": {"type": "Point", "coordinates": [-5.9882202, 37.3933177]}}, {"type": "Feature", "properties": {"id_hdad": 2, "hermandad": "La Cena", "calle": "Calle Sol"}, "geometry": {"type": "Point", "coordinates": [-5.9878299, 37.3938438]}}]}