{
    "type": "FeatureCollection",
    "features": [
        {
            "type": "Feature",
            "properties": {
                "id_hdad": 3,
                "nombre": "Jesús Despojado",
                "dia": "domingo-de-ramos"
            },
            "geometry": {
                "type": "LineString",
                "coordinates": [
                    [
                        -5.9977659,
                        37.387818
                    ],
                    [
                        -5.9981248,
                        37.3880945
                    ],
                    [
                        -5.9979742,
                        37.3882779
                    ],
                    [
                        -5.9978256,
                        37.3884708
                    ],
                    [
                        -5.9979456,
                        37.3885224
                    ],
                    [
                        -5.9986984,
                        37.3889051
                    ],
                    [
                        -5.9994174,
                        37.3893645
                    ],
                    [
                        -5.9990555,
                        37.3897069
                    ],
                    [
                        -5.9984141,
                        37.3901157
                    ],
                    [
                        -5.9981357,
                        37.3903005
                    ],
                    [
                        -5.9977972,
                        37.390502
                    ],
                    [
                        -5.9974906,
                        37.3905804
                    ],
                    [
                        -5.9968379,
                        37.390749
                    ],
                    [
                        -5.9961417,
                        37.3909354
                    ],
                    [
                        -5.9953857,
                        37.3910684
                    ],
                    [
                        -5.9953963,
                        37.3913106
                    ],
                    [
                        -5.9954456,
                        37.3918072
                    ],
                    [
                        -5.9954615,
                        37.3920765
                    ],
                    [
                        -5.995386,
                        37.3924668
                    ],
                    [
                        -5.9954141,
                        37.3927175
                    ],
                    [
                        -5.994924,
                        37.392751
                    ],
                    [
                        -5.994797,
                        37.391803
                    ],
                    [
                        -5.994542,
                        37.390976
                    ],
                    [
                        -5.994258,
                        37.389845
                    ],
                    [
                        -5.994175,
                        37.389143
                    ],
                    [
                        -5.994151,
                        37.388605
                    ],
                    [
                        -5.994169,
                        37.388187
                    ],
                    [
                        -5.994296,
                        37.388071
                    ],
                    [
                        -5.9943041,
                        37.3879286
                    ],
                    [
                        -5.9942267,
                        37.38731
                    ],
                    [
                        -5.9941493,
                        37.386713
                    ],
                    [
                        -5.9940679,
                        37.3860718
                    ],
                    [
                        -5.9940344,
                        37.3857616
                    ],
                    [
                        -5.993999,
                        37.385447
                    ],
                    [
                        -5.9934331,
                        37.3854932
                    ],
                    [
                        -5.9929686,
                        37.3855304
                    ],
                    [
                        -5.992619,
                        37.385552
                    ],
                    [
                        -5.9926646,
                        37.3858225
                    ],
                    [
                        -5.99271,
                        37.386038
                    ],
                    [
                        -5.992325,
                        37.386077
                    ],
                    [
                        -5.9922162,
                        37.3855949
                    ],
                    [
                        -5.9921519,
                        37.3853995
                    ],
                    [
                        -5.9920345,
                        37.385324
                    ],
                    [
                        -5.9919283,
                        37.3852485
                    ],
                    [
                        -5.9918473,
                        37.3851486
                    ],
                    [
                        -5.9918473,
                        37.3850842
                    ],
                    [
                        -5.9921519,
                        37.3849399
                    ],
                    [
                        -5.9923391,
                        37.3848355
                    ],
                    [
                        -5.9924311,
                        37.38476
                    ],
                    [
                        -5.992429,
                        37.384591
                    ],
                    [
                        -5.9930211,
                        37.38433
                    ],
                    [
                        -5.9935917,
                        37.384098
                    ],
                    [
                        -5.9938376,
                        37.3839648
                    ],
                    [
                        -5.9940081,
                        37.3837428
                    ],
                    [
                        -5.9942981,
                        37.3836496
                    ],
                    [
                        -5.994354,
                        37.3840404
                    ],
                    [
                        -5.9944638,
                        37.3844962
                    ],
                    [
                        -5.9945896,
                        37.3849635
                    ],
                    [
                        -5.9946287,
                        37.3851411
                    ],
                    [
                        -5.9946902,
                        37.3852055
                    ],
                    [
                        -5.9948215,
                        37.3852433
                    ],
                    [
                        -5.9949686,
                        37.3852363
                    ],
                    [
                        -5.9951972,
                        37.385176
                    ],
                    [
                        -5.9960999,
                        37.3848878
                    ],
                    [
                        -5.9964995,
                        37.3846237
                    ],
                    [
                        -5.9969331,
                        37.3849621
                    ],
                    [
                        -5.997349,
                        37.3853119
                    ],
                    [
                        -5.9969212,
                        37.385614
                    ],
                    [
                        -5.9963944,
                        37.3858329
                    ],
                    [
                        -5.9965601,
                        37.3859909
                    ],
                    [
                        -5.9967043,
                        37.3861578
                    ],
                    [
                        -5.9965909,
                        37.386278
                    ],
                    [
                        -5.9963883,
                        37.3862694
                    ],
                    [
                        -5.9962073,
                        37.3861879
                    ],
                    [
                        -5.9961081,
                        37.3862154
                    ],
                    [
                        -5.9960913,
                        37.3862939
                    ],
                    [
                        -5.9965991,
                        37.3867167
                    ],
                    [
                        -5.9963141,
                        37.3869492
                    ],
                    [
                        -5.9961075,
                        37.3871925
                    ],
                    [
                        -5.9960526,
                        37.3873507
                    ],
                    [
                        -5.9959438,
                        37.3874751
                    ],
                    [
                        -5.9956557,
                        37.3876967
                    ],
                    [
                        -5.9957817,
                        37.3877928
                    ],
                    [
                        -5.9959637,
                        37.387868
                    ],
                    [
                        -5.9962625,
                        37.3879022
                    ],
                    [
                        -5.9966965,
                        37.3881096
                    ],
                    [
                        -5.9970938,
                        37.388254
                    ],
                    [
                        -5.9973741,
                        37.3883323
                    ],
                    [
                        -5.9978218,
                        37.3884707
                    ],
                    [
                        -5.9980097,
                        37.3882382
                    ],
                    [
                        -5.9981211,
                        37.3880995
                    ],
                    [
                        -5.9978901,
                        37.3879086
                    ],
                    [
                        -5.9978254,
                        37.387867
                    ],
                    [
                        -5.9977719,
                        37.3878252
                    ]
                ]
            }
        },
        {
            "type": "Feature",
            "properties": {
                "id_hdad": 3,
                "hermandad": "Jesús Despojado",
                "calle": "Plaza de Molviedro",
                "osm": "Plaza de Molviedro"
            },
            "geometry": {
                "type": "Point",
                "coordinates": [
                    -5.9977484,
                    37.3878206
                ]
            }
        },
        {
            "type": "Feature",
            "properties": {
                "id_hdad": 3,
                "hermandad": "Jesús Despojado",
                "calle": "Calle Adolfo Cuéllar",
                "osm": "Calle Adolfo Cuéllar"
            },
            "geometry": {
                "type": "Point",
                "coordinates": [
                    -5.9980684,
                    37.3880401
                ]
            }
        },
        {
            "type": "Feature",
            "properties": {
                "id_hdad": 3,
                "hermandad": "Jesús Despojado",
                "calle": "Calle Fray Bartolomé de las Casas",
                "osm": "Calle Fray Bartolomé de las Casas"
            },
            "geometry": {
                "type": "Point",
                "coordinates": [
                    -5.9979742,
                    37.3882779
                ]
            }
        },
        {
            "type": "Feature",
            "properties": {
                "id_hdad": 3,
                "hermandad": "Jesús Despojado",
                "calle": "Calle Zaragoza",
                "osm": "Calle Zaragoza"
            },
            "geometry": {
                "type": "Point",
                "coordinates": [
                    -5.9980305,
                    37.3885674
                ]
            }
        },
        {
            "type": "Feature",
            "properties": {
                "id_hdad": 3,
                "hermandad": "Jesús Despojado",
                "calle": "Calle San Pablo",
                "osm": "Calle San Pablo"
            },
            "geometry": {
                "type": "Point",
                "coordinates": [
                    -5.9987771,
                    37.3898861
                ]
            }
        },
        {
            "type": "Feature",
            "properties": {
                "id_hdad": 3,
                "hermandad": "Jesús Despojado",
                "calle": "Plaza de la Magdalena",
                "osm": "Plaza de la Magdalena"
            },
            "geometry": {
                "type": "Point",
                "coordinates": [
                    -5.9968379,
                    37.390749
                ]
            }
        },
        {
            "type": "Feature",
            "properties": {
                "id_hdad": 3,
                "hermandad": "Jesús Despojado",
                "calle": "Calle Rioja",
                "osm": "Calle Rioja"
            },
            "geometry": {
                "type": "Point",
                "coordinates": [
                    -5.9959672,
                    37.390983
                ]
            }
        },
        {
            "type": "Feature",
            "properties": {
                "id_hdad": 3,
                "hermandad": "Jesús Despojado",
                "calle": "Calle Velázquez",
                "osm": "Calle Velázquez"
            },
            "geometry": {
                "type": "Point",
                "coordinates": [
                    -5.9954033,
                    37.3913554
                ]
            }
        },
        {
            "type": "Feature",
            "properties": {
                "id_hdad": 3,
                "hermandad": "Jesús Despojado",
                "calle": "Calle O'Donnell",
                "osm": "Calle O'Donnell"
            },
            "geometry": {
                "type": "Point",
                "coordinates": [
                    -5.995454,
                    37.392155
                ]
            }
        },
        {
            "type": "Feature",
            "properties": {
                "id_hdad": 3,
                "hermandad": "Jesús Despojado",
                "calle": "Avenida de la Constitución",
                "osm": "Avenida de la Constitución"
            },
            "geometry": {
                "type": "Point",
                "coordinates": [
                    -5.9940881,
                    37.386199
                ]
            }
        },
        {
            "type": "Feature",
            "properties": {
                "id_hdad": 3,
                "hermandad": "Jesús Despojado",
                "calle": "Plaza de San Francisco",
                "osm": "Plaza de San Francisco"
            },
            "geometry": {
                "type": "Point",
                "coordinates": [
                    -5.9941646,
                    37.3886662
                ]
            }
        },
        {
            "type": "Feature",
            "properties": {
                "id_hdad": 3,
                "hermandad": "Jesús Despojado",
                "calle": "Calle Sierpes",
                "osm": "Calle Sierpes"
            },
            "geometry": {
                "type": "Point",
                "coordinates": [
                    -5.9945405,
                    37.390955
                ]
            }
        },
        {
            "type": "Feature",
            "properties": {
                "id_hdad": 3,
                "hermandad": "Jesús Despojado",
                "calle": "La Campana",
                "osm": "Calle Campana"
            },
            "geometry": {
                "type": "Point",
                "coordinates": [
                    -5.9953759,
                    37.3927251
                ]
            }
        },
        {
            "type": "Feature",
            "properties": {
                "id_hdad": 3,
                "hermandad": "Jesús Despojado",
                "calle": "Plaza del Triunfo",
                "osm": "Plaza del Triunfo"
            },
            "geometry": {
                "type": "Point",
                "coordinates": [
                    -5.9922022,
                    37.3849199
                ]
            }
        },
        {
            "type": "Feature",
            "properties": {
                "id_hdad": 3,
                "hermandad": "Jesús Despojado",
                "calle": "Calle Santo Tomás",
                "osm": "Calle Santo Tomás"
            },
            "geometry": {
                "type": "Point",
                "coordinates": [
                    -5.9930211,
                    37.38433
                ]
            }
        },
        {
            "type": "Feature",
            "properties": {
                "id_hdad": 3,
                "hermandad": "Jesús Despojado",
                "calle": "Calle Adolfo Rodríguez Jurado",
                "osm": "Calle Adolfo Rodríguez Jurado"
            },
            "geometry": {
                "type": "Point",
                "coordinates": [
                    -5.9939801,
                    37.3837872
                ]
            }
        },
        {
            "type": "Feature",
            "properties": {
                "id_hdad": 3,
                "hermandad": "Jesús Despojado",
                "calle": "Plaza Ministro Indalecio Prieto",
                "osm": "Plaza Ministro Indalecio Prieto"
            },
            "geometry": {
                "type": "Point",
                "coordinates": [
                    -5.9943261,
                    37.383794
                ]
            }
        },
        {
            "type": "Feature",
            "properties": {
                "id_hdad": 3,
                "hermandad": "Jesús Despojado",
                "calle": "Calle Tomás de Ibarra",
                "osm": "Calle Tomás de Ibarra"
            },
            "geometry": {
                "type": "Point",
                "coordinates": [
                    -5.9944694,
                    37.3845251
                ]
            }
        },
        {
            "type": "Feature",
            "properties": {
                "id_hdad": 3,
                "hermandad": "Jesús Despojado",
                "calle": "Calle Almirantazgo",
                "osm": "Calle Almirantazgo"
            },
            "geometry": {
                "type": "Point",
                "coordinates": [
                    -5.9947573,
                    37.3852277
                ]
            }
        },
        {
            "type": "Feature",
            "properties": {
                "id_hdad": 3,
                "hermandad": "Jesús Despojado",
                "calle": "Calle Arco del Postigo",
                "osm": "Calle Arco del Postigo"
            },
            "geometry": {
                "type": "Point",
                "coordinates": [
                    -5.9949714,
                    37.3852341
                ]
            }
        },
        {
            "type": "Feature",
            "properties": {
                "id_hdad": 3,
                "hermandad": "Jesús Despojado",
                "calle": "Calle Dos de Mayo",
                "osm": "Calle Dos de Mayo"
            },
            "geometry": {
                "type": "Point",
                "coordinates": [
                    -5.9951972,
                    37.385176
                ]
            }
        },
        {
            "type": "Feature",
            "properties": {
                "id_hdad": 3,
                "hermandad": "Jesús Despojado",
                "calle": "Calle Rodo",
                "osm": "Calle Rodo"
            },
            "geometry": {
                "type": "Point",
                "coordinates": [
                    -5.9969331,
                    37.3849621
                ]
            }
        },
        {
            "type": "Feature",
            "properties": {
                "id_hdad": 3,
                "hermandad": "Jesús Despojado",
                "calle": "Calle Real de la Carretería",
                "osm": "Calle Real de la Carretería"
            },
            "geometry": {
                "type": "Point",
                "coordinates": [
                    -5.996941,
                    37.3856006
                ]
            }
        },
        {
            "type": "Feature",
            "properties": {
                "id_hdad": 3,
                "hermandad": "Jesús Despojado",
                "calle": "Calle Toneleros",
                "osm": "Calle Toneleros"
            },
            "geometry": {
                "type": "Point",
                "coordinates": [
                    -5.9965601,
                    37.3859909
                ]
            }
        },
        {
            "type": "Feature",
            "properties": {
                "id_hdad": 3,
                "hermandad": "Jesús Despojado",
                "calle": "Calle Antonia Díaz",
                "osm": "Calle Antonia Díaz"
            },
            "geometry": {
                "type": "Point",
                "coordinates": [
                    -5.9966638,
                    37.3861836
                ]
            }
        },
        {
            "type": "Feature",
            "properties": {
                "id_hdad": 3,
                "hermandad": "Jesús Despojado",
                "calle": "Calle Puerta del Arenal",
                "osm": "Calle Puerta del Arenal"
            },
            "geometry": {
                "type": "Point",
                "coordinates": [
                    -5.9961081,
                    37.3862154
                ]
            }
        },
        {
            "type": "Feature",
            "properties": {
                "id_hdad": 3,
                "hermandad": "Jesús Despojado",
                "calle": "Calle Castelar",
                "osm": "Calle Castelar"
            },
            "geometry": {
                "type": "Point",
                "coordinates": [
                    -5.9963303,
                    37.3864856
                ]
            }
        },
        {
            "type": "Feature",
            "properties": {
                "id_hdad": 3,
                "hermandad": "Jesús Despojado",
                "calle": "Calle Gamazo",
                "osm": "Calle Gamazo"
            },
            "geometry": {
                "type": "Point",
                "coordinates": [
                    -5.9961075,
                    37.3871925
                ]
            }
        },
        {
            "type": "Feature",
            "properties": {
                "id_hdad": 3,
                "hermandad": "Jesús Despojado",
                "calle": "Calle Zaragoza",
                "osm": "Calle Zaragoza"
            },
            "geometry": {
                "type": "Point",
                "coordinates": [
                    -5.9964868,
                    37.3879924
                ]
            }
        },
        {
            "type": "Feature",
            "properties": {
                "id_hdad": 3,
                "hermandad": "Jesús Despojado",
                "calle": "Calle Fray Bartolomé de las Casas",
                "osm": "Calle Fray Bartolomé de las Casas"
            },
            "geometry": {
                "type": "Point",
                "coordinates": [
                    -5.9979742,
                    37.3882779
                ]
            }
        },
        {
            "type": "Feature",
            "properties": {
                "id_hdad": 3,
                "hermandad": "Jesús Despojado",
                "calle": "Calle Adolfo Cuéllar",
                "osm": "Calle Adolfo Cuéllar"
            },
            "geometry": {
                "type": "Point",
                "coordinates": [
                    -5.9980684,
                    37.3880401
                ]
            }
        },
        {
            "type": "Feature",
            "properties": {
                "id_hdad": 3,
                "hermandad": "Jesús Despojado",
                "calle": "Plaza de Molviedro",
                "osm": "Plaza de Molviedro"
            },
            "geometry": {
                "type": "Point",
                "coordinates": [
                    -5.9977638,
                    37.3878181
                ]
            }
        }
    ]
}