{"type": "FeatureCollection", "features": [{"type": "Feature", "properties": {"id_hdad": 4, "nombre": "La Hiniesta", "dia": "domingo-de-ramos"}, "geometry": {"type": "LineString", "coordinates": [[-5.9880274, 37.3989545], [-5.9881865, 37.3989276], [-5.9882598, 37.3991932], [-5.9887279, 37.4010172], [-5.9886751, 37.4007527], [-5.9886424, 37.4005938], [-5.9888262, 37.4005504], [-5.9890499, 37.400523], [-5.9896975, 37.4004941], [-5.9899448, 37.4004767], [-5.9902068, 37.4004421], [-5.9905433, 37.4003366], [-5.9909489, 37.4003265], [-5.9915567, 37.3980591], [-5.9921885, 37.3978378], [-5.9927442, 37.3974166], [-5.9929609, 37.3972401], [-5.9931954, 37.397125], [-5.9932772, 37.3970361], [-5.9935359, 37.3968909], [-5.9938169, 37.3967418], [-5.994027, 37.396751], [-5.994374, 37.39685], [-5.994618, 37.396413], [-5.995633, 37.393113], [-5.995631, 37.392901], [-5.9956336, 37.3927225], [-5.995376, 37.392725], [-5.994924, 37.392751], [-5.994797, 37.391803], [-5.9945202, 37.3909414], [-5.994258, 37.389845], [-5.994175, 37.389143], [-5.994154, 37.38867], [-5.994169, 37.388187], [-5.994296, 37.388071], [-5.9943041, 37.3879286], [-5.9942267, 37.38731], [-5.9941493, 37.386713], [-5.9940679, 37.3860718], [-5.9940344, 37.3857616], [-5.993999, 37.385447], [-5.9934331, 37.3854932], [-5.9929686, 37.3855304], [-5.992619, 37.385552], [-5.9926646, 37.3858225], [-5.99271, 37.386038], [-5.992325, 37.386077], [-5.992365, 37.386288], [-5.9924527, 37.3863161], [-5.9925164, 37.3863997], [-5.992537, 37.386555], [-5.992515, 37.38666], [-5.992549, 37.386763], [-5.992807, 37.386777], [-5.993037, 37.386751], [-5.993054, 37.386917], [-5.9930245, 37.3870101], [-5.9929267, 37.3871073], [-5.992697, 37.387288], [-5.9929267, 37.3871073], [-5.9930245, 37.3870101], [-5.993054, 37.386917], [-5.992594, 37.387654], [-5.992704, 37.387858], [-5.99277, 37.38804], [-5.992784, 37.388285], [-5.992744, 37.388583], [-5.992621, 37.388828], [-5.992568, 37.389176], [-5.992542, 37.389426], [-5.992353, 37.389737], [-5.991765, 37.389785], [-5.991357, 37.389798], [-5.991092, 37.38979], [-5.990856, 37.389772], [-5.990668, 37.389983], [-5.9903819, 37.3904418], [-5.9902529, 37.3906875], [-5.9904478, 37.3907416], [-5.988238, 37.3948513], [-5.9879858, 37.3948218], [-5.987947, 37.3949451], [-5.9879513, 37.3950582], [-5.9879772, 37.3955213], [-5.9878402, 37.3961666], [-5.9878074, 37.3964827], [-5.9877868, 37.396904], [-5.9878716, 37.3976445], [-5.9879903, 37.3982898], [-5.9881841, 37.398929], [-5.9880318, 37.3989573]]}}, {"type": "Feature", "properties": {"id_hdad": 4, "hermandad": "La Hiniesta", "calle": "Plaza del Señor de la Resurrección"}, "geometry": {"type": "Point", "coordinates": [-5.9880274, 37.3989545]}}, {"type": "Feature", "properties": {"id_hdad": 4, "hermandad": "La Hiniesta", "calle": "Calle San Luis"}, "geometry": {"type": "Point", "coordinates": [-5.9882598, 37.3991932]}}, {"type": "Feature", "properties": {"id_hdad": 4, "hermandad": "La Hiniesta", "calle": "Plaza del Pumarejo"}, "geometry": {"type": "Point", "coordinates": [-5.9887279, 37.4010172]}}, {"type": "Feature", "properties": {"id_hdad": 4, "hermandad": "La Hiniesta", "calle": "Calle Relator"}, "geometry": {"type": "Point", "coordinates": [-5.9909489, 37.4003265]}}, {"type": "Feature", "properties": {"id_hdad": 4, "hermandad": "La Hiniesta", "calle": "Calle Feria"}, "geometry": {"type": "Point", "coordinates": [-5.9915567, 37.3980591]}}, {"type": "Feature", "properties": {"id_hdad": 4, "hermandad": "La Hiniesta", "calle": "Calle Correduría"}, "geometry": {"type": "Point", "coordinates": [-5.992704, 37.3974463]}}, {"type": "Feature", "properties": {"id_hdad": 4, "hermandad": "La Hiniesta", "calle": "Calle Amor de Dios"}, "geometry": {"type": "Point", "coordinates": [-5.9932772, 37.3970361]}}, {"type": "Feature", "properties": {"id_hdad": 4, "hermandad": "La Hiniesta", "calle": "Alameda de Hércules"}, "geometry": {"type": "Point", "coordinates": [-5.9938169, 37.3967418]}}, {"type": "Feature", "properties": {"id_hdad": 4, "hermandad": "La Hiniesta", "calle": "Calle Trajano"}, "geometry": {"type": "Point", "coordinates": [-5.994618, 37.396413]}}, {"type": "Feature", "properties": {"id_hdad": 4, "hermandad": "La Hiniesta", "calle": "Plaza del Duque de la Victoria"}, "geometry": {"type": "Point", "coordinates": [-5.995633, 37.393113]}}, {"type": "Feature", "properties": {"id_hdad": 4, "hermandad": "La Hiniesta", "calle": "La Campana"}, "geometry": {"type": "Point", "coordinates": [-5.994797, 37.391803]}}, {"type": "Feature", "properties": {"id_hdad": 4, "hermandad": "La Hiniesta", "calle": "Calle Sierpes"}, "geometry": {"type": "Point", "coordinates": [-5.994169, 37.388187]}}, {"type": "Feature", "properties": {"id_hdad": 4, "hermandad": "La Hiniesta", "calle": "Plaza de San Francisco"}, "geometry": {"type": "Point", "coordinates": [-5.9940679, 37.3860718]}}, {"type": "Feature", "properties": {"id_hdad": 4, "hermandad": "La Hiniesta", "calle": "Avenida de la Constitución"}, "geometry": {"type": "Point", "coordinates": [-5.992619, 37.385552]}}, {"type": "Feature", "properties": {"id_hdad": 4, "hermandad": "La Hiniesta", "calle": "Calle Cardenal Carlos Amigo"}, "geometry": {"type": "Point", "coordinates": [-5.9924527, 37.3863161]}}, {"type": "Feature", "properties": {"id_hdad": 4, "hermandad": "La Hiniesta", "calle": "Calle Alemanes"}, "geometry": {"type": "Point", "coordinates": [-5.992807, 37.386777]}}, {"type": "Feature", "properties": {"id_hdad": 4, "hermandad": "La Hiniesta", "calle": "Calle Argote de Molina"}, "geometry": {"type": "Point", "coordinates": [-5.992697, 37.387288]}}, {"type": "Feature", "properties": {"id_hdad": 4, "hermandad": "La Hiniesta", "calle": "Calle Álvarez Quintero"}, "geometry": {"type": "Point", "coordinates": [-5.993054, 37.386917]}}, {"type": "Feature", "properties": {"id_hdad": 4, "hermandad": "La Hiniesta", "calle": "Calle Placentines"}, "geometry": {"type": "Point", "coordinates": [-5.992594, 37.387654]}}, {"type": "Feature", "properties": {"id_hdad": 4, "hermandad": "La Hiniesta", "calle": "Calle Francos"}, "geometry": {"type": "Point", "coordinates": [-5.992744, 37.388583]}}, {"type": "Feature", "properties": {"id_hdad": 4, "hermandad": "La Hiniesta", "calle": "Cuesta del Rosario"}, "geometry": {"type": "Point", "coordinates": [-5.992542, 37.389426]}}, {"type": "Feature", "properties": {"id_hdad": 4, "hermandad": "La Hiniesta", "calle": "Calle Jesús de las Tres Caídas"}, "geometry": {"type": "Point", "coordinates": [-5.991357, 37.389798]}}, {"type": "Feature", "properties": {"id_hdad": 4, "hermandad": "La Hiniesta", "calle": "Calle Odreros"}, "geometry": {"type": "Point", "coordinates": [-5.9903819, 37.3904418]}}, {"type": "Feature", "properties": {"id_hdad": 4, "hermandad": "La Hiniesta", "calle": "Calle Boteros"}, "geometry": {"type": "Point", "coordinates": [-5.9904478, 37.3907416]}}, {"type": "Feature", "properties": {"id_hdad": 4, "hermandad": "La Hiniesta", "calle": "Plaza de San Pedro"}, "geometry": {"type": "Point", "coordinates": [-5.989692, 37.392505]}}, {"type": "Feature", "properties": {"id_hdad": 4, "hermandad": "La Hiniesta", "calle": "Calle Doña María Coronel"}, "geometry": {"type": "Point", "coordinates": [-5.988238, 37.3948513]}}, {"type": "Feature", "properties": {"id_hdad": 4, "hermandad": "La Hiniesta", "calle": "Calle Bustos Tavera"}, "geometry": {"type": "Point", "coordinates": [-5.987947, 37.3949451]}}, {"type": "Feature", "properties": {"id_hdad": 4, "hermandad": "La Hiniesta", "calle": "Plaza de San Marcos"}, "geometry": {"type": "Point", "coordinates": [-5.9878323, 37.3962043]}}, {"type": "Feature", "properties": {"id_hdad": 4, "hermandad": "La Hiniesta", "calle": "Calle San Luis"}, "geometry": {"type": "Point", "coordinates": [-5.9878716, 37.3976445]}}, {"type": "Feature", "properties": {"id_hdad": 4, "hermandad": "La Hiniesta", "calle": "Plaza del Señor de la Resurrección"}, "geometry": {"type": "Point", "coordinates": [-5.9880318, 37.3989573]}}]}