{"type":"FeatureCollection","features":[{"type":"Feature","properties":{"id_hdad":5,"nombre":"La Paz","dia":"domingo-de-ramos"},"geometry":{"type":"LineString","coordinates":[[-5.9829333,37.3746471],[-5.9830921,37.3736289],[-5.9832682,37.3736398],[-5.98475,37.3738132],[-5.9854733,37.3738739],[-5.985871,37.3739952],[-5.9860792,37.3740962],[-5.986214,37.3741859],[-5.9868594,37.3752148],[-5.987064,37.3753969],[-5.9873833,37.3759238],[-5.9877903,37.3765997],[-5.9892312,37.3790236],[-5.9894959,37.3790912],[-5.9896116,37.3792803],[-5.9900008,37.3794341],[-5.9910196,37.3797116],[-5.9920369,37.3799664],[-5.9923655,37.3800318],[-5.9925767,37.3801841],[-5.9926243,37.3803172],[-5.9926932,37.3807414],[-5.9928618,37.3808504],[-5.993329,37.3809717],[-5.9936905,37.3810426],[-5.9935192,37.3815146],[-5.9932468,37.382354],[-5.993231,37.3824421],[-5.993386,37.3825876],[-5.9935221,37.3827817],[-5.9936639,37.3834745],[-5.9937289,37.3839117],[-5.9937876,37.383921],[-5.9938486,37.3839061],[-5.9940294,37.3837512],[-5.9942382,37.3836664],[-5.9942979,37.3836747],[-5.9943312,37.383857],[-5.9943852,37.3842448],[-5.9945193,37.3847288],[-5.9946163,37.3850875],[-5.9946418,37.3851627],[-5.994698,37.3852047],[-5.9948332,37.3852456],[-5.9949457,37.3852314],[-5.9953772,37.3851278],[-5.9953197,37.3852771],[-5.995335,37.3853624],[-5.9953612,37.3855585],[-5.9954355,37.3856867],[-5.9955996,37.3858237],[-5.9957709,37.3859405],[-5.9960394,37.3860835],[-5.996195,37.3861697],[-5.9962079,37.3861845],[-5.9961879,37.3862049],[-5.9960708,37.3862344],[-5.9960765,37.38629],[-5.9965849,37.3866886],[-5.9963184,37.3869241],[-5.9961075,37.3871925],[-5.996004,37.3874004],[-5.9956627,37.3876764],[-5.9954882,37.3877395],[-5.995501,37.3879628],[-5.9955241,37.3881881],[-5.994877,37.3882429],[-5.9949524,37.3889167],[-5.9950228,37.3895868],[-5.995125,37.3900509],[-5.9953197,37.3907871],[-5.995383,37.391055],[-5.9954178,37.3914794],[-5.9954615,37.3920765],[-5.995386,37.3924668],[-5.9954141,37.3927175],[-5.994924,37.392751],[-5.994797,37.391803],[-5.994542,37.390976],[-5.994258,37.389845],[-5.994175,37.389143],[-5.994151,37.388605],[-5.994169,37.388187],[-5.994296,37.388071],[-5.9943041,37.3879286],[-5.9942267,37.38731],[-5.9941493,37.386713],[-5.9940679,37.3860718],[-5.9940344,37.3857616],[-5.993999,37.385447],[-5.9934331,37.3854932],[-5.9929686,37.3855304],[-5.992619,37.385552],[-5.9926646,37.3858225],[-5.99271,37.386038],[-5.992325,37.386077],[-5.9922097,37.3856128],[-5.9921552,37.3853873],[-5.9920569,37.3853223],[-5.9919205,37.3852486],[-5.9918789,37.3851052],[-5.9920842,37.3849667],[-5.9924191,37.384767],[-5.9923917,37.3845631],[-5.9922662,37.3843614],[-5.9925309,37.3841793],[-5.9926543,37.3840931],[-5.992504,37.3837765],[-5.992534,37.3836746],[-5.992725,37.3835554],[-5.9927687,37.3834448],[-5.9929542,37.3830633],[-5.9931343,37.3827254],[-5.9932445,37.3823466],[-5.9934816,37.3816116],[-5.9936976,37.3810445],[-5.9933337,37.3809736],[-5.9928665,37.3808467],[-5.9926932,37.3807396],[-5.992622,37.3802978],[-5.9925745,37.3801823],[-5.9923722,37.3800336],[-5.9920413,37.3799664],[-5.9910107,37.3797045],[-5.9900008,37.3794323],[-5.9896094,37.3792874],[-5.9895026,37.3790929],[-5.9892468,37.3790271],[-5.9889245,37.3784846],[-5.9885233,37.3777994],[-5.9878546,37.3767006],[-5.9874768,37.3760923],[-5.9871403,37.3755336],[-5.9870202,37.3753852],[-5.9868785,37.3752321],[-5.986214,37.374184],[-5.9860792,37.3740962],[-5.985878,37.3739952],[-5.9854775,37.3738772],[-5.9844329,37.3737498],[-5.9844547,37.3732749],[-5.9844554,37.3732221],[-5.9837078,37.3730247],[-5.9831757,37.3728578],[-5.9830651,37.3737122],[-5.9829333,37.3746516]]}},{"type":"Feature","properties":{"id_hdad":5,"hermandad":"La Paz","calle":"Calle San Salvador","osm":"Calle San Salvador"},"geometry":{"type":"Point","coordinates":[-5.9828992,37.3747243]}},{"type":"Feature","properties":{"id_hdad":5,"hermandad":"La Paz","calle":"Calle Río de la Plata","osm":"Calle Río de la Plata"},"geometry":{"type":"Point","coordinates":[-5.9830462,37.3739611]}},{"type":"Feature","properties":{"id_hdad":5,"hermandad":"La Paz","calle":"Calle Brasil","osm":"Calle Brasil"},"geometry":{"type":"Point","coordinates":[-5.9835757,37.3736588]}},{"type":"Feature","properties":{"id_hdad":5,"hermandad":"La Paz","calle":"Avenida de Covadonga","osm":"Glorieta Covadonga"},"geometry":{"type":"Point","coordinates":[-5.9861333,37.3741971]}},{"type":"Feature","properties":{"id_hdad":5,"hermandad":"La Paz","calle":"Avenida de Isabel la Católica","osm":"Avenida Isabel la Católica"},"geometry":{"type":"Point","coordinates":[-5.9888909,37.3784208]}},{"type":"Feature","properties":{"id_hdad":5,"hermandad":"La Paz","calle":"Calle Palos de la Frontera","osm":"Calle Palos de la Frontera"},"geometry":{"type":"Point","coordinates":[-5.9926398,37.3803897]}},{"type":"Feature","properties":{"id_hdad":5,"hermandad":"La Paz","calle":"Avenida de Roma","osm":"Avenida de Roma"},"geometry":{"type":"Point","coordinates":[-5.9935431,37.3814606]}},{"type":"Feature","properties":{"id_hdad":5,"hermandad":"La Paz","calle":"Plaza Puerta de Jerez","osm":"Plaza Puerta de Jerez"},"geometry":{"type":"Point","coordinates":[-5.9932803,37.3823377]}},{"type":"Feature","properties":{"id_hdad":5,"hermandad":"La Paz","calle":"Avenida de la Constitución","osm":"Avenida de la Constitución"},"geometry":{"type":"Point","coordinates":[-5.9936639,37.3834745]}},{"type":"Feature","properties":{"id_hdad":5,"hermandad":"La Paz","calle":"Calle Adolfo Rodríguez Jurado","osm":"Calle Adolfo Rodríguez Jurado"},"geometry":{"type":"Point","coordinates":[-5.9940287,37.3837484]}},{"type":"Feature","properties":{"id_hdad":5,"hermandad":"La Paz","calle":"Plaza Ministro Indalecio Prieto","osm":"Plaza Ministro Indalecio Prieto"},"geometry":{"type":"Point","coordinates":[-5.9943219,37.3837923]}},{"type":"Feature","properties":{"id_hdad":5,"hermandad":"La Paz","calle":"Calle Tomás de Ibarra","osm":"Calle Tomás de Ibarra"},"geometry":{"type":"Point","coordinates":[-5.9943926,37.3842536]}},{"type":"Feature","properties":{"id_hdad":5,"hermandad":"La Paz","calle":"Calle Almirantazgo","osm":"Calle Almirantazgo"},"geometry":{"type":"Point","coordinates":[-5.994698,37.3852033]}},{"type":"Feature","properties":{"id_hdad":5,"hermandad":"La Paz","calle":"Calle Arco del Postigo","osm":"Calle Arco del Postigo"},"geometry":{"type":"Point","coordinates":[-5.9949623,37.3852335]}},{"type":"Feature","properties":{"id_hdad":5,"hermandad":"La Paz","calle":"Calle Dos de Mayo","osm":"Calle Dos de Mayo"},"geometry":{"type":"Point","coordinates":[-5.9952494,37.3851593]}},{"type":"Feature","properties":{"id_hdad":5,"hermandad":"La Paz","calle":"Calle Arfe","osm":"Calle Arfe"},"geometry":{"type":"Point","coordinates":[-5.9954066,37.3856467]}},{"type":"Feature","properties":{"id_hdad":5,"hermandad":"La Paz","calle":"Calle Puerta del Arenal","osm":"Calle Puerta del Arenal"},"geometry":{"type":"Point","coordinates":[-5.9961393,37.3862162]}},{"type":"Feature","properties":{"id_hdad":5,"hermandad":"La Paz","calle":"Calle Castelar","osm":"Calle Castelar"},"geometry":{"type":"Point","coordinates":[-5.9964172,37.3865601]}},{"type":"Feature","properties":{"id_hdad":5,"hermandad":"La Paz","calle":"Calle Gamazo","osm":"Calle Gamazo"},"geometry":{"type":"Point","coordinates":[-5.9961075,37.3871925]}},{"type":"Feature","properties":{"id_hdad":5,"hermandad":"La Paz","calle":"Calle Joaquín Guichot","osm":"Calle Joaquín Guichot"},"geometry":{"type":"Point","coordinates":[-5.9955391,37.3877253]}},{"type":"Feature","properties":{"id_hdad":5,"hermandad":"La Paz","calle":"Calle Barcelona","osm":"Calle Barcelona"},"geometry":{"type":"Point","coordinates":[-5.995501,37.3879628]}},{"type":"Feature","properties":{"id_hdad":5,"hermandad":"La Paz","calle":"Plaza Nueva","osm":"Plaza Nueva"},"geometry":{"type":"Point","coordinates":[-5.9949315,37.3886551]}},{"type":"Feature","properties":{"id_hdad":5,"hermandad":"La Paz","calle":"Calle Tetuán","osm":"Calle Tetuán"},"geometry":{"type":"Point","coordinates":[-5.9951669,37.3902317]}},{"type":"Feature","properties":{"id_hdad":5,"hermandad":"La Paz","calle":"Calle Velázquez","osm":"Calle Velázquez"},"geometry":{"type":"Point","coordinates":[-5.9954035,37.3911654]}},{"type":"Feature","properties":{"id_hdad":5,"hermandad":"La Paz","calle":"Calle O'Donnell","osm":"Calle O'Donnell"},"geometry":{"type":"Point","coordinates":[-5.995454,37.392155]}},{"type":"Feature","properties":{"id_hdad":5,"hermandad":"La Paz","calle":"Plaza de San Francisco","osm":"Plaza de San Francisco"},"geometry":{"type":"Point","coordinates":[-5.9941698,37.3886547]}},{"type":"Feature","properties":{"id_hdad":5,"hermandad":"La Paz","calle":"Calle Sierpes","osm":"Calle Sierpes"},"geometry":{"type":"Point","coordinates":[-5.9945041,37.3907761]}},{"type":"Feature","properties":{"id_hdad":5,"hermandad":"La Paz","calle":"La Campana","osm":"Calle Campana"},"geometry":{"type":"Point","coordinates":[-5.9953759,37.3927251]}},{"type":"Feature","properties":{"id_hdad":5,"hermandad":"La Paz","calle":"Plaza del Triunfo","osm":"Plaza del Triunfo"},"geometry":{"type":"Point","coordinates":[-5.9921026,37.3850012]}},{"type":"Feature","properties":{"id_hdad":5,"hermandad":"La Paz","calle":"Calle Miguel Mañara","osm":"Calle Miguel Mañara"},"geometry":{"type":"Point","coordinates":[-5.992479,37.3842205]}},{"type":"Feature","properties":{"id_hdad":5,"hermandad":"La Paz","calle":"Plaza de La Contratación","osm":"Plaza de la Contratación"},"geometry":{"type":"Point","coordinates":[-5.992534,37.383679]}},{"type":"Feature","properties":{"id_hdad":5,"hermandad":"La Paz","calle":"Calle San Gregorio","osm":"Plaza de San Gregorio"},"geometry":{"type":"Point","coordinates":[-5.9928723,37.383241]}},{"type":"Feature","properties":{"id_hdad":5,"hermandad":"La Paz","calle":"Plaza Puerta de Jerez","osm":"Plaza Puerta de Jerez"},"geometry":{"type":"Point","coordinates":[-5.9932597,37.3823431]}},{"type":"Feature","properties":{"id_hdad":5,"hermandad":"La Paz","calle":"Avenida de Roma","osm":"Avenida de Roma"},"geometry":{"type":"Point","coordinates":[-5.9935377,37.381465]}},{"type":"Feature","properties":{"id_hdad":5,"hermandad":"La Paz","calle":"Calle Palos de la Frontera","osm":"Calle Palos de la Frontera"},"geometry":{"type":"Point","coordinates":[-5.9926354,37.3803808]}},{"type":"Feature","properties":{"id_hdad":5,"hermandad":"La Paz","calle":"Avenida de Isabel la Católica","osm":"Avenida Isabel la Católica"},"geometry":{"type":"Point","coordinates":[-5.9888887,37.3784226]}},{"type":"Feature","properties":{"id_hdad":5,"hermandad":"La Paz","calle":"Avenida de Covadonga","osm":"Glorieta Covadonga"},"geometry":{"type":"Point","coordinates":[-5.9861333,37.3741971]}},{"type":"Feature","properties":{"id_hdad":5,"hermandad":"La Paz","calle":"Calle Brasil","osm":"Calle Brasil"},"geometry":{"type":"Point","coordinates":[-5.9838521,37.3737036]}},{"type":"Feature","properties":{"id_hdad":5,"hermandad":"La Paz","calle":"Calle Progreso","osm":"Calle Progreso"},"geometry":{"type":"Point","coordinates":[-5.9844404,37.3734989]}},{"type":"Feature","properties":{"id_hdad":5,"hermandad":"La Paz","calle":"Calle Porvenir","osm":"Calle Porvenir"},"geometry":{"type":"Point","coordinates":[-5.9834486,37.3729337]}},{"type":"Feature","properties":{"id_hdad":5,"hermandad":"La Paz","calle":"Calle Río de la Plata","osm":"Calle Río de la Plata"},"geometry":{"type":"Point","coordinates":[-5.9830011,37.3741898]}},{"type":"Feature","properties":{"id_hdad":5,"hermandad":"La Paz","calle":"Calle San Salvador","osm":"Calle San Salvador"},"geometry":{"type":"Point","coordinates":[-5.9829217,37.3747154]}}]}