{"type":"FeatureCollection","features":[{"type":"Feature","properties":{"id_hdad":6,"nombre":"San Roque","dia":"domingo-de-ramos"},"geometry":{"type":"LineString","coordinates":[[-5.9838246,37.3909103],[-5.9840837,37.390886],[-5.9840699,37.3910885],[-5.9840695,37.3917064],[-5.9840665,37.3923009],[-5.9840493,37.3927501],[-5.9839832,37.3930666],[-5.9844187,37.393179],[-5.9848463,37.3932695],[-5.9850736,37.3932941],[-5.9856192,37.3931386],[-5.9862736,37.3929555],[-5.9866462,37.3931373],[-5.9867948,37.3932437],[-5.9874545,37.393084],[-5.988267,37.392909],[-5.9886598,37.3928715],[-5.989031,37.392704],[-5.989692,37.392505],[-5.9901991,37.3925095],[-5.991499,37.3927],[-5.9922302,37.392777],[-5.992981,37.392804],[-5.9933169,37.3928037],[-5.9936593,37.3928157],[-5.9936853,37.3929311],[-5.993689,37.393287],[-5.9936844,37.3934442],[-5.993838,37.393693],[-5.9940973,37.3936496],[-5.9942892,37.3936065],[-5.994575,37.393545],[-5.9947522,37.3935137],[-5.99499,37.3936695],[-5.995283,37.393895],[-5.99537,37.393742],[-5.995446,37.393623],[-5.995615,37.39345],[-5.995633,37.393113],[-5.995631,37.392901],[-5.9956364,37.3927183],[-5.995376,37.392725],[-5.995376,37.392725],[-5.994924,37.392751],[-5.994797,37.391803],[-5.9945202,37.3909414],[-5.9945202,37.3909414],[-5.9943917,37.3904014],[-5.994327,37.3901151],[-5.9942735,37.3898019],[-5.9941991,37.3894656],[-5.994175,37.389143],[-5.994154,37.38867],[-5.994169,37.388187],[-5.994296,37.388071],[-5.9943041,37.3879286],[-5.9942267,37.38731],[-5.9941493,37.386713],[-5.9940679,37.3860718],[-5.9940344,37.3857616],[-5.993999,37.385447],[-5.9934331,37.3854932],[-5.9929686,37.3855304],[-5.992619,37.385552],[-5.9926646,37.3858225],[-5.99271,37.386038],[-5.992325,37.386077],[-5.992365,37.386288],[-5.9924408,37.3863144],[-5.9924973,37.3863647],[-5.9925107,37.3865266],[-5.992515,37.38666],[-5.992549,37.386763],[-5.992807,37.386777],[-5.993037,37.386751],[-5.993054,37.386917],[-5.9930245,37.3870101],[-5.9929267,37.3871073],[-5.992697,37.387288],[-5.992489,37.387452],[-5.992594,37.387654],[-5.992704,37.387858],[-5.99277,37.38804],[-5.992784,37.388285],[-5.992744,37.388583],[-5.992621,37.388828],[-5.992568,37.389176],[-5.992542,37.389426],[-5.992353,37.389737],[-5.991765,37.389785],[-5.991357,37.389798],[-5.991092,37.38979],[-5.990856,37.389772],[-5.990668,37.389983],[-5.9904769,37.3901956],[-5.9905054,37.3902408],[-5.9905036,37.3903002],[-5.9903819,37.3904418],[-5.9902529,37.3906875],[-5.9893404,37.3904694],[-5.989104,37.3904555],[-5.9889073,37.3904992],[-5.988716,37.3905804],[-5.9885694,37.3906441],[-5.9882802,37.3905476],[-5.9881212,37.3905224],[-5.9879563,37.3904512],[-5.9878204,37.3903754],[-5.9877221,37.3902559],[-5.9875162,37.3900783],[-5.9873637,37.3899589],[-5.987238,37.3898371],[-5.987031,37.389815],[-5.98665,37.389741],[-5.9863775,37.3897343],[-5.9863606,37.3898395],[-5.9863268,37.3899715],[-5.9862592,37.3900834],[-5.9863727,37.390185],[-5.9866147,37.3903553],[-5.9864749,37.3904762],[-5.986344,37.3905869],[-5.9861722,37.3904885],[-5.9860429,37.3903901],[-5.9859472,37.3904013],[-5.9857525,37.3905422],[-5.985557,37.3906746],[-5.985464,37.3906992],[-5.9852133,37.3906433],[-5.9850016,37.3905893],[-5.9848016,37.3905423],[-5.9841036,37.390471],[-5.9838495,37.3908806]]}},{"type":"Feature","properties":{"id_hdad":6,"hermandad":"San Roque","calle":"Plaza Carmen Benítez"},"geometry":{"type":"Point","coordinates":[-5.9838246,37.3909103]}},{"type":"Feature","properties":{"id_hdad":6,"hermandad":"San Roque","calle":"Calle Recaredo"},"geometry":{"type":"Point","coordinates":[-5.9840695,37.3917064]}},{"type":"Feature","properties":{"id_hdad":6,"hermandad":"San Roque","calle":"Calle Puñonrostro"},"geometry":{"type":"Point","coordinates":[-5.9844187,37.393179]}},{"type":"Feature","properties":{"id_hdad":6,"hermandad":"San Roque","calle":"Calle Jáuregui"},"geometry":{"type":"Point","coordinates":[-5.9855991,37.3931625]}},{"type":"Feature","properties":{"id_hdad":6,"hermandad":"San Roque","calle":"Plaza Padre Jerónimo de Córdoba"},"geometry":{"type":"Point","coordinates":[-5.9862736,37.3929555]}},{"type":"Feature","properties":{"id_hdad":6,"hermandad":"San Roque","calle":"Plaza Ponce de León"},"geometry":{"type":"Point","coordinates":[-5.9867948,37.3932437]}},{"type":"Feature","properties":{"id_hdad":6,"hermandad":"San Roque","calle":"Calle Juan de Mesa"},"geometry":{"type":"Point","coordinates":[-5.9874545,37.393084]}},{"type":"Feature","properties":{"id_hdad":6,"hermandad":"San Roque","calle":"Calle Almirante Apodaca"},"geometry":{"type":"Point","coordinates":[-5.9886598,37.3928715]}},{"type":"Feature","properties":{"id_hdad":6,"hermandad":"San Roque","calle":"Plaza de San Pedro"},"geometry":{"type":"Point","coordinates":[-5.989031,37.392704]}},{"type":"Feature","properties":{"id_hdad":6,"hermandad":"San Roque","calle":"Calle Imagen"},"geometry":{"type":"Point","coordinates":[-5.9901991,37.3925095]}},{"type":"Feature","properties":{"id_hdad":6,"hermandad":"San Roque","calle":"Plaza de la Encarnación"},"geometry":{"type":"Point","coordinates":[-5.991499,37.3927]}},{"type":"Feature","properties":{"id_hdad":6,"hermandad":"San Roque","calle":"Calle Laraña"},"geometry":{"type":"Point","coordinates":[-5.9933169,37.3928037]}},{"type":"Feature","properties":{"id_hdad":6,"hermandad":"San Roque","calle":"Calle Orfila"},"geometry":{"type":"Point","coordinates":[-5.9936844,37.3934442]}},{"type":"Feature","properties":{"id_hdad":6,"hermandad":"San Roque","calle":"Calle Javier Lasso de la Vega"},"geometry":{"type":"Point","coordinates":[-5.9942892,37.3936065]}},{"type":"Feature","properties":{"id_hdad":6,"hermandad":"San Roque","calle":"Calle Trajano"},"geometry":{"type":"Point","coordinates":[-5.995283,37.393895]}},{"type":"Feature","properties":{"id_hdad":6,"hermandad":"San Roque","calle":"Plaza del Duque de la Victoria"},"geometry":{"type":"Point","coordinates":[-5.995615,37.39345]}},{"type":"Feature","properties":{"id_hdad":6,"hermandad":"San Roque","calle":"La Campana"},"geometry":{"type":"Point","coordinates":[-5.995376,37.392725]}},{"type":"Feature","properties":{"id_hdad":6,"hermandad":"San Roque","calle":"Calle Sierpes"},"geometry":{"type":"Point","coordinates":[-5.9945161,37.3909308]}},{"type":"Feature","properties":{"id_hdad":6,"hermandad":"San Roque","calle":"Plaza de San Francisco"},"geometry":{"type":"Point","coordinates":[-5.994175,37.389143]}},{"type":"Feature","properties":{"id_hdad":6,"hermandad":"San Roque","calle":"Avenida de la Constitución"},"geometry":{"type":"Point","coordinates":[-5.9942267,37.38731]}},{"type":"Feature","properties":{"id_hdad":6,"hermandad":"San Roque","calle":"Calle Cardenal Carlos Amigo"},"geometry":{"type":"Point","coordinates":[-5.9934331,37.3854932]}},{"type":"Feature","properties":{"id_hdad":6,"hermandad":"San Roque","calle":"Calle Alemanes"},"geometry":{"type":"Point","coordinates":[-5.99271,37.386038]}},{"type":"Feature","properties":{"id_hdad":6,"hermandad":"San Roque","calle":"Calle Álvarez Quintero"},"geometry":{"type":"Point","coordinates":[-5.9925107,37.3865266]}},{"type":"Feature","properties":{"id_hdad":6,"hermandad":"San Roque","calle":"Calle Argote de Molina"},"geometry":{"type":"Point","coordinates":[-5.993054,37.386917]}},{"type":"Feature","properties":{"id_hdad":6,"hermandad":"San Roque","calle":"Calle Placentines"},"geometry":{"type":"Point","coordinates":[-5.992594,37.387654]}},{"type":"Feature","properties":{"id_hdad":6,"hermandad":"San Roque","calle":"Calle Francos"},"geometry":{"type":"Point","coordinates":[-5.992744,37.388583]}},{"type":"Feature","properties":{"id_hdad":6,"hermandad":"San Roque","calle":"Cuesta del Rosario"},"geometry":{"type":"Point","coordinates":[-5.992353,37.389737]}},{"type":"Feature","properties":{"id_hdad":6,"hermandad":"San Roque","calle":"Calle Jesús de las Tres Caídas"},"geometry":{"type":"Point","coordinates":[-5.991092,37.38979]}},{"type":"Feature","properties":{"id_hdad":6,"hermandad":"San Roque","calle":"Calle Odreros"},"geometry":{"type":"Point","coordinates":[-5.9905054,37.3902408]}},{"type":"Feature","properties":{"id_hdad":6,"hermandad":"San Roque","calle":"Calle Boteros"},"geometry":{"type":"Point","coordinates":[-5.9904218,37.3907384]}},{"type":"Feature","properties":{"id_hdad":6,"hermandad":"San Roque","calle":"Calle Caballerizas"},"geometry":{"type":"Point","coordinates":[-5.9877221,37.3902559]}},{"type":"Feature","properties":{"id_hdad":6,"hermandad":"San Roque","calle":"Plaza de Pilatos"},"geometry":{"type":"Point","coordinates":[-5.987238,37.3898371]}},{"type":"Feature","properties":{"id_hdad":6,"hermandad":"San Roque","calle":"Calle San Esteban"},"geometry":{"type":"Point","coordinates":[-5.9863775,37.3897343]}},{"type":"Feature","properties":{"id_hdad":6,"hermandad":"San Roque","calle":"Calle Medinaceli"},"geometry":{"type":"Point","coordinates":[-5.9862592,37.3900834]}},{"type":"Feature","properties":{"id_hdad":6,"hermandad":"San Roque","calle":"Calle Imperial"},"geometry":{"type":"Point","coordinates":[-5.986344,37.3905869]}},{"type":"Feature","properties":{"id_hdad":6,"hermandad":"San Roque","calle":"Calle Calería"},"geometry":{"type":"Point","coordinates":[-5.9859472,37.3904013]}},{"type":"Feature","properties":{"id_hdad":6,"hermandad":"San Roque","calle":"Calle Juan de la Encina"},"geometry":{"type":"Point","coordinates":[-5.985464,37.3906992]}},{"type":"Feature","properties":{"id_hdad":6,"hermandad":"San Roque","calle":"Calle Guadalupe"},"geometry":{"type":"Point","coordinates":[-5.9848081,37.3905446]}},{"type":"Feature","properties":{"id_hdad":6,"hermandad":"San Roque","calle":"Calle Recaredo"},"geometry":{"type":"Point","coordinates":[-5.9841036,37.390471]}},{"type":"Feature","properties":{"id_hdad":6,"hermandad":"San Roque","calle":"Plaza Carmen Benítez"},"geometry":{"type":"Point","coordinates":[-5.9838495,37.3908806]}}]}