{
  "type": "FeatureCollection",
  "features": [
    {
      "type": "Feature",
      "properties": {
        "id_hdad": 8,
        "nombre": "La Amargura",
        "dia": "domingo-de-ramos"
      },
      "geometry": {
        "type": "LineString",
        "coordinates": [
          [
            -5.9910966,
            37.3953257
          ],
          [
            -5.9911101,
            37.3952417
          ],
          [
            -5.9912043,
            37.3952737
          ],
          [
            -5.9914543,
            37.3953837
          ],
          [
            -5.99132,
            37.395688
          ],
          [
            -5.991192,
            37.396013
          ],
          [
            -5.991225,
            37.396198
          ],
          [
            -5.991228,
            37.396383
          ],
          [
            -5.991197,
            37.39665
          ],
          [
            -5.99118,
            37.396772
          ],
          [
            -5.991192,
            37.396979
          ],
          [
            -5.9913,
            37.397247
          ],
          [
            -5.992017,
            37.397086
          ],
          [
            -5.992536,
            37.396987
          ],
          [
            -5.9935359,
            37.3968909
          ],
          [
            -5.9938169,
            37.3967418
          ],
          [
            -5.994027,
            37.396751
          ],
          [
            -5.994374,
            37.39685
          ],
          [
            -5.994618,
            37.396413
          ],
          [
            -5.995644,
            37.393115
          ],
          [
            -5.995643,
            37.39272
          ],
          [
            -5.994924,
            37.392751
          ],
          [
            -5.994797,
            37.391803
          ],
          [
            -5.994542,
            37.390976
          ],
          [
            -5.994258,
            37.389845
          ],
          [
            -5.994175,
            37.389143
          ],
          [
            -5.994151,
            37.388605
          ],
          [
            -5.994169,
            37.388187
          ],
          [
            -5.994296,
            37.388071
          ],
          [
            -5.9943041,
            37.3879286
          ],
          [
            -5.9942267,
            37.38731
          ],
          [
            -5.9941493,
            37.386713
          ],
          [
            -5.9940679,
            37.3860718
          ],
          [
            -5.9940344,
            37.3857616
          ],
          [
            -5.993999,
            37.385447
          ],
          [
            -5.9934331,
            37.3854932
          ],
          [
            -5.9929686,
            37.3855304
          ],
          [
            -5.992619,
            37.385552
          ],
          [
            -5.9926646,
            37.3858225
          ],
          [
            -5.99271,
            37.386038
          ],
          [
            -5.992325,
            37.386077
          ],
          [
            -5.992343,
            37.386298
          ],
          [
            -5.992461,
            37.386331
          ],
          [
            -5.992523,
            37.386502
          ],
          [
            -5.99252,
            37.386657
          ],
          [
            -5.992542,
            37.386755
          ],
          [
            -5.992745,
            37.386784
          ],
          [
            -5.993037,
            37.386751
          ],
          [
            -5.993054,
            37.386952
          ],
          [
            -5.992903,
            37.387134
          ],
          [
            -5.992485,
            37.387448
          ],
          [
            -5.992658,
            37.387808
          ],
          [
            -5.99277,
            37.388079
          ],
          [
            -5.992774,
            37.388353
          ],
          [
            -5.992739,
            37.388594
          ],
          [
            -5.992652,
            37.388762
          ],
          [
            -5.992579,
            37.389047
          ],
          [
            -5.992548,
            37.389396
          ],
          [
            -5.992496,
            37.389533
          ],
          [
            -5.992354,
            37.389739
          ],
          [
            -5.992781,
            37.389701
          ],
          [
            -5.993087,
            37.389679
          ],
          [
            -5.993148,
            37.390077
          ],
          [
            -5.993169,
            37.390185
          ],
          [
            -5.993243,
            37.390261
          ],
          [
            -5.993364,
            37.390816
          ],
          [
            -5.993467,
            37.391235
          ],
          [
            -5.993506,
            37.391594
          ],
          [
            -5.993571,
            37.392188
          ],
          [
            -5.993653,
            37.392822
          ],
          [
            -5.992981,
            37.392804
          ],
          [
            -5.992232,
            37.392791
          ],
          [
            -5.991583,
            37.392717
          ],
          [
            -5.991508,
            37.392727
          ],
          [
            -5.991465,
            37.392787
          ],
          [
            -5.991425,
            37.393054
          ],
          [
            -5.991362,
            37.393635
          ],
          [
            -5.990883,
            37.393616
          ],
          [
            -5.990453,
            37.393595
          ],
          [
            -5.990418,
            37.393942
          ],
          [
            -5.990366,
            37.394231
          ],
          [
            -5.990316,
            37.394559
          ],
          [
            -5.99027,
            37.394863
          ],
          [
            -5.9910558,
            37.39522
          ],
          [
            -5.9910904,
            37.3953221
          ]
        ]
      }
    },
    {
      "type": "Feature",
      "properties": {
        "id_hdad": 8,
        "hermandad": "La Amargura",
        "calle": "Calle San Juan de la Palma"
      },
      "geometry": {
        "type": "Point",
        "coordinates": [
          -5.991095,
          37.39524
        ]
      }
    },
    {
      "type": "Feature",
      "properties": {
        "id_hdad": 8,
        "hermandad": "La Amargura",
        "calle": "Calle Feria"
      },
      "geometry": {
        "type": "Point",
        "coordinates": [
          -5.99123,
          37.395909
        ]
      }
    },
    {
      "type": "Feature",
      "properties": {
        "id_hdad": 8,
        "hermandad": "La Amargura",
        "calle": "Calle Conde de Torrejón"
      },
      "geometry": {
        "type": "Point",
        "coordinates": [
          -5.992536,
          37.396987
        ]
      }
    },
    {
      "type": "Feature",
      "properties": {
        "id_hdad": 8,
        "hermandad": "La Amargura",
        "calle": "Calle Amor de Dios"
      },
      "geometry": {
        "type": "Point",
        "coordinates": [
          -5.9935359,
          37.3968909
        ]
      }
    },
    {
      "type": "Feature",
      "properties": {
        "id_hdad": 8,
        "hermandad": "La Amargura",
        "calle": "Alameda de Hércules"
      },
      "geometry": {
        "type": "Point",
        "coordinates": [
          -5.994027,
          37.396751
        ]
      }
    },
    {
      "type": "Feature",
      "properties": {
        "id_hdad": 8,
        "hermandad": "La Amargura",
        "calle": "Calle Trajano"
      },
      "geometry": {
        "type": "Point",
        "coordinates": [
          -5.994618,
          37.396413
        ]
      }
    },
    {
      "type": "Feature",
      "properties": {
        "id_hdad": 8,
        "hermandad": "La Amargura",
        "calle": "Plaza del Duque de la Victoria"
      },
      "geometry": {
        "type": "Point",
        "coordinates": [
          -5.995644,
          37.393115
        ]
      }
    },
    {
      "type": "Feature",
      "properties": {
        "id_hdad": 8,
        "hermandad": "La Amargura",
        "calle": "La Campana"
      },
      "geometry": {
        "type": "Point",
        "coordinates": [
          -5.994542,
          37.390976
        ]
      }
    },
    {
      "type": "Feature",
      "properties": {
        "id_hdad": 8,
        "hermandad": "La Amargura",
        "calle": "Calle Sierpes"
      },
      "geometry": {
        "type": "Point",
        "coordinates": [
          -5.994169,
          37.388187
        ]
      }
    },
    {
      "type": "Feature",
      "properties": {
        "id_hdad": 8,
        "hermandad": "La Amargura",
        "calle": "Plaza de San Francisco"
      },
      "geometry": {
        "type": "Point",
        "coordinates": [
          -5.9941493,
          37.386713
        ]
      }
    },
    {
      "type": "Feature",
      "properties": {
        "id_hdad": 8,
        "hermandad": "La Amargura",
        "calle": "Avenida de la Constitución"
      },
      "geometry": {
        "type": "Point",
        "coordinates": [
          -5.9929686,
          37.3855304
        ]
      }
    },
    {
      "type": "Feature",
      "properties": {
        "id_hdad": 8,
        "hermandad": "La Amargura",
        "calle": "Calle Cardenal Carlos Amigo"
      },
      "geometry": {
        "type": "Point",
        "coordinates": [
          -5.992325,
          37.386077
        ]
      }
    },
    {
      "type": "Feature",
      "properties": {
        "id_hdad": 8,
        "hermandad": "La Amargura",
        "calle": "Calle Alemanes"
      },
      "geometry": {
        "type": "Point",
        "coordinates": [
          -5.99252,
          37.386657
        ]
      }
    },
    {
      "type": "Feature",
      "properties": {
        "id_hdad": 8,
        "hermandad": "La Amargura",
        "calle": "Calle Álvarez Quintero"
      },
      "geometry": {
        "type": "Point",
        "coordinates": [
          -5.993054,
          37.386952
        ]
      }
    },
    {
      "type": "Feature",
      "properties": {
        "id_hdad": 8,
        "hermandad": "La Amargura",
        "calle": "Calle Argote de Molina"
      },
      "geometry": {
        "type": "Point",
        "coordinates": [
          -5.992903,
          37.387134
        ]
      }
    },
    {
      "type": "Feature",
      "properties": {
        "id_hdad": 8,
        "hermandad": "La Amargura",
        "calle": "Calle Placentines"
      },
      "geometry": {
        "type": "Point",
        "coordinates": [
          -5.99277,
          37.388079
        ]
      }
    },
    {
      "type": "Feature",
      "properties": {
        "id_hdad": 8,
        "hermandad": "La Amargura",
        "calle": "Calle Francos"
      },
      "geometry": {
        "type": "Point",
        "coordinates": [
          -5.992579,
          37.389047
        ]
      }
    },
    {
      "type": "Feature",
      "properties": {
        "id_hdad": 8,
        "hermandad": "La Amargura",
        "calle": "Calle Villegas"
      },
      "geometry": {
        "type": "Point",
        "coordinates": [
          -5.992354,
          37.389739
        ]
      }
    },
    {
      "type": "Feature",
      "properties": {
        "id_hdad": 8,
        "hermandad": "La Amargura",
        "calle": "Plaza del Salvador"
      },
      "geometry": {
        "type": "Point",
        "coordinates": [
          -5.993148,
          37.390077
        ]
      }
    },
    {
      "type": "Feature",
      "properties": {
        "id_hdad": 8,
        "hermandad": "La Amargura",
        "calle": "Calle Cuna"
      },
      "geometry": {
        "type": "Point",
        "coordinates": [
          -5.993364,
          37.390816
        ]
      }
    },
    {
      "type": "Feature",
      "properties": {
        "id_hdad": 8,
        "hermandad": "La Amargura",
        "calle": "Calle Laraña"
      },
      "geometry": {
        "type": "Point",
        "coordinates": [
          -5.993653,
          37.392822
        ]
      }
    },
    {
      "type": "Feature",
      "properties": {
        "id_hdad": 8,
        "hermandad": "La Amargura",
        "calle": "Plaza de la Encarnación"
      },
      "geometry": {
        "type": "Point",
        "coordinates": [
          -5.991583,
          37.392717
        ]
      }
    },
    {
      "type": "Feature",
      "properties": {
        "id_hdad": 8,
        "hermandad": "La Amargura",
        "calle": "Calle Alcázares"
      },
      "geometry": {
        "type": "Point",
        "coordinates": [
          -5.991362,
          37.393635
        ]
      }
    },
    {
      "type": "Feature",
      "properties": {
        "id_hdad": 8,
        "hermandad": "La Amargura",
        "calle": "Calle Santa Ángela de la Cruz"
      },
      "geometry": {
        "type": "Point",
        "coordinates": [
          -5.990418,
          37.393942
        ]
      }
    },
    {
      "type": "Feature",
      "properties": {
        "id_hdad": 8,
        "hermandad": "La Amargura",
        "calle": "Calle San Juan de la Palma"
      },
      "geometry": {
        "type": "Point",
        "coordinates": [
          -5.991097,
          37.39524
        ]
      }
    }
  ]
}