{"type":"FeatureCollection","features":[{"type":"Feature","geometry":{"type":"Point","coordinates":[-5.9805554,37.3940466]},"properties":{"id_hdad":10,"hermandad":"San Pablo","calle":"Calle Pérez Hervás","osm":"Calle Pérez Hervás"}},{"type":"Feature","geometry":{"type":"Point","coordinates":[-5.9874545,37.393084]},"properties":{"id_hdad":10,"hermandad":"San Pablo","calle":"Plaza de Ponce de León","osm":"Plaza Ponce de León"}},{"type":"Feature","properties":{"id_hdad":10,"nombre":"San Pablo","dia":"lunes-santo"},"geometry":{"type":"LineString","coordinates":[[-5.9587207,37.3990326],[-5.9590896,37.398715],[-5.9602938,37.3982286],[-5.9613976,37.3976764],[-5.9619082,37.3973116],[-5.962331,37.3968713],[-5.9626041,37.3965945],[-5.9627842,37.3964702],[-5.9641833,37.395398],[-5.9656138,37.3940416],[-5.9660063,37.3933245],[-5.9664043,37.3925137],[-5.9666445,37.392278],[-5.9672513,37.3922137],[-5.9678535,37.3921569],[-5.9682823,37.3918245],[-5.969902,37.3905478],[-5.9708169,37.3898374],[-5.9706688,37.3884794],[-5.9705603,37.3873993],[-5.9734217,37.387267],[-5.9757851,37.3871537],[-5.9780363,37.3871652],[-5.9794206,37.3875522],[-5.9801,37.3876846],[-5.9808947,37.3877763],[-5.9816638,37.3878578],[-5.98221,37.388102],[-5.983147,37.388664],[-5.984131,37.389047],[-5.984472,37.389187],[-5.9846,37.389231],[-5.985444,37.389615],[-5.9858628,37.3897627],[-5.9865122,37.3897508],[-5.987031,37.389815],[-5.987752,37.389879],[-5.9883845,37.389905],[-5.9889966,37.3898398],[-5.9895042,37.389911],[-5.989974,37.390022],[-5.9902506,37.3900829],[-5.9904676,37.3902018],[-5.9908586,37.3897675],[-5.9912822,37.389819],[-5.991877737588801,37.389764333519445],[-5.99276171628195,37.38971492214055],[-5.9931891,37.389663],[-5.9932761,37.3895074],[-5.9933414,37.3893777],[-5.9934067,37.3893691],[-5.9937875,37.3893604],[-5.9941085,37.3891184],[-5.9949627,37.3890535],[-5.995049,37.3897388],[-5.9951669,37.3902317],[-5.9953197,37.3907871],[-5.995383,37.391055],[-5.9954178,37.3914794],[-5.9954615,37.3920765],[-5.995386,37.3924668],[-5.9954141,37.3927175],[-5.994924,37.392751],[-5.994797,37.391803],[-5.994542,37.390976],[-5.994258,37.389845],[-5.994175,37.389143],[-5.994151,37.388605],[-5.994169,37.388187],[-5.994296,37.388071],[-5.9943041,37.3879286],[-5.9942267,37.38731],[-5.9941493,37.386713],[-5.9940679,37.3860718],[-5.9940344,37.3857616],[-5.993999,37.385447],[-5.9934331,37.3854932],[-5.9929686,37.3855304],[-5.992619,37.385552],[-5.9926646,37.3858225],[-5.99271,37.386038],[-5.992325,37.386077],[-5.992365,37.386288],[-5.992492,37.386409],[-5.9925251,37.3867423],[-5.9927475,37.3868044],[-5.993024,37.3867758],[-5.993042,37.3870002],[-5.9927836,37.3872438],[-5.9924891,37.38743],[-5.992542,37.387587],[-5.992718,37.387895],[-5.992766,37.388238],[-5.992744,37.388583],[-5.992621,37.388828],[-5.992568,37.389176],[-5.992542,37.389426],[-5.992353,37.389737],[-5.991765,37.389785],[-5.991357,37.389798],[-5.991092,37.38979],[-5.990856,37.389772],[-5.990668,37.389983],[-5.990473,37.3901933],[-5.990481,37.3902896],[-5.9903847,37.3904756],[-5.9902529,37.3906875],[-5.9904478,37.3907416],[-5.9903251,37.390862],[-5.990158,37.3910193],[-5.9900213,37.3911556],[-5.9899688,37.3912106],[-5.9899556,37.3912991],[-5.989917,37.3914874],[-5.9898635,37.3921115],[-5.9898331,37.39249],[-5.9895385,37.3925316],[-5.989031,37.392704],[-5.9886598,37.3928715],[-5.988267,37.392909],[-5.9874685,37.3930804],[-5.9868217,37.3932331],[-5.9866567,37.3931348],[-5.9862495,37.3929665],[-5.98553,37.3931781],[-5.9850796,37.3932913],[-5.9848642,37.3932961],[-5.9847927,37.393318],[-5.9847074,37.3934032],[-5.9844818,37.3938163],[-5.9844227,37.3939024],[-5.9841078,37.3942461],[-5.983959,37.3943945],[-5.9839002,37.3945979],[-5.9839521,37.3948344],[-5.9839105,37.3948399],[-5.9838552,37.3946749],[-5.9836419,37.3946234],[-5.9834261,37.3945485],[-5.9836465,37.3942294],[-5.9834495,37.394132],[-5.9823637,37.3936346],[-5.9812385,37.3931207],[-5.9801646,37.394626],[-5.9801058,37.3946947],[-5.9788894,37.3954101],[-5.977847,37.3959989],[-5.9771567,37.3962345],[-5.97541,37.3970369],[-5.9746546,37.3961315],[-5.9733316,37.3950985],[-5.9720582,37.394106],[-5.9711817,37.3934299],[-5.9709703,37.3934004],[-5.9707745,37.3933393],[-5.9706934,37.3931804],[-5.9707093,37.3929769],[-5.9698426,37.3922651],[-5.9687939,37.3914558],[-5.9678557,37.3921821],[-5.9666448,37.3923019],[-5.9664588,37.3924843],[-5.9656257,37.3940648],[-5.9648181,37.3948353],[-5.9641438,37.395464],[-5.9630752,37.3962674],[-5.9624339,37.3967958],[-5.9619439,37.3973148],[-5.9614134,37.3977016],[-5.9606622,37.3980791],[-5.9598863,37.3984093],[-5.9593157,37.3986357],[-5.9589872,37.3988244],[-5.9587378,37.3990477]]}},{"type":"Feature","properties":{"id_hdad":10,"hermandad":"San Pablo","calle":"Avenida de Pedro Romero","osm":"Avenida de Pedro Romero"},"geometry":{"type":"Point","coordinates":[-5.958713,37.3991125]}},{"type":"Feature","properties":{"id_hdad":10,"hermandad":"San Pablo","calle":"Calle Luis Montoto","osm":"Calle Luis Montoto"},"geometry":{"type":"Point","coordinates":[-5.98221,37.388102]}},{"type":"Feature","properties":{"id_hdad":10,"hermandad":"San Pablo","calle":"Calle Puerta de Carmona","osm":"Calle Puerta de Carmona"},"geometry":{"type":"Point","coordinates":[-5.9846,37.389231]}},{"type":"Feature","properties":{"id_hdad":10,"hermandad":"San Pablo","calle":"Calle San Esteban","osm":"Calle San Esteban"},"geometry":{"type":"Point","coordinates":[-5.985444,37.389615]}},{"type":"Feature","properties":{"id_hdad":10,"hermandad":"San Pablo","calle":"Plaza de Pilatos","osm":"Plaza de Pilatos"},"geometry":{"type":"Point","coordinates":[-5.987031,37.389815]}},{"type":"Feature","properties":{"id_hdad":10,"hermandad":"San Pablo","calle":"Calle Águilas","osm":"Calle Águilas"},"geometry":{"type":"Point","coordinates":[-5.987752,37.389879]}},{"type":"Feature","properties":{"id_hdad":10,"hermandad":"San Pablo","calle":"Calle Alfalfa","osm":"Calle Alfalfa"},"geometry":{"type":"Point","coordinates":[-5.989974,37.390022]}},{"type":"Feature","properties":{"id_hdad":10,"hermandad":"San Pablo","calle":"Calle Jesús de las Tres Caídas","osm":"Calle Jesús de las Tres Caídas"},"geometry":{"type":"Point","coordinates":[-5.990668,37.389983]}},{"type":"Feature","properties":{"id_hdad":10,"hermandad":"San Pablo","calle":"Cuesta del Rosario","osm":"Calle Cuesta del Rosario"},"geometry":{"type":"Point","coordinates":[-5.991877737588801,37.389764333519445]}},{"type":"Feature","properties":{"id_hdad":10,"hermandad":"San Pablo","calle":"Calle Villegas","osm":"Calle Villegas"},"geometry":{"type":"Point","coordinates":[-5.99276171628195,37.38971492214055]}},{"type":"Feature","properties":{"id_hdad":10,"hermandad":"San Pablo","calle":"Calle Álvarez Quintero","osm":"Calle Álvarez Quintero"},"geometry":{"type":"Point","coordinates":[-5.993273,37.38953]}},{"type":"Feature","properties":{"id_hdad":10,"hermandad":"San Pablo","calle":"Calle Entrecárceles","osm":"Calle Entrecárceles"},"geometry":{"type":"Point","coordinates":[-5.99373,37.38936]}},{"type":"Feature","properties":{"id_hdad":10,"hermandad":"San Pablo","calle":"Calle Francisco Bruna","osm":"Calle Francisco Bruna"},"geometry":{"type":"Point","coordinates":[-5.9939092,37.3892628]}},{"type":"Feature","properties":{"id_hdad":10,"hermandad":"San Pablo","calle":"Plaza de San Francisco","osm":"Plaza de San Francisco"},"geometry":{"type":"Point","coordinates":[-5.994154,37.38867]}},{"type":"Feature","properties":{"id_hdad":10,"hermandad":"San Pablo","calle":"Calle Granada","osm":"Calle Granada"},"geometry":{"type":"Point","coordinates":[-5.9946844,37.3890739]}},{"type":"Feature","properties":{"id_hdad":10,"hermandad":"San Pablo","calle":"Calle Tetuán","osm":"Calle Tetuán"},"geometry":{"type":"Point","coordinates":[-5.9951669,37.3902317]}},{"type":"Feature","properties":{"id_hdad":10,"hermandad":"San Pablo","calle":"Calle Velázquez","osm":"Calle Velázquez"},"geometry":{"type":"Point","coordinates":[-5.9954035,37.3911654]}},{"type":"Feature","properties":{"id_hdad":10,"hermandad":"San Pablo","calle":"Calle O'Donnell","osm":"Calle O'Donnell"},"geometry":{"type":"Point","coordinates":[-5.995454,37.392155]}},{"type":"Feature","properties":{"id_hdad":10,"hermandad":"San Pablo","calle":"La Campana","osm":"Calle Campana"},"geometry":{"type":"Point","coordinates":[-5.995376,37.392725]}},{"type":"Feature","properties":{"id_hdad":10,"hermandad":"San Pablo","calle":"Calle Sierpes","osm":"Calle Sierpes"},"geometry":{"type":"Point","coordinates":[-5.9945871,37.3911633]}},{"type":"Feature","properties":{"id_hdad":10,"hermandad":"San Pablo","calle":"Plaza de San Francisco","osm":"Plaza de San Francisco"},"geometry":{"type":"Point","coordinates":[-5.994154,37.38867]}},{"type":"Feature","properties":{"id_hdad":10,"hermandad":"San Pablo","calle":"Avenida de la Constitución","osm":"Avenida de la Constitución"},"geometry":{"type":"Point","coordinates":[-5.994185,37.386838]}},{"type":"Feature","properties":{"id_hdad":10,"hermandad":"San Pablo","calle":"Calle Cardenal Carlos Amigo","osm":"Calle Cardenal Carlos Amigo"},"geometry":{"type":"Point","coordinates":[-5.992537,37.386555]}},{"type":"Feature","properties":{"id_hdad":10,"hermandad":"San Pablo","calle":"Calle Alemanes","osm":"Calle Alemanes"},"geometry":{"type":"Point","coordinates":[-5.992807,37.386777]}},{"type":"Feature","properties":{"id_hdad":10,"hermandad":"San Pablo","calle":"Calle Álvarez Quintero","osm":"Calle Álvarez Quintero"},"geometry":{"type":"Point","coordinates":[-5.993054,37.386917]}},{"type":"Feature","properties":{"id_hdad":10,"hermandad":"San Pablo","calle":"Calle Argote de Molina","osm":"Calle Argote de Molina"},"geometry":{"type":"Point","coordinates":[-5.992697,37.387288]}},{"type":"Feature","properties":{"id_hdad":10,"hermandad":"San Pablo","calle":"Calle Placentines","osm":"Calle Placentines"},"geometry":{"type":"Point","coordinates":[-5.992594,37.387654]}},{"type":"Feature","properties":{"id_hdad":10,"hermandad":"San Pablo","calle":"Calle Francos","osm":"Calle Francos"},"geometry":{"type":"Point","coordinates":[-5.9927503,37.3882811]}},{"type":"Feature","properties":{"id_hdad":10,"hermandad":"San Pablo","calle":"Calle Odreros","osm":"Calle Odreros"},"geometry":{"type":"Point","coordinates":[-5.9903696,37.39049]}},{"type":"Feature","properties":{"id_hdad":10,"hermandad":"San Pablo","calle":"Calle Sales y Ferré","osm":"Calle Sales y Ferré"},"geometry":{"type":"Point","coordinates":[-5.9901392,37.3910442]}},{"type":"Feature","properties":{"id_hdad":10,"hermandad":"San Pablo","calle":"Plaza Cristo de Burgos","osm":"Plaza Cristo de Burgos"},"geometry":{"type":"Point","coordinates":[-5.9898862,37.3917752]}},{"type":"Feature","properties":{"id_hdad":10,"hermandad":"San Pablo","calle":"Plaza de San Pedro","osm":"Plaza de San Pedro"},"geometry":{"type":"Point","coordinates":[-5.989692,37.392505]}},{"type":"Feature","properties":{"id_hdad":10,"hermandad":"San Pablo","calle":"Calle Almirante Apodaca","osm":"Calle Almirante Apodaca"},"geometry":{"type":"Point","coordinates":[-5.989031,37.392704]}},{"type":"Feature","properties":{"id_hdad":10,"hermandad":"San Pablo","calle":"Calle Juan de Mesa","osm":"Calle Juan de Mesa"},"geometry":{"type":"Point","coordinates":[-5.988267,37.392909]}},{"type":"Feature","properties":{"id_hdad":10,"hermandad":"San Pablo","calle":"Calle Jáuregui","osm":"Calle Jáuregui"},"geometry":{"type":"Point","coordinates":[-5.9858757,37.3930739]}},{"type":"Feature","properties":{"id_hdad":10,"hermandad":"San Pablo","calle":"Calle Valle","osm":"Calle Valle"},"geometry":{"type":"Point","coordinates":[-5.9841701,37.3941856]}},{"type":"Feature","properties":{"id_hdad":10,"hermandad":"San Pablo","calle":"Calle Mateos","osm":"Calle Mateos"},"geometry":{"type":"Point","coordinates":[-5.9836419,37.3946234]}},{"type":"Feature","properties":{"id_hdad":10,"hermandad":"San Pablo","calle":"Avenida de José Laguillo","osm":"Avenida de José Laguillo"},"geometry":{"type":"Point","coordinates":[-5.9822128,37.3935589]}},{"type":"Feature","properties":{"id_hdad":10,"hermandad":"San Pablo","calle":"Avenida de Pedro Romero","osm":"Avenida de Pedro Romero"},"geometry":{"type":"Point","coordinates":[-5.9587284,37.3990879]}}]}