{"type":"FeatureCollection","features":[{"type":"Feature","properties":{"id_hdad":11,"nombre":"Redención","dia":"lunes-santo"},"geometry":{"type":"LineString","coordinates":[[-5.986751,37.391775],[-5.98747,37.392401],[-5.987862,37.392952],[-5.988267,37.392909],[-5.988666,37.39284],[-5.989031,37.392704],[-5.989692,37.392505],[-5.990142,37.392465],[-5.99088,37.39261],[-5.991499,37.3927],[-5.9922302,37.392777],[-5.992981,37.392804],[-5.9933169,37.3928037],[-5.9936593,37.3928157],[-5.9936853,37.3929311],[-5.993689,37.393287],[-5.9936844,37.3934442],[-5.993838,37.393693],[-5.9940973,37.3936496],[-5.9942892,37.3936065],[-5.994575,37.393545],[-5.9947497,37.3935151],[-5.9950146,37.393693],[-5.9955948,37.3927173],[-5.9954756,37.3927173],[-5.995376,37.392725],[-5.994924,37.392751],[-5.994861,37.3922847],[-5.994797,37.391803],[-5.9946698,37.3913397],[-5.9945161,37.3909308],[-5.9943917,37.3904014],[-5.994327,37.3901151],[-5.9942735,37.3898019],[-5.9941991,37.3894656],[-5.994175,37.389143],[-5.994154,37.38867],[-5.994169,37.388187],[-5.994296,37.388071],[-5.9943041,37.3879286],[-5.9942267,37.38731],[-5.9941493,37.386713],[-5.9940679,37.3860718],[-5.9940344,37.3857616],[-5.993999,37.385447],[-5.9934331,37.3854932],[-5.9929686,37.3855304],[-5.992619,37.385552],[-5.9926646,37.3858225],[-5.99271,37.386038],[-5.992325,37.386077],[-5.992365,37.386288],[-5.9924408,37.3863144],[-5.9924973,37.3863647],[-5.9925107,37.3865266],[-5.992515,37.38666],[-5.992549,37.386763],[-5.992807,37.386777],[-5.993037,37.386751],[-5.993054,37.386917],[-5.992489,37.387452],[-5.992594,37.387654],[-5.992704,37.387858],[-5.99277,37.38804],[-5.9927937,37.3883437],[-5.992748,37.388584],[-5.992999,37.388611],[-5.993264,37.388615],[-5.993288,37.389051],[-5.99338,37.389346],[-5.993302,37.389446],[-5.993273,37.38953],[-5.992781,37.389701],[-5.991765,37.389785],[-5.991357,37.389798],[-5.991092,37.38979],[-5.990856,37.389772],[-5.990668,37.389983],[-5.9903819,37.3904418],[-5.9902529,37.3906875],[-5.9904478,37.3907416],[-5.989917,37.3914874],[-5.9896613,37.3914659],[-5.9894715,37.3914999],[-5.9893223,37.3915316],[-5.9891074,37.3915506],[-5.9888014,37.3915014],[-5.9888261,37.3912306],[-5.9885589,37.3910758]]}},{"type":"Feature","properties":{"id_hdad":11,"hermandad":"Redención","calle":"Calle Santiago"},"geometry":{"type":"Point","coordinates":[-5.986751,37.391775]}},{"type":"Feature","properties":{"id_hdad":11,"hermandad":"Redención","calle":"Calle Juan de Mesa"},"geometry":{"type":"Point","coordinates":[-5.987862,37.392952]}},{"type":"Feature","properties":{"id_hdad":11,"hermandad":"Redención","calle":"Calle Almirante Apodaca"},"geometry":{"type":"Point","coordinates":[-5.988666,37.39284]}},{"type":"Feature","properties":{"id_hdad":11,"hermandad":"Redención","calle":"Plaza de San Pedro"},"geometry":{"type":"Point","coordinates":[-5.989692,37.392505]}},{"type":"Feature","properties":{"id_hdad":11,"hermandad":"Redención","calle":"Calle Imagen"},"geometry":{"type":"Point","coordinates":[-5.991499,37.3927]}},{"type":"Feature","properties":{"id_hdad":11,"hermandad":"Redención","calle":"Plaza de la Encarnación"},"geometry":{"type":"Point","coordinates":[-5.992981,37.392804]}},{"type":"Feature","properties":{"id_hdad":11,"hermandad":"Redención","calle":"Calle Laraña"},"geometry":{"type":"Point","coordinates":[-5.9936593,37.3928157]}},{"type":"Feature","properties":{"id_hdad":11,"hermandad":"Redención","calle":"Calle Orfila"},"geometry":{"type":"Point","coordinates":[-5.9936905,37.3932322]}},{"type":"Feature","properties":{"id_hdad":11,"hermandad":"Redención","calle":"Calle Javier Lasso de la Vega"},"geometry":{"type":"Point","coordinates":[-5.9942892,37.3936065]}},{"type":"Feature","properties":{"id_hdad":11,"hermandad":"Redención","calle":"Calle Aponte"},"geometry":{"type":"Point","coordinates":[-5.9956419,37.3939039]}},{"type":"Feature","properties":{"id_hdad":11,"hermandad":"Redención","calle":"Plaza del Duque de la Victoria"},"geometry":{"type":"Point","coordinates":[-5.9867105,37.3917472]}},{"type":"Feature","properties":{"id_hdad":11,"hermandad":"Redención","calle":"La Campana"},"geometry":{"type":"Point","coordinates":[-5.9867105,37.3917472]}},{"type":"Feature","properties":{"id_hdad":11,"hermandad":"Redención","calle":"Calle Sierpes"},"geometry":{"type":"Point","coordinates":[-5.9864666,37.3915592]}},{"type":"Feature","properties":{"id_hdad":11,"hermandad":"Redención","calle":"Plaza de San Francisco"},"geometry":{"type":"Point","coordinates":[-5.9864666,37.3915592]}},{"type":"Feature","properties":{"id_hdad":11,"hermandad":"Redención","calle":"Avenida de la Constitución"},"geometry":{"type":"Point","coordinates":[-5.9866341,37.3914782]}},{"type":"Feature","properties":{"id_hdad":11,"hermandad":"Redención","calle":"Calle Cardenal Carlos Amigo"},"geometry":{"type":"Point","coordinates":[-5.9866341,37.3914782]}},{"type":"Feature","properties":{"id_hdad":11,"hermandad":"Redención","calle":"Calle Alemanes"},"geometry":{"type":"Point","coordinates":[-5.9866049,37.391429]}},{"type":"Feature","properties":{"id_hdad":11,"hermandad":"Redención","calle":"Calle Álvarez Quintero"},"geometry":{"type":"Point","coordinates":[-5.9866049,37.391429]}},{"type":"Feature","properties":{"id_hdad":11,"hermandad":"Redención","calle":"Calle Argote de Molina"},"geometry":{"type":"Point","coordinates":[-5.992697,37.387288]}},{"type":"Feature","properties":{"id_hdad":11,"hermandad":"Redención","calle":"Calle Placentines"},"geometry":{"type":"Point","coordinates":[-5.992704,37.387858]}},{"type":"Feature","properties":{"id_hdad":11,"hermandad":"Redención","calle":"Calle Francos"},"geometry":{"type":"Point","coordinates":[-5.9927937,37.3883437]}},{"type":"Feature","properties":{"id_hdad":11,"hermandad":"Redención","calle":"Calle Chapineros"},"geometry":{"type":"Point","coordinates":[-5.993264,37.388615]}},{"type":"Feature","properties":{"id_hdad":11,"hermandad":"Redención","calle":"Calle Álvarez Quintero"},"geometry":{"type":"Point","coordinates":[-5.99338,37.389346]}},{"type":"Feature","properties":{"id_hdad":11,"hermandad":"Redención","calle":"Calle Villegas"},"geometry":{"type":"Point","coordinates":[-5.992781,37.389701]}},{"type":"Feature","properties":{"id_hdad":11,"hermandad":"Redención","calle":"Cuesta del Rosario"},"geometry":{"type":"Point","coordinates":[-5.991357,37.389798]}},{"type":"Feature","properties":{"id_hdad":11,"hermandad":"Redención","calle":"Calle Jesús de las Tres Caídas"},"geometry":{"type":"Point","coordinates":[-5.990668,37.389983]}},{"type":"Feature","properties":{"id_hdad":11,"hermandad":"Redención","calle":"Calle Odreros"},"geometry":{"type":"Point","coordinates":[-5.9902529,37.3906875]}},{"type":"Feature","properties":{"id_hdad":11,"hermandad":"Redención","calle":"Calle Boteros"},"geometry":{"type":"Point","coordinates":[-5.9904478,37.3907416]}},{"type":"Feature","properties":{"id_hdad":11,"hermandad":"Redención","calle":"Plaza del Cristo de Burgos"},"geometry":{"type":"Point","coordinates":[-5.989917,37.3914874]}},{"type":"Feature","properties":{"id_hdad":11,"hermandad":"Redención","calle":"Calle Dormitorio"},"geometry":{"type":"Point","coordinates":[-5.9894715,37.3914999]}},{"type":"Feature","properties":{"id_hdad":11,"hermandad":"Redención","calle":"Calle Alhóndiga"},"geometry":{"type":"Point","coordinates":[-5.9888014,37.3915014]}},{"type":"Feature","properties":{"id_hdad":11,"hermandad":"Redención","calle":"Plaza de San Leandro"},"geometry":{"type":"Point","coordinates":[-5.9885589,37.3910758]}},{"type":"Feature","properties":{"id_hdad":11,"hermandad":"Redención","calle":"Calle Santiago"},"geometry":{"type":"Point","coordinates":[-5.9868,37.391806]}}]}