{"type": "FeatureCollection", "features": [{"type": "Feature", "properties": {"id_hdad": 12, "nombre": "Santa Genoveva", "dia": "lunes-santo"}, "geometry": {"type": "LineString", "coordinates": [[-5.9767661, 37.3680646], [-5.9757244, 37.3681729], [-5.9759904, 37.3693367], [-5.9762925, 37.3707783], [-5.9765943, 37.3723643], [-5.9796417, 37.371993], [-5.9810728, 37.3718615], [-5.981584, 37.3717774], [-5.9816215, 37.3720671], [-5.9816269, 37.3724251], [-5.9826349, 37.3727063], [-5.9831724, 37.3728738], [-5.9830799, 37.3736224], [-5.983607, 37.3736758], [-5.984253, 37.3737354], [-5.9848938, 37.3737887], [-5.9853032, 37.3738384], [-5.9856947, 37.3739385], [-5.9859467, 37.3740258], [-5.9861826, 37.3741324], [-5.9862871, 37.3743028], [-5.9867484, 37.3750965], [-5.9868315, 37.3752116], [-5.9869253, 37.3752222], [-5.9869709, 37.3752712], [-5.9869709, 37.3753138], [-5.9870299, 37.375365], [-5.9870496, 37.3753854], [-5.9870781, 37.3754267], [-5.9875296, 37.3761878], [-5.9879719, 37.3768972], [-5.9884246, 37.3776327], [-5.9888409, 37.3783338], [-5.9890477, 37.3786621], [-5.9890932, 37.3788304], [-5.9892326, 37.379037], [-5.9893935, 37.3790477], [-5.989541, 37.3791372], [-5.9895838, 37.3792053], [-5.989616, 37.3793055], [-5.9899163, 37.3794035], [-5.9918899, 37.3799186], [-5.9922894, 37.380023], [-5.9925441, 37.3801487], [-5.9926164, 37.3802595], [-5.9926299, 37.3804363], [-5.9926513, 37.3805939], [-5.9926888, 37.3806941], [-5.9927465, 37.380779], [-5.9928698, 37.3808365], [-5.9932719, 37.3809409], [-5.9936982, 37.3810495], [-5.9935431, 37.3814606], [-5.9933893, 37.3818493], [-5.9933679, 37.3820297], [-5.9932072, 37.3824151], [-5.9933037, 37.382496], [-5.9934484, 37.3826643], [-5.9935396, 37.3828816], [-5.9936639, 37.3834745], [-5.9937289, 37.3839117], [-5.993769, 37.3840156], [-5.9938957, 37.3847972], [-5.993944, 37.3851083], [-5.9939712, 37.3851881], [-5.9943224, 37.3851178], [-5.9946066, 37.3850582], [-5.9946418, 37.3851627], [-5.994698, 37.3852047], [-5.9948332, 37.3852456], [-5.9949457, 37.3852314], [-5.9953772, 37.3851278], [-5.9953197, 37.3852771], [-5.995335, 37.3853624], [-5.9953612, 37.3855585], [-5.9954355, 37.3856867], [-5.9955996, 37.3858237], [-5.9957709, 37.3859405], [-5.9960394, 37.3860835], [-5.996195, 37.3861697], [-5.9962079, 37.3861845], [-5.9961879, 37.3862049], [-5.9960708, 37.3862344], [-5.9960765, 37.38629], [-5.9965849, 37.3866886], [-5.9963184, 37.3869241], [-5.9961075, 37.3871925], [-5.996004, 37.3874004], [-5.9956627, 37.3876764], [-5.9954882, 37.3877395], [-5.995501, 37.3879628], [-5.9955241, 37.3881881], [-5.994877, 37.3882429], [-5.9949524, 37.3889167], [-5.9950228, 37.3895868], [-5.995125, 37.3900509], [-5.9953197, 37.3907871], [-5.995383, 37.391055], [-5.9954178, 37.3914794], [-5.9954615, 37.3920765], [-5.995386, 37.3924668], [-5.9954141, 37.3927175], [-5.994924, 37.392751], [-5.994797, 37.391803], [-5.994542, 37.390976], [-5.994258, 37.389845], [-5.994175, 37.389143], [-5.994151, 37.388605], [-5.994169, 37.388187], [-5.994296, 37.388071], [-5.9943041, 37.3879286], [-5.9942267, 37.38731], [-5.9941493, 37.386713], [-5.9940679, 37.3860718], [-5.9940344, 37.3857616], [-5.993999, 37.385447], [-5.9934331, 37.3854932], [-5.9929686, 37.3855304], [-5.992619, 37.385552], [-5.9926646, 37.3858225], [-5.99271, 37.386038], [-5.992325, 37.386077], [-5.9922097, 37.3856128], [-5.9921552, 37.3853873], [-5.9920569, 37.3853223], [-5.9919205, 37.3852486], [-5.9918789, 37.3851052], [-5.9920842, 37.3849667], [-5.9924191, 37.384767], [-5.9923917, 37.3845631], [-5.9922662, 37.3843614], [-5.9925309, 37.3841793], [-5.9926543, 37.3840931], [-5.992504, 37.3837765], [-5.992534, 37.3836746], [-5.992725, 37.3835554], [-5.9927687, 37.3834448], [-5.9929542, 37.3830633], [-5.9931862, 37.3825048], [-5.9930702, 37.382403], [-5.9929726, 37.3823545], [-5.9920141, 37.3820974], [-5.9909424, 37.38181], [-5.9904383, 37.3816611], [-5.9905588, 37.3813882], [-5.9899138, 37.3812318], [-5.9896077, 37.3811276], [-5.9897152, 37.3807936], [-5.9898409, 37.3804461], [-5.9890428, 37.3802289], [-5.9893702, 37.3795223], [-5.9895615, 37.3793747], [-5.9895997, 37.3791879], [-5.989403, 37.3790402], [-5.9892007, 37.3790489], [-5.9890094, 37.3786058], [-5.9884628, 37.3777371], [-5.9880233, 37.3769862], [-5.9874712, 37.3761], [-5.9871567, 37.375571], [-5.9870549, 37.3754126], [-5.9870346, 37.3753641], [-5.9869671, 37.3753207], [-5.986981, 37.3752749], [-5.9869285, 37.375217], [-5.9868311, 37.3752246], [-5.9866001, 37.37483], [-5.9863994, 37.3744774], [-5.9862621, 37.374253], [-5.9861887, 37.3741258], [-5.9861319, 37.3740997], [-5.9861071, 37.3739756], [-5.9860787, 37.373829], [-5.9860503, 37.3736147], [-5.9859592, 37.3731699], [-5.9858599, 37.3726737], [-5.9857863, 37.3720039], [-5.9845181, 37.3719408], [-5.9817885, 37.3717798], [-5.9817247, 37.3711337], [-5.9816433, 37.3702287], [-5.9812948, 37.3702979], [-5.9804295, 37.3704318], [-5.978484, 37.3707137], [-5.9783504, 37.3707367], [-5.9781878, 37.3706906], [-5.9779525, 37.3706937], [-5.9776621, 37.3707349], [-5.977076, 37.3708174], [-5.9762865, 37.3709163], [-5.9760271, 37.3695721], [-5.9757107, 37.3681707], [-5.9767953, 37.3680646]]}}, {"type": "Feature", "properties": {"id_hdad": 12, "hermandad": "Santa Genoveva", "calle": "Calle Romero de Torres", "osm": "Calle Romero de Torres"}, "geometry": {"type": "Point", "coordinates": [-5.9765845, 37.3680814]}}, {"type": "Feature", "properties": {"id_hdad": 12, "hermandad": "Santa Genoveva", "calle": "Calle Almirante Topete", "osm": "Calle Almirante Topete"}, "geometry": {"type": "Point", "coordinates": [-5.9762186, 37.3706933]}}, {"type": "Feature", "properties": {"id_hdad": 12, "hermandad": "Santa Genoveva", "calle": "Calle Río de la Plata", "osm": "Calle Río de la Plata"}, "geometry": {"type": "Point", "coordinates": [-5.9830947, 37.3734821]}}, {"type": "Feature", "properties": {"id_hdad": 12, "hermandad": "Santa Genoveva", "calle": "Calle Brasil", "osm": "Calle Brasil"}, "geometry": {"type": "Point", "coordinates": [-5.9835757, 37.3736588]}}, {"type": "Feature", "properties": {"id_hdad": 12, "hermandad": "Santa Genoveva", "calle": "Avenida de Covadonga", "osm": "Glorieta Covadonga"}, "geometry": {"type": "Point", "coordinates": [-5.9861333, 37.3741971]}}, {"type": "Feature", "properties": {"id_hdad": 12, "hermandad": "Santa Genoveva", "calle": "Avenida de Isabel la Católica", "osm": "Avenida Isabel la Católica"}, "geometry": {"type": "Point", "coordinates": [-5.9889374, 37.3784851]}}, {"type": "Feature", "properties": {"id_hdad": 12, "hermandad": "Santa Genoveva", "calle": "Avenida de Roma", "osm": "Avenida de Roma"}, "geometry": {"type": "Point", "coordinates": [-5.9935431, 37.3814606]}}, {"type": "Feature", "properties": {"id_hdad": 12, "hermandad": "Santa Genoveva", "calle": "Plaza Puerta de Jerez", "osm": "Plaza Puerta de Jerez"}, "geometry": {"type": "Point", "coordinates": [-5.9932803, 37.3823377]}}, {"type": "Feature", "properties": {"id_hdad": 12, "hermandad": "Santa Genoveva", "calle": "Avenida de la Constitución", "osm": "Avenida de la Constitución"}, "geometry": {"type": "Point", "coordinates": [-5.9936639, 37.3834745]}}, {"type": "Feature", "properties": {"id_hdad": 12, "hermandad": "Santa Genoveva", "calle": "Calle Almirantazgo", "osm": "Calle Almirantazgo"}, "geometry": {"type": "Point", "coordinates": [-5.994698, 37.3852047]}}, {"type": "Feature", "properties": {"id_hdad": 12, "hermandad": "Santa Genoveva", "calle": "Calle Arco del Postigo", "osm": "Calle Arco del Postigo"}, "geometry": {"type": "Point", "coordinates": [-5.9949572, 37.3852368]}}, {"type": "Feature", "properties": {"id_hdad": 12, "hermandad": "Santa Genoveva", "calle": "Calle Dos de Mayo", "osm": "Calle Dos de Mayo"}, "geometry": {"type": "Point", "coordinates": [-5.995197, 37.385176]}}, {"type": "Feature", "properties": {"id_hdad": 12, "hermandad": "Santa Genoveva", "calle": "Calle Arfe", "osm": "Calle Arfe"}, "geometry": {"type": "Point", "coordinates": [-5.9954066, 37.3856467]}}, {"type": "Feature", "properties": {"id_hdad": 12, "hermandad": "Santa Genoveva", "calle": "Calle Puerta del Arenal", "osm": "Calle Puerta del Arenal"}, "geometry": {"type": "Point", "coordinates": [-5.9961081, 37.3862154]}}, {"type": "Feature", "properties": {"id_hdad": 12, "hermandad": "Santa Genoveva", "calle": "Calle Castelar", "osm": "Calle Castelar"}, "geometry": {"type": "Point", "coordinates": [-5.9963303, 37.3864856]}}, {"type": "Feature", "properties": {"id_hdad": 12, "hermandad": "Santa Genoveva", "calle": "Calle Gamazo", "osm": "Calle Gamazo"}, "geometry": {"type": "Point", "coordinates": [-5.9961075, 37.3871925]}}, {"type": "Feature", "properties": {"id_hdad": 12, "hermandad": "Santa Genoveva", "calle": "Calle Joaquín Guichot", "osm": "Calle Joaquín Guichot"}, "geometry": {"type": "Point", "coordinates": [-5.9955391, 37.3877253]}}, {"type": "Feature", "properties": {"id_hdad": 12, "hermandad": "Santa Genoveva", "calle": "Calle Barcelona", "osm": "Calle Barcelona"}, "geometry": {"type": "Point", "coordinates": [-5.995501, 37.3879628]}}, {"type": "Feature", "properties": {"id_hdad": 12, "hermandad": "Santa Genoveva", "calle": "Plaza Nueva", "osm": "Plaza Nueva"}, "geometry": {"type": "Point", "coordinates": [-5.9949315, 37.3886551]}}, {"type": "Feature", "properties": {"id_hdad": 12, "hermandad": "Santa Genoveva", "calle": "Calle Tetuán", "osm": "Calle Tetuán"}, "geometry": {"type": "Point", "coordinates": [-5.9951669, 37.3902317]}}, {"type": "Feature", "properties": {"id_hdad": 12, "hermandad": "Santa Genoveva", "calle": "Calle Velázquez", "osm": "Calle Velázquez"}, "geometry": {"type": "Point", "coordinates": [-5.9954035, 37.3911654]}}, {"type": "Feature", "properties": {"id_hdad": 12, "hermandad": "Santa Genoveva", "calle": "Calle O'Donnell", "osm": "Calle O'Donnell"}, "geometry": {"type": "Point", "coordinates": [-5.995454, 37.392155]}}, {"type": "Feature", "properties": {"id_hdad": 12, "hermandad": "Santa Genoveva", "calle": "La Campana", "osm": "Calle Campana"}, "geometry": {"type": "Point", "coordinates": [-5.995376, 37.392725]}}, {"type": "Feature", "properties": {"id_hdad": 12, "hermandad": "Santa Genoveva", "calle": "Calle Sierpes", "osm": "Calle Sierpes"}, "geometry": {"type": "Point", "coordinates": [-5.9947885, 37.3908748]}}, {"type": "Feature", "properties": {"id_hdad": 12, "hermandad": "Santa Genoveva", "calle": "Plaza de San Francisco", "osm": "Plaza de San Francisco"}, "geometry": {"type": "Point", "coordinates": [-5.994154, 37.38867]}}, {"type": "Feature", "properties": {"id_hdad": 12, "hermandad": "Santa Genoveva", "calle": "Avenida de la Constitución", "osm": "Avenida de la Constitución"}, "geometry": {"type": "Point", "coordinates": [-5.994185, 37.386838]}}, {"type": "Feature", "properties": {"id_hdad": 12, "hermandad": "Santa Genoveva", "calle": "Calle Miguel Mañara", "osm": "Calle Miguel Mañara"}, "geometry": {"type": "Point", "coordinates": [-5.992479, 37.3842205]}}, {"type": "Feature", "properties": {"id_hdad": 12, "hermandad": "Santa Genoveva", "calle": "Plaza de La Contratación", "osm": "Plaza de la Contratación"}, "geometry": {"type": "Point", "coordinates": [-5.992534, 37.383679]}}, {"type": "Feature", "properties": {"id_hdad": 12, "hermandad": "Santa Genoveva", "calle": "Calle San Gregorio", "osm": "Plaza de San Gregorio"}, "geometry": {"type": "Point", "coordinates": [-5.9928723, 37.383241]}}, {"type": "Feature", "properties": {"id_hdad": 12, "hermandad": "Santa Genoveva", "calle": "Plaza Puerta de Jerez", "osm": "Plaza Puerta de Jerez"}, "geometry": {"type": "Point", "coordinates": [-5.9932597, 37.3823431]}}, {"type": "Feature", "properties": {"id_hdad": 12, "hermandad": "Santa Genoveva", "calle": "Calle San Fernando", "osm": "Calle San Fernando"}, "geometry": {"type": "Point", "coordinates": [-5.9909424, 37.38181]}}, {"type": "Feature", "properties": {"id_hdad": 12, "hermandad": "Santa Genoveva", "calle": "Avenida de Isabel la Católica", "osm": "Avenida Isabel la Católica"}, "geometry": {"type": "Point", "coordinates": [-5.9889401, 37.3784936]}}, {"type": "Feature", "properties": {"id_hdad": 12, "hermandad": "Santa Genoveva", "calle": "Avenida de Covadonga", "osm": "Glorieta Covadonga"}, "geometry": {"type": "Point", "coordinates": [-5.9861333, 37.3741971]}}, {"type": "Feature", "properties": {"id_hdad": 12, "hermandad": "Santa Genoveva", "calle": "Calle Romero de Torres", "osm": "Calle Romero de Torres"}, "geometry": {"type": "Point", "coordinates": [-5.9765845, 37.3680814]}}]}