{"type":"FeatureCollection","features":[{"type":"Feature","properties":{"id_hdad":14,"nombre":"San Gonzalo","dia":"lunes-santo"},"geometry":{"type":"LineString","coordinates":[[-6.004999,37.383786],[-6.00425,37.384339],[-6.003677,37.38492],[-6.003157,37.385451],[-6.002392,37.386329],[-6.0014333,37.3873918],[-6.0009286,37.3879185],[-6.00009,37.388725],[-5.999537,37.389252],[-5.9990535,37.3897174],[-5.998242,37.390243],[-5.9977932,37.390508],[-5.996838,37.390749],[-5.995983,37.390975],[-5.9955203,37.3910527],[-5.995396,37.391045],[-5.9954615,37.3920765],[-5.995386,37.3924668],[-5.9954141,37.3927175],[-5.994924,37.392751],[-5.994797,37.391803],[-5.994542,37.390976],[-5.994258,37.389845],[-5.994175,37.389143],[-5.994151,37.388605],[-5.994169,37.388187],[-5.994296,37.388071],[-5.9943041,37.3879286],[-5.9942267,37.38731],[-5.9941493,37.386713],[-5.9940679,37.3860718],[-5.9940344,37.3857616],[-5.993999,37.385447],[-5.9934331,37.3854932],[-5.9929686,37.3855304],[-5.992619,37.385552],[-5.9926646,37.3858225],[-5.99271,37.386038],[-5.992325,37.386077],[-5.9922097,37.3856128],[-5.9921552,37.3853873],[-5.9920569,37.3853223],[-5.9919205,37.3852486],[-5.9918789,37.3851052],[-5.9920842,37.3849667],[-5.9917345,37.3851446],[-5.991467,37.3852958],[-5.9934855,37.3841428],[-5.9937738,37.3839993],[-5.9940213,37.3837221],[-5.9942985,37.3836437],[-5.9943624,37.3840916],[-5.9944069,37.384307],[-5.9944694,37.3845251],[-5.9945896,37.3849635],[-5.9946287,37.3851411],[-5.9946902,37.3852055],[-5.9948215,37.3852433],[-5.9949385,37.3852331],[-5.9951972,37.385176],[-5.9953598,37.3851215],[-5.9953224,37.3852665],[-5.9953317,37.385378],[-5.9953636,37.3855735],[-5.9953972,37.3856197],[-5.9959447,37.386045],[-5.9964187,37.3862747],[-5.9965767,37.3862818],[-5.9966661,37.3862179],[-5.997544,37.386488],[-6.0009286,37.3879185],[-6.0014333,37.3873918],[-6.002392,37.386329],[-6.003157,37.385451],[-6.003677,37.38492],[-6.00425,37.384339],[-6.004999,37.383786],[-6.0102383,37.3800382]]}},{"type":"Feature","properties":{"id_hdad":14,"hermandad":"San Gonzalo","calle":"Plaza de San Gonzalo"},"geometry":{"type":"Point","coordinates":[-6.0102383,37.3800382]}},{"type":"Feature","properties":{"id_hdad":14,"hermandad":"San Gonzalo","calle":"Calle San Jacinto"},"geometry":{"type":"Point","coordinates":[-6.004999,37.383786]}},{"type":"Feature","properties":{"id_hdad":14,"hermandad":"San Gonzalo","calle":"Plaza del Altozano"},"geometry":{"type":"Point","coordinates":[-6.003677,37.38492]}},{"type":"Feature","properties":{"id_hdad":14,"hermandad":"San Gonzalo","calle":"Puente de Isabel II"},"geometry":{"type":"Point","coordinates":[-6.002392,37.386329]}},{"type":"Feature","properties":{"id_hdad":14,"hermandad":"San Gonzalo","calle":"Calle Reyes Católicos"},"geometry":{"type":"Point","coordinates":[-6.0009286,37.3879185]}},{"type":"Feature","properties":{"id_hdad":14,"hermandad":"San Gonzalo","calle":"Calle Puerta de Triana"},"geometry":{"type":"Point","coordinates":[-6.00009,37.388725]}},{"type":"Feature","properties":{"id_hdad":14,"hermandad":"San Gonzalo","calle":"Calle San Pablo"},"geometry":{"type":"Point","coordinates":[-5.9990535,37.3897174]}},{"type":"Feature","properties":{"id_hdad":14,"hermandad":"San Gonzalo","calle":"Plaza de la Magdalena"},"geometry":{"type":"Point","coordinates":[-5.9977932,37.390508]}},{"type":"Feature","properties":{"id_hdad":14,"hermandad":"San Gonzalo","calle":"Calle Rioja"},"geometry":{"type":"Point","coordinates":[-5.995983,37.390975]}},{"type":"Feature","properties":{"id_hdad":14,"hermandad":"San Gonzalo","calle":"Calle Velázquez"},"geometry":{"type":"Point","coordinates":[-5.9955203,37.3910527]}},{"type":"Feature","properties":{"id_hdad":14,"hermandad":"San Gonzalo","calle":"Calle O'Donnell"},"geometry":{"type":"Point","coordinates":[-5.9954615,37.3920765]}},{"type":"Feature","properties":{"id_hdad":14,"hermandad":"San Gonzalo","calle":"Avenida de la Constitución"},"geometry":{"type":"Point","coordinates":[-5.994185,37.386838]}},{"type":"Feature","properties":{"id_hdad":14,"hermandad":"San Gonzalo","calle":"Plaza de San Francisco"},"geometry":{"type":"Point","coordinates":[-5.994169,37.388187]}},{"type":"Feature","properties":{"id_hdad":14,"hermandad":"San Gonzalo","calle":"Calle Sierpes"},"geometry":{"type":"Point","coordinates":[-5.9946698,37.3913397]}},{"type":"Feature","properties":{"id_hdad":14,"hermandad":"San Gonzalo","calle":"La Campana"},"geometry":{"type":"Point","coordinates":[-5.995376,37.392725]}},{"type":"Feature","properties":{"id_hdad":14,"hermandad":"San Gonzalo","calle":"Plaza del Triunfo"},"geometry":{"type":"Point","coordinates":[-5.9920788,37.384965]}},{"type":"Feature","properties":{"id_hdad":14,"hermandad":"San Gonzalo","calle":"Calle Joaquín Romero Murube"},"geometry":{"type":"Point","coordinates":[-5.991467,37.3852958]}},{"type":"Feature","properties":{"id_hdad":14,"hermandad":"San Gonzalo","calle":"Calle Santo Tomás"},"geometry":{"type":"Point","coordinates":[-5.9934855,37.3841428]}},{"type":"Feature","properties":{"id_hdad":14,"hermandad":"San Gonzalo","calle":"Calle Santander"},"geometry":{"type":"Point","coordinates":[-5.9942985,37.3836437]}},{"type":"Feature","properties":{"id_hdad":14,"hermandad":"San Gonzalo","calle":"Calle Tomás de Ibarra"},"geometry":{"type":"Point","coordinates":[-5.9944694,37.3845251]}},{"type":"Feature","properties":{"id_hdad":14,"hermandad":"San Gonzalo","calle":"Calle Almirantazgo"},"geometry":{"type":"Point","coordinates":[-5.9946287,37.3851411]}},{"type":"Feature","properties":{"id_hdad":14,"hermandad":"San Gonzalo","calle":"Calle Arco del Postigo"},"geometry":{"type":"Point","coordinates":[-5.9949385,37.3852331]}},{"type":"Feature","properties":{"id_hdad":14,"hermandad":"San Gonzalo","calle":"Calle Dos de Mayo"},"geometry":{"type":"Point","coordinates":[-5.9953224,37.3852665]}},{"type":"Feature","properties":{"id_hdad":14,"hermandad":"San Gonzalo","calle":"Calle Arfe"},"geometry":{"type":"Point","coordinates":[-5.995601,37.385837]}},{"type":"Feature","properties":{"id_hdad":14,"hermandad":"San Gonzalo","calle":"Calle Adriano"},"geometry":{"type":"Point","coordinates":[-5.997544,37.386488]}},{"type":"Feature","properties":{"id_hdad":14,"hermandad":"San Gonzalo","calle":"Calle Reyes Católicos"},"geometry":{"type":"Point","coordinates":[-6.0009286,37.3879185]}},{"type":"Feature","properties":{"id_hdad":14,"hermandad":"San Gonzalo","calle":"Puente de Isabel II"},"geometry":{"type":"Point","coordinates":[-6.002392,37.386329]}},{"type":"Feature","properties":{"id_hdad":14,"hermandad":"San Gonzalo","calle":"Plaza del Altozano"},"geometry":{"type":"Point","coordinates":[-6.003157,37.385451]}},{"type":"Feature","properties":{"id_hdad":14,"hermandad":"San Gonzalo","calle":"Calle San Jacinto"},"geometry":{"type":"Point","coordinates":[-6.004999,37.383786]}},{"type":"Feature","properties":{"id_hdad":14,"hermandad":"San Gonzalo","calle":"Plaza de San Gonzalo"},"geometry":{"type":"Point","coordinates":[-6.0102383,37.3800382]}}]}