{"type": "FeatureCollection", "features": [{"type": "Feature", "properties": {"id_hdad": 15, "nombre": "Vera-Cruz", "dia": "lunes-santo"}, "geometry": {"type": "LineString", "coordinates": [[-5.9982082, 37.3949849], [-5.9983769, 37.3941201], [-5.9980858, 37.3940754], [-5.9979445, 37.3939831], [-5.9975867, 37.393849], [-5.9972194, 37.3938019], [-5.9968435, 37.393758], [-5.9959223, 37.3936266], [-5.996046, 37.393115], [-5.9960975, 37.392915], [-5.9961387, 37.3927242], [-5.9958656, 37.392719], [-5.9955948, 37.3927173], [-5.9954756, 37.3927173], [-5.995376, 37.392725], [-5.994924, 37.392751], [-5.994861, 37.3922847], [-5.994797, 37.391803], [-5.9946698, 37.3913397], [-5.994517, 37.3908821], [-5.994258, 37.389845], [-5.994175, 37.389143], [-5.994154, 37.38867], [-5.994169, 37.388187], [-5.994296, 37.388071], [-5.9943041, 37.3879286], [-5.9942267, 37.38731], [-5.994185, 37.386838], [-5.9940679, 37.3860718], [-5.9940344, 37.3857616], [-5.993999, 37.385447], [-5.9934331, 37.3854932], [-5.9929686, 37.3855304], [-5.992619, 37.385552], [-5.9926646, 37.3858225], [-5.99271, 37.386038], [-5.992325, 37.386077], [-5.992365, 37.386288], [-5.9924408, 37.3863144], [-5.9924973, 37.3863647], [-5.992537, 37.386555], [-5.992515, 37.38666], [-5.992492, 37.3867571], [-5.9924607, 37.3869592], [-5.99245, 37.3872656], [-5.992489, 37.387452], [-5.992594, 37.387654], [-5.992704, 37.387858], [-5.99277, 37.38804], [-5.992765, 37.388268], [-5.992739, 37.388594], [-5.992652, 37.388762], [-5.992579, 37.389047], [-5.992548, 37.389396], [-5.992496, 37.389533], [-5.992354, 37.389739], [-5.992781, 37.389701], [-5.993087, 37.389679], [-5.993132428703218, 37.39005314738425], [-5.993169, 37.390185], [-5.993243, 37.390261], [-5.993364, 37.390816], [-5.993467, 37.391235], [-5.9935038, 37.3915601], [-5.9936079, 37.3923895], [-5.9936905, 37.3932322], [-5.9936844, 37.3934442], [-5.993838, 37.393693], [-5.9940973, 37.3936496], [-5.9942892, 37.3936065], [-5.994575, 37.393545], [-5.9947497, 37.3935151], [-5.9950146, 37.393693], [-5.9953121, 37.3939063], [-5.9956419, 37.3939039], [-5.9959824, 37.3938867], [-5.995978500352905, 37.3940198419956], [-5.9959477, 37.3942225], [-5.9963843, 37.3942981], [-5.9966511, 37.3943577], [-5.9968246, 37.3943777], [-5.9967692, 37.3946353], [-5.9972896, 37.3947155], [-5.9972091, 37.3950916], [-5.9978968, 37.3951943], [-5.9981653, 37.3952204], [-5.998205, 37.3949944]]}}, {"type": "Feature", "properties": {"id_hdad": 15, "hermandad": "Vera-Cruz", "calle": "Calle Jesús de la Vera-Cruz", "osm": "Calle Jesús de la Vera-Cruz"}, "geometry": {"type": "Point", "coordinates": [-5.9982084, 37.3949864]}}, {"type": "Feature", "properties": {"id_hdad": 15, "hermandad": "Vera-Cruz", "calle": "Calle Virgen de los Buenos Libros", "osm": "Calle Virgen de los Buenos Libros"}, "geometry": {"type": "Point", "coordinates": [-5.9979445, 37.3939831]}}, {"type": "Feature", "properties": {"id_hdad": 15, "hermandad": "Vera-Cruz", "calle": "Calle Teniente Borges", "osm": "Calle Teniente Borges"}, "geometry": {"type": "Point", "coordinates": [-5.9972194, 37.3938019]}}, {"type": "Feature", "properties": {"id_hdad": 15, "hermandad": "Vera-Cruz", "calle": "Plaza del Duque de la Victoria", "osm": "Plaza del Duque de la Victoria"}, "geometry": {"type": "Point", "coordinates": [-5.996046, 37.393115]}}, {"type": "Feature", "properties": {"id_hdad": 15, "hermandad": "Vera-Cruz", "calle": "La Campana", "osm": "Calle Campana"}, "geometry": {"type": "Point", "coordinates": [-5.995376, 37.392725]}}, {"type": "Feature", "properties": {"id_hdad": 15, "hermandad": "Vera-Cruz", "calle": "Calle Sierpes", "osm": "Calle Sierpes"}, "geometry": {"type": "Point", "coordinates": [-5.9944496, 37.3908152]}}, {"type": "Feature", "properties": {"id_hdad": 15, "hermandad": "Vera-Cruz", "calle": "Plaza de San Francisco", "osm": "Plaza de San Francisco"}, "geometry": {"type": "Point", "coordinates": [-5.994154, 37.38867]}}, {"type": "Feature", "properties": {"id_hdad": 15, "hermandad": "Vera-Cruz", "calle": "Avenida de la Constitución", "osm": "Avenida de la Constitución"}, "geometry": {"type": "Point", "coordinates": [-5.994185, 37.386838]}}, {"type": "Feature", "properties": {"id_hdad": 15, "hermandad": "Vera-Cruz", "calle": "Calle Cardenal Carlos Amigo", "osm": "Calle Cardenal Carlos Amigo"}, "geometry": {"type": "Point", "coordinates": [-5.992537, 37.386555]}}, {"type": "Feature", "properties": {"id_hdad": 15, "hermandad": "Vera-Cruz", "calle": "Calle Placentines", "osm": "Calle Placentines"}, "geometry": {"type": "Point", "coordinates": [-5.992594, 37.387654]}}, {"type": "Feature", "properties": {"id_hdad": 15, "hermandad": "Vera-Cruz", "calle": "Calle Francos", "osm": "Calle Francos"}, "geometry": {"type": "Point", "coordinates": [-5.992765, 37.388268]}}, {"type": "Feature", "properties": {"id_hdad": 15, "hermandad": "Vera-Cruz", "calle": "Calle Villegas", "osm": "Calle Villegas"}, "geometry": {"type": "Point", "coordinates": [-5.992781, 37.389701]}}, {"type": "Feature", "properties": {"id_hdad": 15, "hermandad": "Vera-Cruz", "calle": "Plaza del Salvador", "osm": "Plaza del Salvador"}, "geometry": {"type": "Point", "coordinates": [-5.993132428703218, 37.39005314738425]}}, {"type": "Feature", "properties": {"id_hdad": 15, "hermandad": "Vera-Cruz", "calle": "Calle Cuna", "osm": "Calle Cuna"}, "geometry": {"type": "Point", "coordinates": [-5.9935291, 37.3916728]}}, {"type": "Feature", "properties": {"id_hdad": 15, "hermandad": "Vera-Cruz", "calle": "Calle Orfila", "osm": "Calle Orfila"}, "geometry": {"type": "Point", "coordinates": [-5.9936842, 37.3930691]}}, {"type": "Feature", "properties": {"id_hdad": 15, "hermandad": "Vera-Cruz", "calle": "Calle Javier Lasso de la Vega", "osm": "Calle Javier Lasso de la Vega"}, "geometry": {"type": "Point", "coordinates": [-5.994575, 37.393545]}}, {"type": "Feature", "properties": {"id_hdad": 15, "hermandad": "Vera-Cruz", "calle": "Calle Aponte", "osm": "Calle Aponte"}, "geometry": {"type": "Point", "coordinates": [-5.9956419, 37.3939039]}}, {"type": "Feature", "properties": {"id_hdad": 15, "hermandad": "Vera-Cruz", "calle": "Calle Jesús del Gran Poder", "osm": "Calle Jesús del Gran Poder"}, "geometry": {"type": "Point", "coordinates": [-5.995978500352905, 37.3940198419956]}}, {"type": "Feature", "properties": {"id_hdad": 15, "hermandad": "Vera-Cruz", "calle": "Calle Las Cortes", "osm": "Calle Las Cortes"}, "geometry": {"type": "Point", "coordinates": [-5.9963843, 37.3942981]}}, {"type": "Feature", "properties": {"id_hdad": 15, "hermandad": "Vera-Cruz", "calle": "Plaza de La Concordia", "osm": "Plaza de la Concordia"}, "geometry": {"type": "Point", "coordinates": [-5.9968103, 37.3944329]}}, {"type": "Feature", "properties": {"id_hdad": 15, "hermandad": "Vera-Cruz", "calle": "Plaza de la Gavidia", "osm": "Plaza de la Gavidia"}, "geometry": {"type": "Point", "coordinates": [-5.9970468, 37.3946835]}}, {"type": "Feature", "properties": {"id_hdad": 15, "hermandad": "Vera-Cruz", "calle": "Calle Baños", "osm": "Calle Baños"}, "geometry": {"type": "Point", "coordinates": [-5.9978968, 37.3951943]}}, {"type": "Feature", "properties": {"id_hdad": 15, "hermandad": "Vera-Cruz", "calle": "Calle Jesús de la Vera-Cruz", "osm": "Calle Jesús de la Vera-Cruz"}, "geometry": {"type": "Point", "coordinates": [-5.9982033, 37.3949851]}}]}