{"type": "FeatureCollection", "features": [{"type": "Feature", "properties": {"id_hdad": 20, "nombre": "San Esteban", "dia": "martes-santo"}, "geometry": {"type": "LineString", "coordinates": [[-5.985444, 37.389615], [-5.9858628, 37.3897627], [-5.9865122, 37.3897508], [-5.987031, 37.389815], [-5.987752, 37.389879], [-5.988716, 37.3905804], [-5.9884604, 37.3908097], [-5.9883511, 37.39097], [-5.9882658, 37.3910695], [-5.9888261, 37.3912306], [-5.9888014, 37.3915014], [-5.9891074, 37.3915506], [-5.9893223, 37.3915316], [-5.9894715, 37.3914999], [-5.9896613, 37.3914659], [-5.989917, 37.3914874], [-5.9895558, 37.392526], [-5.9898184, 37.3924826], [-5.9899787, 37.3924826], [-5.990142, 37.392465], [-5.99088, 37.39261], [-5.991499, 37.3927], [-5.9922302, 37.392777], [-5.992981, 37.392804], [-5.9933169, 37.3928037], [-5.9936593, 37.3928157], [-5.9936853, 37.3929311], [-5.993689, 37.393287], [-5.9936844, 37.3934442], [-5.993838, 37.393693], [-5.9940973, 37.3936496], [-5.9942892, 37.3936065], [-5.994575, 37.393545], [-5.9947497, 37.3935151], [-5.9950146, 37.393693], [-5.9953121, 37.3939063], [-5.9956419, 37.3939039], [-5.9959824, 37.3938867], [-5.995978500352905, 37.3940198419956], [-5.9959864, 37.3938914], [-5.9959496, 37.3937209], [-5.9959193, 37.3936073], [-5.9959583, 37.3934438], [-5.996046, 37.393115], [-5.9960975, 37.392915], [-5.9961387, 37.3927242], [-5.9958656, 37.392719], [-5.9955948, 37.3927173], [-5.9954756, 37.3927173], [-5.995376, 37.392725], [-5.994924, 37.392751], [-5.994861, 37.3922847], [-5.994797, 37.391803], [-5.9946698, 37.3913397], [-5.9945161, 37.3909308], [-5.9943917, 37.3904014], [-5.994327, 37.3901151], [-5.9942735, 37.3898019], [-5.9941991, 37.3894656], [-5.994175, 37.389143], [-5.994154, 37.38867], [-5.994169, 37.388187], [-5.994296, 37.388071], [-5.9943041, 37.3879286], [-5.9942267, 37.38731], [-5.9941493, 37.386713], [-5.9940679, 37.3860718], [-5.9940344, 37.3857616], [-5.993999, 37.385447], [-5.9934331, 37.3854932], [-5.9929686, 37.3855304], [-5.992619, 37.385552], [-5.9926646, 37.3858225], [-5.99271, 37.386038], [-5.992325, 37.386077], [-5.992365, 37.386288], [-5.9924408, 37.3863144], [-5.9924973, 37.3863647], [-5.9925107, 37.3865266], [-5.992515, 37.38666], [-5.992549, 37.386763], [-5.992807, 37.386777], [-5.993037, 37.386751], [-5.993054, 37.386917], [-5.9930245, 37.3870101], [-5.9929267, 37.3871073], [-5.992697, 37.387288], [-5.992489, 37.387452], [-5.992594, 37.387654], [-5.992704, 37.387858], [-5.99277, 37.38804], [-5.992784, 37.388285], [-5.992744, 37.388583], [-5.992621, 37.388828], [-5.992568, 37.389176], [-5.992542, 37.389426], [-5.992353, 37.389737], [-5.991765, 37.389785], [-5.9915301, 37.3898039], [-5.9913096, 37.3898065], [-5.991289194661936, 37.389882871212365], [-5.9912497, 37.389973], [-5.9912273, 37.3900874], [-5.9911748, 37.3902722], [-5.9911616, 37.3904076], [-5.9910099, 37.3904447], [-5.9908985, 37.390408], [-5.987752, 37.389879], [-5.987031, 37.389815], [-5.9865122, 37.3897508], [-5.9858628, 37.3897627], [-5.985444, 37.389615]]}}, {"type": "Feature", "properties": {"id_hdad": 20, "hermandad": "San Esteban", "calle": "Calle San Esteban"}, "geometry": {"type": "Point", "coordinates": [-5.985444, 37.389615]}}, {"type": "Feature", "properties": {"id_hdad": 20, "hermandad": "San Esteban", "calle": "Plaza de Pilatos"}, "geometry": {"type": "Point", "coordinates": [-5.9865122, 37.3897508]}}, {"type": "Feature", "properties": {"id_hdad": 20, "hermandad": "San Esteban", "calle": "Calle Águilas"}, "geometry": {"type": "Point", "coordinates": [-5.987752, 37.389879]}}, {"type": "Feature", "properties": {"id_hdad": 20, "hermandad": "San Esteban", "calle": "Calle Rodríguez Marín"}, "geometry": {"type": "Point", "coordinates": [-5.98833, 37.3903]}}, {"type": "Feature", "properties": {"id_hdad": 20, "hermandad": "San Esteban", "calle": "Plaza de San Ildefonso"}, "geometry": {"type": "Point", "coordinates": [-5.988716, 37.3905804]}}, {"type": "Feature", "properties": {"id_hdad": 20, "hermandad": "San Esteban", "calle": "Calle Zamudio"}, "geometry": {"type": "Point", "coordinates": [-5.9883511, 37.39097]}}, {"type": "Feature", "properties": {"id_hdad": 20, "hermandad": "San Esteban", "calle": "Plaza de San Leandro"}, "geometry": {"type": "Point", "coordinates": [-5.9885589, 37.3910758]}}, {"type": "Feature", "properties": {"id_hdad": 20, "hermandad": "San Esteban", "calle": "Calle Alhóndiga"}, "geometry": {"type": "Point", "coordinates": [-5.9888014, 37.3915014]}}, {"type": "Feature", "properties": {"id_hdad": 20, "hermandad": "San Esteban", "calle": "Calle Dormitorio"}, "geometry": {"type": "Point", "coordinates": [-5.9894715, 37.3914999]}}, {"type": "Feature", "properties": {"id_hdad": 20, "hermandad": "San Esteban", "calle": "Plaza del Cristo de Burgos"}, "geometry": {"type": "Point", "coordinates": [-5.9895836, 37.391943]}}, {"type": "Feature", "properties": {"id_hdad": 20, "hermandad": "San Esteban", "calle": "Plaza de San Pedro"}, "geometry": {"type": "Point", "coordinates": [-5.989692, 37.392505]}}, {"type": "Feature", "properties": {"id_hdad": 20, "hermandad": "San Esteban", "calle": "Calle Imagen"}, "geometry": {"type": "Point", "coordinates": [-5.991499, 37.3927]}}, {"type": "Feature", "properties": {"id_hdad": 20, "hermandad": "San Esteban", "calle": "Plaza de la Encarnación"}, "geometry": {"type": "Point", "coordinates": [-5.9933169, 37.3928037]}}, {"type": "Feature", "properties": {"id_hdad": 20, "hermandad": "San Esteban", "calle": "Calle Laraña"}, "geometry": {"type": "Point", "coordinates": [-5.9936853, 37.3929311]}}, {"type": "Feature", "properties": {"id_hdad": 20, "hermandad": "San Esteban", "calle": "Calle Orfila"}, "geometry": {"type": "Point", "coordinates": [-5.993838, 37.393693]}}, {"type": "Feature", "properties": {"id_hdad": 20, "hermandad": "San Esteban", "calle": "Calle Javier Lasso de la Vega"}, "geometry": {"type": "Point", "coordinates": [-5.994575, 37.393545]}}, {"type": "Feature", "properties": {"id_hdad": 20, "hermandad": "San Esteban", "calle": "Calle Aponte"}, "geometry": {"type": "Point", "coordinates": [-5.9953121, 37.3939063]}}, {"type": "Feature", "properties": {"id_hdad": 20, "hermandad": "San Esteban", "calle": "Calle Jesús del Gran Poder"}, "geometry": {"type": "Point", "coordinates": [-5.995978500352905, 37.3940198419956]}}, {"type": "Feature", "properties": {"id_hdad": 20, "hermandad": "San Esteban", "calle": "Plaza del Duque de la Victoria"}, "geometry": {"type": "Point", "coordinates": [-5.9960975, 37.392915]}}, {"type": "Feature", "properties": {"id_hdad": 20, "hermandad": "San Esteban", "calle": "La Campana"}, "geometry": {"type": "Point", "coordinates": [-5.994924, 37.392751]}}, {"type": "Feature", "properties": {"id_hdad": 20, "hermandad": "San Esteban", "calle": "Calle Sierpes"}, "geometry": {"type": "Point", "coordinates": [-5.994327, 37.3901151]}}, {"type": "Feature", "properties": {"id_hdad": 20, "hermandad": "San Esteban", "calle": "Plaza de San Francisco"}, "geometry": {"type": "Point", "coordinates": [-5.9943041, 37.3879286]}}, {"type": "Feature", "properties": {"id_hdad": 20, "hermandad": "San Esteban", "calle": "Avenida de la Constitución"}, "geometry": {"type": "Point", "coordinates": [-5.9934331, 37.3854932]}}, {"type": "Feature", "properties": {"id_hdad": 20, "hermandad": "San Esteban", "calle": "Calle Cardenal Carlos Amigo"}, "geometry": {"type": "Point", "coordinates": [-5.992365, 37.386288]}}, {"type": "Feature", "properties": {"id_hdad": 20, "hermandad": "San Esteban", "calle": "Calle Alemanes"}, "geometry": {"type": "Point", "coordinates": [-5.992807, 37.386777]}}, {"type": "Feature", "properties": {"id_hdad": 20, "hermandad": "San Esteban", "calle": "Calle Álvarez Quintero"}, "geometry": {"type": "Point", "coordinates": [-5.9930245, 37.3870101]}}, {"type": "Feature", "properties": {"id_hdad": 20, "hermandad": "San Esteban", "calle": "Calle Argote de Molina"}, "geometry": {"type": "Point", "coordinates": [-5.992489, 37.387452]}}, {"type": "Feature", "properties": {"id_hdad": 20, "hermandad": "San Esteban", "calle": "Calle Placentines"}, "geometry": {"type": "Point", "coordinates": [-5.99277, 37.38804]}}, {"type": "Feature", "properties": {"id_hdad": 20, "hermandad": "San Esteban", "calle": "Calle Francos"}, "geometry": {"type": "Point", "coordinates": [-5.992621, 37.388828]}}, {"type": "Feature", "properties": {"id_hdad": 20, "hermandad": "San Esteban", "calle": "Cuesta del Rosario"}, "geometry": {"type": "Point", "coordinates": [-5.992353, 37.389737]}}, {"type": "Feature", "properties": {"id_hdad": 20, "hermandad": "San Esteban", "calle": "Plaza de la Pescadería"}, "geometry": {"type": "Point", "coordinates": [-5.9913096, 37.3898065]}}, {"type": "Feature", "properties": {"id_hdad": 20, "hermandad": "San Esteban", "calle": "Calle Ángel María Camacho"}, "geometry": {"type": "Point", "coordinates": [-5.9912273, 37.3900874]}}, {"type": "Feature", "properties": {"id_hdad": 20, "hermandad": "San Esteban", "calle": "Plaza de La Alfalfa"}, "geometry": {"type": "Point", "coordinates": [-5.9908985, 37.390408]}}, {"type": "Feature", "properties": {"id_hdad": 20, "hermandad": "San Esteban", "calle": "Calle Águilas"}, "geometry": {"type": "Point", "coordinates": [-5.987752, 37.389879]}}, {"type": "Feature", "properties": {"id_hdad": 20, "hermandad": "San Esteban", "calle": "Plaza de Pilatos"}, "geometry": {"type": "Point", "coordinates": [-5.9865122, 37.3897508]}}, {"type": "Feature", "properties": {"id_hdad": 20, "hermandad": "San Esteban", "calle": "Calle San Esteban"}, "geometry": {"type": "Point", "coordinates": [-5.985444, 37.389615]}}]}