{"type":"FeatureCollection","features":[{"type":"Feature","properties":{"id_hdad":21,"nombre":"La Candelaria","dia":"martes-santo"},"geometry":{"type":"LineString","coordinates":[[-5.9899874,37.3895921],[-5.9901589083914715,37.38984005540638],[-5.9902384,37.3900587],[-5.9903449,37.390137],[-5.9909996,37.3904435],[-5.9911599,37.3904028],[-5.991668,37.3903676],[-5.99276171628195,37.38971492214055],[-5.993087,37.389679],[-5.993132428703218,37.39005314738425],[-5.993169,37.390185],[-5.993243,37.390261],[-5.993364,37.390816],[-5.993467,37.391235],[-5.9935458,37.3917711],[-5.9936749,37.3930478],[-5.9936844,37.3934442],[-5.9936844,37.3934442],[-5.993838,37.393693],[-5.9940973,37.3936496],[-5.9942892,37.3936065],[-5.994575,37.393545],[-5.9947522,37.3935137],[-5.99499,37.3936695],[-5.995283,37.393895],[-5.99537,37.393742],[-5.995446,37.393623],[-5.995615,37.39345],[-5.995633,37.393113],[-5.995631,37.392901],[-5.9956336,37.3927225],[-5.995376,37.392725],[-5.995376,37.392725],[-5.994924,37.392751],[-5.994797,37.391803],[-5.9945202,37.3909414],[-5.9945202,37.3909414],[-5.994258,37.389845],[-5.994175,37.389143],[-5.994154,37.38867],[-5.994169,37.388187],[-5.994296,37.388071],[-5.9943041,37.3879286],[-5.9942267,37.38731],[-5.994185,37.386838],[-5.9940344,37.3857616],[-5.993999,37.385447],[-5.9934331,37.3854932],[-5.9929686,37.3855304],[-5.992619,37.385552],[-5.9926646,37.3858225],[-5.99271,37.386038],[-5.992325,37.386077],[-5.9922162,37.3855949],[-5.9921519,37.3853995],[-5.9920345,37.385324],[-5.9919283,37.3852485],[-5.9918473,37.3851486],[-5.9918473,37.3850842],[-5.9921519,37.3849399],[-5.9924191,37.384767],[-5.9923917,37.3845631],[-5.9922662,37.3843614],[-5.9925309,37.3841793],[-5.9926543,37.3840931],[-5.992504,37.3837765],[-5.992534,37.3836746],[-5.992725,37.3835554],[-5.9927687,37.3834448],[-5.9929542,37.3830633],[-5.9931343,37.3827254],[-5.9932445,37.3823466],[-5.9929076,37.3823011],[-5.9918995,37.3820298],[-5.9893917,37.3814097],[-5.9888042,37.3824466],[-5.9882289,37.38344],[-5.9875125,37.3847282],[-5.9868322,37.3859098],[-5.9872648,37.3863201],[-5.9877116,37.3866645],[-5.9872648,37.3863201],[-5.9877116,37.3866645],[-5.9881776,37.3870928],[-5.9889261,37.3880054],[-5.9891188,37.3883243],[-5.9892332,37.3884653]]}},{"type":"Feature","properties":{"id_hdad":21,"hermandad":"La Candelaria","calle":"Plaza Nuestro Padre Jesús de la Salud"},"geometry":{"type":"Point","coordinates":[-5.9892314,37.3885302]}},{"type":"Feature","properties":{"id_hdad":21,"hermandad":"La Candelaria","calle":"Calle Cabeza del Rey Don Pedro"},"geometry":{"type":"Point","coordinates":[-5.9899874,37.3895921]}},{"type":"Feature","properties":{"id_hdad":21,"hermandad":"La Candelaria","calle":"Calle Candilejo"},"geometry":{"type":"Point","coordinates":[-5.9902384,37.3900587]}},{"type":"Feature","properties":{"id_hdad":21,"hermandad":"La Candelaria","calle":"Plaza de La Alfalfa"},"geometry":{"type":"Point","coordinates":[-5.9908495,37.390392]}},{"type":"Feature","properties":{"id_hdad":21,"hermandad":"La Candelaria","calle":"Calle Alcaicería de la Loza"},"geometry":{"type":"Point","coordinates":[-5.991668,37.3903676]}},{"type":"Feature","properties":{"id_hdad":21,"hermandad":"La Candelaria","calle":"Calle Villegas"},"geometry":{"type":"Point","coordinates":[-5.99276171628195,37.38971492214055]}},{"type":"Feature","properties":{"id_hdad":21,"hermandad":"La Candelaria","calle":"Plaza del Salvador"},"geometry":{"type":"Point","coordinates":[-5.993169,37.390185]}},{"type":"Feature","properties":{"id_hdad":21,"hermandad":"La Candelaria","calle":"Calle Cuna"},"geometry":{"type":"Point","coordinates":[-5.9935458,37.3917711]}},{"type":"Feature","properties":{"id_hdad":21,"hermandad":"La Candelaria","calle":"Calle Orfila"},"geometry":{"type":"Point","coordinates":[-5.993838,37.393693]}},{"type":"Feature","properties":{"id_hdad":21,"hermandad":"La Candelaria","calle":"Calle Javier Lasso de la Vega"},"geometry":{"type":"Point","coordinates":[-5.994575,37.393545]}},{"type":"Feature","properties":{"id_hdad":21,"hermandad":"La Candelaria","calle":"Calle Trajano"},"geometry":{"type":"Point","coordinates":[-5.995283,37.393895]}},{"type":"Feature","properties":{"id_hdad":21,"hermandad":"La Candelaria","calle":"Plaza del Duque de la Victoria"},"geometry":{"type":"Point","coordinates":[-5.995633,37.393113]}},{"type":"Feature","properties":{"id_hdad":21,"hermandad":"La Candelaria","calle":"La Campana"},"geometry":{"type":"Point","coordinates":[-5.995376,37.392725]}},{"type":"Feature","properties":{"id_hdad":21,"hermandad":"La Candelaria","calle":"Calle Sierpes"},"geometry":{"type":"Point","coordinates":[-5.994258,37.389845]}},{"type":"Feature","properties":{"id_hdad":21,"hermandad":"La Candelaria","calle":"Plaza de San Francisco"},"geometry":{"type":"Point","coordinates":[-5.994169,37.388187]}},{"type":"Feature","properties":{"id_hdad":21,"hermandad":"La Candelaria","calle":"Avenida de la Constitución"},"geometry":{"type":"Point","coordinates":[-5.994185,37.386838]}},{"type":"Feature","properties":{"id_hdad":21,"hermandad":"La Candelaria","calle":"Plaza del Triunfo"},"geometry":{"type":"Point","coordinates":[-5.992619,37.385552]}},{"type":"Feature","properties":{"id_hdad":21,"hermandad":"La Candelaria","calle":"Calle Miguel Mañara"},"geometry":{"type":"Point","coordinates":[-5.9920345,37.385324]}},{"type":"Feature","properties":{"id_hdad":21,"hermandad":"La Candelaria","calle":"Plaza de La Contratación"},"geometry":{"type":"Point","coordinates":[-5.9924191,37.384767]}},{"type":"Feature","properties":{"id_hdad":21,"hermandad":"La Candelaria","calle":"Calle San Gregorio"},"geometry":{"type":"Point","coordinates":[-5.992534,37.3836746]}},{"type":"Feature","properties":{"id_hdad":21,"hermandad":"La Candelaria","calle":"Plaza Puerta de Jerez"},"geometry":{"type":"Point","coordinates":[-5.9932445,37.3823466]}},{"type":"Feature","properties":{"id_hdad":21,"hermandad":"La Candelaria","calle":"Calle San Fernando"},"geometry":{"type":"Point","coordinates":[-5.9918995,37.3820298]}},{"type":"Feature","properties":{"id_hdad":21,"hermandad":"La Candelaria","calle":"Calle Santa María la Blanca"},"geometry":{"type":"Point","coordinates":[-5.9872648,37.3863201]}},{"type":"Feature","properties":{"id_hdad":21,"hermandad":"La Candelaria","calle":"Calle San José"},"geometry":{"type":"Point","coordinates":[-5.9889261,37.3880054]}},{"type":"Feature","properties":{"id_hdad":21,"hermandad":"La Candelaria","calle":"Plaza Nuestro Padre Jesús de la Salud"},"geometry":{"type":"Point","coordinates":[-5.9892332,37.3884653]}}]}