{"type":"FeatureCollection","features":[{"type":"Feature","properties":{"id_hdad":25,"nombre":"Los Estudiantes","dia":"martes-santo"},"geometry":{"type":"LineString","coordinates":[[-5.9916357,37.3819448],[-5.9932053,37.3823679],[-5.9940081,37.3837428],[-5.9942981,37.3836496],[-5.994354,37.3840404],[-5.9944638,37.3844962],[-5.9945896,37.3849635],[-5.9946287,37.3851411],[-5.9946902,37.3852055],[-5.9948215,37.3852433],[-5.994849,37.385252],[-5.994996,37.385234],[-5.995366,37.385136],[-5.995319,37.385249],[-5.995336,37.3853863],[-5.995359,37.385525],[-5.995383,37.385608],[-5.995439,37.385668],[-5.9954959,37.3857557],[-5.9956111,37.3858432],[-5.9955058,37.3857639],[-5.9956256,37.3858536],[-5.9958343,37.3859713],[-5.9961928,37.3861699],[-5.9961737,37.3862092],[-5.9960848,37.3862575],[-5.9961067,37.3863118],[-5.9961784,37.3863579],[-5.9965793,37.3866923],[-5.9962965,37.3869465],[-5.9961977,37.3870583],[-5.9961075,37.3871925],[-5.997009,37.3882207],[-5.9968221,37.3894447],[-5.9964821,37.3895595],[-5.9966977,37.3901662],[-5.9969506,37.390732],[-5.9966966,37.391451],[-5.9960522,37.3917939],[-5.9955566,37.3920403],[-5.995454,37.392155],[-5.995386,37.3924668],[-5.9954141,37.3927175],[-5.994924,37.392751],[-5.994797,37.391803],[-5.994542,37.390976],[-5.994258,37.389845],[-5.994175,37.389143],[-5.994151,37.388605],[-5.994169,37.388187],[-5.994296,37.388071],[-5.9943041,37.3879286],[-5.9942267,37.38731],[-5.9941493,37.386713],[-5.9940679,37.3860718],[-5.9940344,37.3857616],[-5.993999,37.385447],[-5.9934331,37.3854932],[-5.9929686,37.3855304],[-5.992619,37.385552],[-5.9926646,37.3858225],[-5.99271,37.386038],[-5.992325,37.386077],[-5.9922097,37.3856128],[-5.9921552,37.3853873],[-5.9920569,37.3853223],[-5.9919205,37.3852486],[-5.9918789,37.3851052],[-5.9920842,37.3849667],[-5.9924191,37.384767],[-5.9923917,37.3845631],[-5.9922662,37.3843614],[-5.9925309,37.3841793],[-5.9926543,37.3840931],[-5.992504,37.3837765],[-5.992534,37.3836746],[-5.992725,37.3835554],[-5.9927687,37.3834448],[-5.9929542,37.3830633],[-5.9931343,37.3827254],[-5.9932445,37.3823466],[-5.9916357,37.3819448]]}},{"type":"Feature","properties":{"id_hdad":25,"hermandad":"Los Estudiantes","calle":"Calle San Fernando"},"geometry":{"type":"Point","coordinates":[-5.9916357,37.3819448]}},{"type":"Feature","properties":{"id_hdad":25,"hermandad":"Los Estudiantes","calle":"Plaza Puerta de Jerez"},"geometry":{"type":"Point","coordinates":[-5.9932053,37.3823679]}},{"type":"Feature","properties":{"id_hdad":25,"hermandad":"Los Estudiantes","calle":"Avenida de la Constitución"},"geometry":{"type":"Point","coordinates":[-5.993515,37.384889]}},{"type":"Feature","properties":{"id_hdad":25,"hermandad":"Los Estudiantes","calle":"Calle Adolfo Rodríguez Jurado"},"geometry":{"type":"Point","coordinates":[-5.9940081,37.3837428]}},{"type":"Feature","properties":{"id_hdad":25,"hermandad":"Los Estudiantes","calle":"Plaza Ministro Indalecio Prieto"},"geometry":{"type":"Point","coordinates":[-5.9944638,37.3844962]}},{"type":"Feature","properties":{"id_hdad":25,"hermandad":"Los Estudiantes","calle":"Calle Tomás de Ibarra"},"geometry":{"type":"Point","coordinates":[-5.9946902,37.3852055]}},{"type":"Feature","properties":{"id_hdad":25,"hermandad":"Los Estudiantes","calle":"Calle Almirantazgo"},"geometry":{"type":"Point","coordinates":[-5.994849,37.385252]}},{"type":"Feature","properties":{"id_hdad":25,"hermandad":"Los Estudiantes","calle":"Calle Arco del Postigo"},"geometry":{"type":"Point","coordinates":[-5.995319,37.385249]}},{"type":"Feature","properties":{"id_hdad":25,"hermandad":"Los Estudiantes","calle":"Calle Dos de Mayo"},"geometry":{"type":"Point","coordinates":[-5.995383,37.385608]}},{"type":"Feature","properties":{"id_hdad":25,"hermandad":"Los Estudiantes","calle":"Calle Arfe"},"geometry":{"type":"Point","coordinates":[-5.9953972,37.3856197]}},{"type":"Feature","properties":{"id_hdad":25,"hermandad":"Los Estudiantes","calle":"Calle Puerta del Arenal"},"geometry":{"type":"Point","coordinates":[-5.9961928,37.3861699]}},{"type":"Feature","properties":{"id_hdad":25,"hermandad":"Los Estudiantes","calle":"Calle Castelar"},"geometry":{"type":"Point","coordinates":[-5.9961784,37.3863579]}},{"type":"Feature","properties":{"id_hdad":25,"hermandad":"Los Estudiantes","calle":"Calle Gamazo"},"geometry":{"type":"Point","coordinates":[-5.9961075,37.3871925]}},{"type":"Feature","properties":{"id_hdad":25,"hermandad":"Los Estudiantes","calle":"Calle Zaragoza"},"geometry":{"type":"Point","coordinates":[-5.997009,37.3882207]}},{"type":"Feature","properties":{"id_hdad":25,"hermandad":"Los Estudiantes","calle":"Calle Carlos Cañal"},"geometry":{"type":"Point","coordinates":[-5.9968221,37.3894447]}},{"type":"Feature","properties":{"id_hdad":25,"hermandad":"Los Estudiantes","calle":"Calle Méndez Núñez"},"geometry":{"type":"Point","coordinates":[-5.9964821,37.3895595]}},{"type":"Feature","properties":{"id_hdad":25,"hermandad":"Los Estudiantes","calle":"Plaza de la Magdalena"},"geometry":{"type":"Point","coordinates":[-5.9970127,37.3912675]}},{"type":"Feature","properties":{"id_hdad":25,"hermandad":"Los Estudiantes","calle":"Calle O'Donnell"},"geometry":{"type":"Point","coordinates":[-5.995454,37.392155]}},{"type":"Feature","properties":{"id_hdad":25,"hermandad":"Los Estudiantes","calle":"Avenida de la Constitución"},"geometry":{"type":"Point","coordinates":[-5.994185,37.386838]}},{"type":"Feature","properties":{"id_hdad":25,"hermandad":"Los Estudiantes","calle":"Plaza de San Francisco"},"geometry":{"type":"Point","coordinates":[-5.994169,37.388187]}},{"type":"Feature","properties":{"id_hdad":25,"hermandad":"Los Estudiantes","calle":"Calle Sierpes"},"geometry":{"type":"Point","coordinates":[-5.9946698,37.3913397]}},{"type":"Feature","properties":{"id_hdad":25,"hermandad":"Los Estudiantes","calle":"La Campana"},"geometry":{"type":"Point","coordinates":[-5.995376,37.392725]}},{"type":"Feature","properties":{"id_hdad":25,"hermandad":"Los Estudiantes","calle":"Plaza del Triunfo"},"geometry":{"type":"Point","coordinates":[-5.9921519,37.3849399]}},{"type":"Feature","properties":{"id_hdad":25,"hermandad":"Los Estudiantes","calle":"Calle Miguel Mañara"},"geometry":{"type":"Point","coordinates":[-5.9922662,37.3843614]}},{"type":"Feature","properties":{"id_hdad":25,"hermandad":"Los Estudiantes","calle":"Plaza de La Contratación"},"geometry":{"type":"Point","coordinates":[-5.992504,37.3837765]}},{"type":"Feature","properties":{"id_hdad":25,"hermandad":"Los Estudiantes","calle":"Calle San Gregorio"},"geometry":{"type":"Point","coordinates":[-5.9927687,37.3834448]}},{"type":"Feature","properties":{"id_hdad":25,"hermandad":"Los Estudiantes","calle":"Plaza Puerta de Jerez"},"geometry":{"type":"Point","coordinates":[-5.9932053,37.3823679]}},{"type":"Feature","properties":{"id_hdad":25,"hermandad":"Los Estudiantes","calle":"Calle San Fernando"},"geometry":{"type":"Point","coordinates":[-5.9916357,37.3819448]}}]}