{"type":"FeatureCollection","features":[{"type":"Feature","properties":{"id_hdad":26,"nombre":"Santa Cruz","dia":"martes-santo"},"geometry":{"type":"LineString","coordinates":[[-5.9902033,37.3862552],[-5.990847,37.3860961],[-5.9907887,37.3859353],[-5.9907607,37.3859147],[-5.9907004,37.3856958],[-5.9908155,37.385505],[-5.9909244,37.385406],[-5.9909726,37.3853801],[-5.9910709,37.3854701],[-5.9911357,37.385469],[-5.9912283,37.3854406],[-5.9913379,37.3853794],[-5.9914201,37.3853353],[-5.991467,37.3852958],[-5.9917345,37.3851446],[-5.9920788,37.384965],[-5.9925691,37.3851709],[-5.9928275,37.3851491],[-5.993126,37.38514],[-5.993709,37.3851],[-5.9938801,37.3851129],[-5.9939956,37.3851733],[-5.994367,37.385114],[-5.9945214,37.3850791],[-5.9946016,37.3850918],[-5.9947139,37.3852071],[-5.9948075,37.3852443],[-5.9949385,37.3852331],[-5.9951972,37.385176],[-5.9953598,37.3851215],[-5.9953224,37.3852665],[-5.9953317,37.385378],[-5.9953972,37.3856197],[-5.9954957,37.3857758],[-5.9961928,37.3861699],[-5.9961737,37.3862092],[-5.9960848,37.3862575],[-5.9961784,37.3863579],[-5.9972329,37.3872018],[-5.9965793,37.3866923],[-5.9962965,37.3869465],[-5.9961977,37.3870583],[-5.9961075,37.3871925],[-5.996004,37.3874004],[-5.9959001,37.3874989],[-5.9956627,37.3876764],[-5.9955776,37.3877204],[-5.9954727,37.3877391],[-5.995501,37.3879628],[-5.9955332,37.3882039],[-5.9948981,37.3882476],[-5.994966,37.3889104],[-5.9949637,37.3890421],[-5.9949711,37.3891511],[-5.9950228,37.3895868],[-5.9950661,37.3898297],[-5.9951205,37.3900547],[-5.9953197,37.3907871],[-5.9953894,37.3910495],[-5.9953968,37.3912662],[-5.9954116,37.3914982],[-5.9954449,37.391797],[-5.9954684,37.3920069],[-5.9954721,37.3920354],[-5.9954771,37.3920835],[-5.995386,37.3924668],[-5.995414,37.392722],[-5.994924,37.392751],[-5.994861,37.3922847],[-5.994797,37.391803],[-5.9946698,37.3913397],[-5.9945265,37.3909721],[-5.9942789,37.389891],[-5.994175,37.389143],[-5.994151,37.388605],[-5.994169,37.388187],[-5.994296,37.388071],[-5.9943041,37.3879286],[-5.9942267,37.38731],[-5.9941493,37.386713],[-5.9940344,37.3857616],[-5.993999,37.385447],[-5.9934331,37.3854932],[-5.9929686,37.3855304],[-5.992619,37.385552],[-5.9926646,37.3858225],[-5.99271,37.386038],[-5.992325,37.386077],[-5.9922162,37.3855949],[-5.9921519,37.3853995],[-5.9920345,37.385324],[-5.9919283,37.3852485],[-5.9918473,37.3851486],[-5.9918473,37.3850842],[-5.9921519,37.3849399],[-5.9914197,37.3853342],[-5.9913366,37.3853857],[-5.9912283,37.3854427],[-5.9911357,37.385469],[-5.9910736,37.3854701],[-5.9909748,37.3853784],[-5.9909188,37.3854092],[-5.9908198,37.3855033],[-5.9906983,37.3856855],[-5.9907564,37.3859079],[-5.9908081,37.3859404],[-5.9908599,37.3861046],[-5.9901947,37.3862535]]}},{"type":"Feature","properties":{"id_hdad":26,"hermandad":"Santa Cruz","calle":"Calle Mateos Gago"},"geometry":{"type":"Point","coordinates":[-5.9902033,37.3862552]}},{"type":"Feature","properties":{"id_hdad":26,"hermandad":"Santa Cruz","calle":"Calle Rodrigo Caro"},"geometry":{"type":"Point","coordinates":[-5.9907004,37.3856958]}},{"type":"Feature","properties":{"id_hdad":26,"hermandad":"Santa Cruz","calle":"Plaza de La Alianza"},"geometry":{"type":"Point","coordinates":[-5.9910709,37.3854701]}},{"type":"Feature","properties":{"id_hdad":26,"hermandad":"Santa Cruz","calle":"Calle Joaquín Romero Murube"},"geometry":{"type":"Point","coordinates":[-5.9913379,37.3853794]}},{"type":"Feature","properties":{"id_hdad":26,"hermandad":"Santa Cruz","calle":"Plaza del Triunfo"},"geometry":{"type":"Point","coordinates":[-5.9923715,37.3851829]}},{"type":"Feature","properties":{"id_hdad":26,"hermandad":"Santa Cruz","calle":"Calle Fray Ceferino González"},"geometry":{"type":"Point","coordinates":[-5.993126,37.38514]}},{"type":"Feature","properties":{"id_hdad":26,"hermandad":"Santa Cruz","calle":"Calle Almirantazgo"},"geometry":{"type":"Point","coordinates":[-5.994367,37.385114]}},{"type":"Feature","properties":{"id_hdad":26,"hermandad":"Santa Cruz","calle":"Calle Arco del Postigo"},"geometry":{"type":"Point","coordinates":[-5.9947139,37.3852071]}},{"type":"Feature","properties":{"id_hdad":26,"hermandad":"Santa Cruz","calle":"Calle Dos de Mayo"},"geometry":{"type":"Point","coordinates":[-5.9951972,37.385176]}},{"type":"Feature","properties":{"id_hdad":26,"hermandad":"Santa Cruz","calle":"Calle Arfe"},"geometry":{"type":"Point","coordinates":[-5.9953317,37.385378]}},{"type":"Feature","properties":{"id_hdad":26,"hermandad":"Santa Cruz","calle":"Calle Puerta del Arenal"},"geometry":{"type":"Point","coordinates":[-5.9961737,37.3862092]}},{"type":"Feature","properties":{"id_hdad":26,"hermandad":"Santa Cruz","calle":"Calle Castelar"},"geometry":{"type":"Point","coordinates":[-5.9972329,37.3872018]}},{"type":"Feature","properties":{"id_hdad":26,"hermandad":"Santa Cruz","calle":"Calle Gamazo"},"geometry":{"type":"Point","coordinates":[-5.9901947,37.3862535]}},{"type":"Feature","properties":{"id_hdad":26,"hermandad":"Santa Cruz","calle":"Calle Joaquín Guichot"},"geometry":{"type":"Point","coordinates":[-5.9901947,37.3862535]}},{"type":"Feature","properties":{"id_hdad":26,"hermandad":"Santa Cruz","calle":"Calle Barcelona"},"geometry":{"type":"Point","coordinates":[-5.9901947,37.3862535]}},{"type":"Feature","properties":{"id_hdad":26,"hermandad":"Santa Cruz","calle":"Plaza Nueva"},"geometry":{"type":"Point","coordinates":[-5.9901947,37.3862535]}},{"type":"Feature","properties":{"id_hdad":26,"hermandad":"Santa Cruz","calle":"Calle Tetuán"},"geometry":{"type":"Point","coordinates":[-5.9896522,37.3868334]}},{"type":"Feature","properties":{"id_hdad":26,"hermandad":"Santa Cruz","calle":"Calle Velázquez"},"geometry":{"type":"Point","coordinates":[-5.9896522,37.3868334]}},{"type":"Feature","properties":{"id_hdad":26,"hermandad":"Santa Cruz","calle":"Calle O'Donnell"},"geometry":{"type":"Point","coordinates":[-5.9896522,37.3868334]}},{"type":"Feature","properties":{"id_hdad":26,"hermandad":"Santa Cruz","calle":"Avenida de la Constitución"},"geometry":{"type":"Point","coordinates":[-5.994185,37.386838]}},{"type":"Feature","properties":{"id_hdad":26,"hermandad":"Santa Cruz","calle":"Plaza de San Francisco"},"geometry":{"type":"Point","coordinates":[-5.994169,37.388187]}},{"type":"Feature","properties":{"id_hdad":26,"hermandad":"Santa Cruz","calle":"Calle Sierpes"},"geometry":{"type":"Point","coordinates":[-5.9946698,37.3913397]}},{"type":"Feature","properties":{"id_hdad":26,"hermandad":"Santa Cruz","calle":"La Campana"},"geometry":{"type":"Point","coordinates":[-5.995376,37.392725]}},{"type":"Feature","properties":{"id_hdad":26,"hermandad":"Santa Cruz","calle":"Plaza del Triunfo"},"geometry":{"type":"Point","coordinates":[-5.9920788,37.384965]}},{"type":"Feature","properties":{"id_hdad":26,"hermandad":"Santa Cruz","calle":"Calle Joaquín Romero Murube"},"geometry":{"type":"Point","coordinates":[-5.9913379,37.3853794]}},{"type":"Feature","properties":{"id_hdad":26,"hermandad":"Santa Cruz","calle":"Plaza de La Alianza"},"geometry":{"type":"Point","coordinates":[-5.9909726,37.3853801]}},{"type":"Feature","properties":{"id_hdad":26,"hermandad":"Santa Cruz","calle":"Calle Rodrigo Caro"},"geometry":{"type":"Point","coordinates":[-5.9907004,37.3856958]}},{"type":"Feature","properties":{"id_hdad":26,"hermandad":"Santa Cruz","calle":"Calle Mateos Gago"},"geometry":{"type":"Point","coordinates":[-5.9902033,37.3862552]}}]}