{"type": "FeatureCollection", "features": [{"type": "Feature", "properties": {"id_hdad": 27, "nombre": "El Carmen Doloroso", "dia": "miercoles-santo"}, "geometry": {"type": "LineString", "coordinates": [[-5.9915253, 37.3991539], [-5.9917159, 37.3991429], [-5.9919847, 37.3991849], [-5.9928702, 37.3997174], [-5.9928445, 37.399505], [-5.9932948, 37.3995205], [-5.9933506, 37.3993708], [-5.9935526, 37.3993161], [-5.9938717, 37.3992614], [-5.9939022, 37.3990689], [-5.9940196, 37.3984849], [-5.9941367, 37.3977675], [-5.994254, 37.3969727], [-5.9943022, 37.3968578], [-5.994374, 37.39685], [-5.994618, 37.396413], [-5.994787, 37.396096], [-5.994908, 37.395763], [-5.995151, 37.394856], [-5.995272, 37.39437], [-5.995298, 37.393904], [-5.995446, 37.393623], [-5.995615, 37.39345], [-5.995644, 37.393115], [-5.995643, 37.39272], [-5.994924, 37.392751], [-5.994797, 37.391803], [-5.994542, 37.390976], [-5.994258, 37.389845], [-5.994175, 37.389143], [-5.994151, 37.388605], [-5.994169, 37.388187], [-5.994296, 37.388071], [-5.9943041, 37.3879286], [-5.9942267, 37.38731], [-5.9941493, 37.386713], [-5.9940679, 37.3860718], [-5.9940344, 37.3857616], [-5.993999, 37.385447], [-5.9934331, 37.3854932], [-5.9929686, 37.3855304], [-5.992619, 37.385552], [-5.9926646, 37.3858225], [-5.99271, 37.386038], [-5.992325, 37.386077], [-5.992343, 37.386298], [-5.992461, 37.386331], [-5.992523, 37.386502], [-5.992515, 37.38666], [-5.992549, 37.386763], [-5.992807, 37.386777], [-5.993037, 37.386751], [-5.993054, 37.386917], [-5.9930245, 37.3870101], [-5.9929267, 37.3871073], [-5.992697, 37.387288], [-5.992489, 37.387452], [-5.992594, 37.387654], [-5.992704, 37.387858], [-5.99277, 37.38804], [-5.99271, 37.388333], [-5.992748, 37.388584], [-5.992999, 37.388611], [-5.993264, 37.388615], [-5.993288, 37.389051], [-5.99338, 37.389346], [-5.993302, 37.389446], [-5.993273, 37.38953], [-5.993197, 37.389673], [-5.993105, 37.389698], [-5.993128, 37.389988], [-5.993132428703218, 37.39005314738425], [-5.9931651, 37.3903052], [-5.9930221, 37.39038], [-5.992807, 37.3904023], [-5.9923968, 37.3904472], [-5.9924009, 37.3907208], [-5.992367, 37.3910258], [-5.9922233, 37.3910978], [-5.9921268, 37.3914017], [-5.9920684, 37.3917519], [-5.9919654, 37.3922774], [-5.9921971, 37.3922896], [-5.9922369, 37.3923469], [-5.9922497, 37.3927905], [-5.9922438, 37.392932], [-5.9921986, 37.3933811], [-5.9923226, 37.3935095], [-5.9923343, 37.3936927], [-5.9919122, 37.3937946], [-5.9916016, 37.3938504], [-5.9914352, 37.393869], [-5.9913447, 37.3937947], [-5.991362, 37.393635], [-5.990883, 37.393616], [-5.990453, 37.393595], [-5.990418, 37.393942], [-5.990366, 37.394231], [-5.990316, 37.394559], [-5.99027, 37.394863], [-5.991097, 37.39524], [-5.9914486, 37.3953795], [-5.9913522, 37.3956517], [-5.9911887, 37.3959972], [-5.9912296, 37.3962732], [-5.9911799, 37.3967525], [-5.9911887, 37.3969797], [-5.9913055, 37.3972395], [-5.99155, 37.3977571], [-5.9916113, 37.3980284], [-5.9917105, 37.3980145], [-5.9919739, 37.3987483], [-5.9920061, 37.3991889], [-5.9917141, 37.3991417], [-5.9915326, 37.3991448]]}}, {"type": "Feature", "properties": {"id_hdad": 27, "hermandad": "El Carmen Doloroso", "calle": "Calle Feria", "osm": "Calle Feria"}, "geometry": {"type": "Point", "coordinates": [-5.99132, 37.395688]}}, {"type": "Feature", "properties": {"id_hdad": 27, "hermandad": "El Carmen Doloroso", "calle": "Calle Peris Mencheta", "osm": "Calle Peris Mencheta"}, "geometry": {"type": "Point", "coordinates": [-5.9919149, 37.3991399]}}, {"type": "Feature", "properties": {"id_hdad": 27, "hermandad": "El Carmen Doloroso", "calle": "Calle Mata", "osm": "Calle Mata"}, "geometry": {"type": "Point", "coordinates": [-5.9928623, 37.3996107]}}, {"type": "Feature", "properties": {"id_hdad": 27, "hermandad": "El Carmen Doloroso", "calle": "Calle Belén", "osm": "Calle Belén"}, "geometry": {"type": "Point", "coordinates": [-5.993087, 37.3994864]}}, {"type": "Feature", "properties": {"id_hdad": 27, "hermandad": "El Carmen Doloroso", "calle": "Alameda de Hércules", "osm": "Alameda de Hércules"}, "geometry": {"type": "Point", "coordinates": [-5.9942976, 37.396856]}}, {"type": "Feature", "properties": {"id_hdad": 27, "hermandad": "El Carmen Doloroso", "calle": "Calle Trajano", "osm": "Calle Trajano"}, "geometry": {"type": "Point", "coordinates": [-5.995298, 37.393904]}}, {"type": "Feature", "properties": {"id_hdad": 27, "hermandad": "El Carmen Doloroso", "calle": "Plaza del Duque de la Victoria (lado derecho)", "osm": "Plaza del Duque de la Victoria (lado derecho)"}, "geometry": {"type": "Point", "coordinates": [-5.995633, 37.393113]}}, {"type": "Feature", "properties": {"id_hdad": 27, "hermandad": "El Carmen Doloroso", "calle": "La Campana", "osm": "La Campana"}, "geometry": {"type": "Point", "coordinates": [-5.995376, 37.392725]}}, {"type": "Feature", "properties": {"id_hdad": 27, "hermandad": "El Carmen Doloroso", "calle": "Calle Sierpes", "osm": "Calle Sierpes"}, "geometry": {"type": "Point", "coordinates": [-5.9947885, 37.3908748]}}, {"type": "Feature", "properties": {"id_hdad": 27, "hermandad": "El Carmen Doloroso", "calle": "Plaza de San Francisco", "osm": "Plaza de San Francisco"}, "geometry": {"type": "Point", "coordinates": [-5.994154, 37.38867]}}, {"type": "Feature", "properties": {"id_hdad": 27, "hermandad": "El Carmen Doloroso", "calle": "Avenida de la Constitución", "osm": "Avenida de la Constitución"}, "geometry": {"type": "Point", "coordinates": [-5.994185, 37.386838]}}, {"type": "Feature", "properties": {"id_hdad": 27, "hermandad": "El Carmen Doloroso", "calle": "Calle Cardenal Carlos Amigo", "osm": "Calle Cardenal Carlos Amigo"}, "geometry": {"type": "Point", "coordinates": [-5.992537, 37.386555]}}, {"type": "Feature", "properties": {"id_hdad": 27, "hermandad": "El Carmen Doloroso", "calle": "Calle Alemanes", "osm": "Calle Alemanes"}, "geometry": {"type": "Point", "coordinates": [-5.992807, 37.386777]}}, {"type": "Feature", "properties": {"id_hdad": 27, "hermandad": "El Carmen Doloroso", "calle": "Calle Álvarez Quintero", "osm": "Calle Álvarez Quintero"}, "geometry": {"type": "Point", "coordinates": [-5.993054, 37.386917]}}, {"type": "Feature", "properties": {"id_hdad": 27, "hermandad": "El Carmen Doloroso", "calle": "Calle Argote de Molina", "osm": "Calle Argote de Molina"}, "geometry": {"type": "Point", "coordinates": [-5.992697, 37.387288]}}, {"type": "Feature", "properties": {"id_hdad": 27, "hermandad": "El Carmen Doloroso", "calle": "Calle Placentines", "osm": "Calle Placentines"}, "geometry": {"type": "Point", "coordinates": [-5.992594, 37.387654]}}, {"type": "Feature", "properties": {"id_hdad": 27, "hermandad": "El Carmen Doloroso", "calle": "Calle Francos", "osm": "Calle Francos"}, "geometry": {"type": "Point", "coordinates": [-5.99271, 37.388333]}}, {"type": "Feature", "properties": {"id_hdad": 27, "hermandad": "El Carmen Doloroso", "calle": "Calle Chapineros", "osm": "Calle Chapineros"}, "geometry": {"type": "Point", "coordinates": [-5.992999, 37.388611]}}, {"type": "Feature", "properties": {"id_hdad": 27, "hermandad": "El Carmen Doloroso", "calle": "Calle Álvarez Quintero", "osm": "Calle Álvarez Quintero"}, "geometry": {"type": "Point", "coordinates": [-5.993273, 37.38953]}}, {"type": "Feature", "properties": {"id_hdad": 27, "hermandad": "El Carmen Doloroso", "calle": "Plaza del Salvador", "osm": "Plaza del Salvador"}, "geometry": {"type": "Point", "coordinates": [-5.992931, 37.390014]}}, {"type": "Feature", "properties": {"id_hdad": 27, "hermandad": "El Carmen Doloroso", "calle": "Calle Córdoba", "osm": "Calle Córdoba"}, "geometry": {"type": "Point", "coordinates": [-5.9928293, 37.3903725]}}, {"type": "Feature", "properties": {"id_hdad": 27, "hermandad": "El Carmen Doloroso", "calle": "Calle Lineros", "osm": "Calle Lineros"}, "geometry": {"type": "Point", "coordinates": [-5.9923836, 37.3907074]}}, {"type": "Feature", "properties": {"id_hdad": 27, "hermandad": "El Carmen Doloroso", "calle": "Calle Puente y Pellón", "osm": "Calle Puente y Pellón"}, "geometry": {"type": "Point", "coordinates": [-5.9921736, 37.391625]}}, {"type": "Feature", "properties": {"id_hdad": 27, "hermandad": "El Carmen Doloroso", "calle": "Plaza de la Encarnación", "osm": "Plaza de la Encarnación"}, "geometry": {"type": "Point", "coordinates": [-5.991857, 37.392743]}}, {"type": "Feature", "properties": {"id_hdad": 27, "hermandad": "El Carmen Doloroso", "calle": "Calle Alcázares", "osm": "Calle Alcázares"}, "geometry": {"type": "Point", "coordinates": [-5.990883, 37.393616]}}, {"type": "Feature", "properties": {"id_hdad": 27, "hermandad": "El Carmen Doloroso", "calle": "Calle Santa Ángela de la Cruz", "osm": "Calle Santa Ángela de la Cruz"}, "geometry": {"type": "Point", "coordinates": [-5.990366, 37.394231]}}, {"type": "Feature", "properties": {"id_hdad": 27, "hermandad": "El Carmen Doloroso", "calle": "Calle San Juan de la Palma", "osm": "Calle San Juan de la Palma"}, "geometry": {"type": "Point", "coordinates": [-5.991095, 37.39524]}}, {"type": "Feature", "properties": {"id_hdad": 27, "hermandad": "El Carmen Doloroso", "calle": "Calle Feria", "osm": "Calle Feria"}, "geometry": {"type": "Point", "coordinates": [-5.9913, 37.3957]}}, {"type": "Feature", "properties": {"id_hdad": 27, "hermandad": "El Carmen Doloroso", "calle": "Calle Guadiana", "osm": "Calle Guadiana"}, "geometry": {"type": "Point", "coordinates": [-5.9918742, 37.3985951]}}, {"type": "Feature", "properties": {"id_hdad": 27, "hermandad": "El Carmen Doloroso", "calle": "Calle Peris Mencheta", "osm": "Calle Peris Mencheta"}, "geometry": {"type": "Point", "coordinates": [-5.9919067, 37.3991399]}}, {"type": "Feature", "properties": {"id_hdad": 27, "hermandad": "El Carmen Doloroso", "calle": "Calle Feria", "osm": "Calle Feria"}, "geometry": {"type": "Point", "coordinates": [-5.9915911, 37.3985737]}}]}