{"type":"FeatureCollection","features":[{"type":"Feature","properties":{"id_hdad":29,"nombre":"La Sed","dia":"miercoles-santo"},"geometry":{"type":"LineString","coordinates":[[-5.970134099304253,37.38225916933025],[-5.9719649,37.3826126],[-5.9730413,37.3828289],[-5.9730765,37.3829231],[-5.973179,37.3829766],[-5.973336,37.3829766],[-5.9734289,37.3829078],[-5.9737845,37.3829613],[-5.9775708,37.3836606],[-5.9800172,37.3841616],[-5.9815446,37.3843468],[-5.9813869,37.3856549],[-5.9810886,37.3877783],[-5.9818576,37.3878694],[-5.98221,37.388102],[-5.983147,37.388664],[-5.984131,37.389047],[-5.984472,37.389187],[-5.984705,37.389268],[-5.984774,37.389354],[-5.984857,37.389636],[-5.985563,37.390327],[-5.985582,37.390469],[-5.985512,37.390555],[-5.985467,37.390696],[-5.986751,37.391775],[-5.98747,37.392401],[-5.987862,37.392952],[-5.988267,37.392909],[-5.988666,37.39284],[-5.989031,37.392704],[-5.989692,37.392505],[-5.990142,37.392465],[-5.99088,37.39261],[-5.991499,37.3927],[-5.9922302,37.392777],[-5.992981,37.392804],[-5.9933169,37.3928037],[-5.9936593,37.3928157],[-5.9936853,37.3929311],[-5.993689,37.393287],[-5.9936844,37.3934442],[-5.993838,37.393693],[-5.9940973,37.3936496],[-5.9942892,37.3936065],[-5.994575,37.393545],[-5.9947522,37.3935137],[-5.99499,37.3936695],[-5.995283,37.393895],[-5.99537,37.393742],[-5.995446,37.393623],[-5.995615,37.39345],[-5.995633,37.393113],[-5.995631,37.392901],[-5.9956364,37.3927183],[-5.995376,37.392725],[-5.995376,37.392725],[-5.994924,37.392751],[-5.994861,37.3922847],[-5.994797,37.391803],[-5.9946698,37.3913397],[-5.9945161,37.3909308],[-5.9945161,37.3909308],[-5.9943917,37.3904014],[-5.994175,37.389143],[-5.994154,37.38867],[-5.994169,37.388187],[-5.994296,37.388071],[-5.9943041,37.3879286],[-5.9942267,37.38731],[-5.9941493,37.386713],[-5.9940679,37.3860718],[-5.9940344,37.3857616],[-5.993999,37.385447],[-5.9934331,37.3854932],[-5.9929686,37.3855304],[-5.992619,37.385552],[-5.9926646,37.3858225],[-5.99271,37.386038],[-5.992325,37.386077],[-5.992365,37.386288],[-5.9924527,37.3863161],[-5.9925164,37.3863997],[-5.992537,37.386555],[-5.992515,37.38666],[-5.992549,37.386763],[-5.992807,37.386777],[-5.993037,37.386751],[-5.993054,37.386917],[-5.9930245,37.3870101],[-5.9929267,37.3871073],[-5.992697,37.387288],[-5.992489,37.387452],[-5.992594,37.387654],[-5.992704,37.387858],[-5.99277,37.38804],[-5.992784,37.388285],[-5.992744,37.388583],[-5.992621,37.388828],[-5.992568,37.389176],[-5.992542,37.389426],[-5.992353,37.389737],[-5.991765,37.389785],[-5.991357,37.389798],[-5.991092,37.38979],[-5.990856,37.389772],[-5.990668,37.389983],[-5.990468,37.390211],[-5.990236,37.39008],[-5.989978,37.390008],[-5.989687,37.389964],[-5.989119,37.389864],[-5.988967,37.389833],[-5.988735,37.389857],[-5.988358,37.389922],[-5.987752,37.389879],[-5.987033,37.389815],[-5.98665,37.389741],[-5.98593,37.389743],[-5.985625,37.389691],[-5.985335,37.389578],[-5.984798,37.389296],[-5.984131,37.389049],[-5.983147,37.388662],[-5.98221,37.388102],[-5.9687785,37.3860021],[-5.9688589,37.3853171],[-5.9689634,37.38463]]}},{"type":"Feature","properties":{"id_hdad":29,"hermandad":"La Sed","calle":"Calle Cristo de la Sed"},"geometry":{"type":"Point","coordinates":[-5.9673295,37.3831148]}},{"type":"Feature","properties":{"id_hdad":29,"hermandad":"La Sed","calle":"Avenida de Eduardo Dato"},"geometry":{"type":"Point","coordinates":[-5.970134099304253,37.38225916933025]}},{"type":"Feature","properties":{"id_hdad":29,"hermandad":"La Sed","calle":"Avenida de Eduardo Dato"},"geometry":{"type":"Point","coordinates":[-5.9800172,37.3841616]}},{"type":"Feature","properties":{"id_hdad":29,"hermandad":"La Sed","calle":"Calle Jiménez Aranda"},"geometry":{"type":"Point","coordinates":[-5.9813869,37.3856549]}},{"type":"Feature","properties":{"id_hdad":29,"hermandad":"La Sed","calle":"Calle Luis Montoto"},"geometry":{"type":"Point","coordinates":[-5.98221,37.388102]}},{"type":"Feature","properties":{"id_hdad":29,"hermandad":"La Sed","calle":"Calle Puerta de Carmona"},"geometry":{"type":"Point","coordinates":[-5.984472,37.389187]}},{"type":"Feature","properties":{"id_hdad":29,"hermandad":"La Sed","calle":"Calle Muro de los Navarros"},"geometry":{"type":"Point","coordinates":[-5.984774,37.389354]}},{"type":"Feature","properties":{"id_hdad":29,"hermandad":"La Sed","calle":"Calle Santiago"},"geometry":{"type":"Point","coordinates":[-5.985582,37.390469]}},{"type":"Feature","properties":{"id_hdad":29,"hermandad":"La Sed","calle":"Calle Juan de Mesa"},"geometry":{"type":"Point","coordinates":[-5.986751,37.391775]}},{"type":"Feature","properties":{"id_hdad":29,"hermandad":"La Sed","calle":"Calle Almirante Apodaca"},"geometry":{"type":"Point","coordinates":[-5.988267,37.392909]}},{"type":"Feature","properties":{"id_hdad":29,"hermandad":"La Sed","calle":"Plaza de San Pedro"},"geometry":{"type":"Point","coordinates":[-5.989031,37.392704]}},{"type":"Feature","properties":{"id_hdad":29,"hermandad":"La Sed","calle":"Calle Imagen"},"geometry":{"type":"Point","coordinates":[-5.99088,37.39261]}},{"type":"Feature","properties":{"id_hdad":29,"hermandad":"La Sed","calle":"Plaza de la Encarnación"},"geometry":{"type":"Point","coordinates":[-5.992981,37.392804]}},{"type":"Feature","properties":{"id_hdad":29,"hermandad":"La Sed","calle":"Calle Laraña"},"geometry":{"type":"Point","coordinates":[-5.9936853,37.3929311]}},{"type":"Feature","properties":{"id_hdad":29,"hermandad":"La Sed","calle":"Calle Orfila"},"geometry":{"type":"Point","coordinates":[-5.993838,37.393693]}},{"type":"Feature","properties":{"id_hdad":29,"hermandad":"La Sed","calle":"Calle Javier Lasso de la Vega"},"geometry":{"type":"Point","coordinates":[-5.9947522,37.3935137]}},{"type":"Feature","properties":{"id_hdad":29,"hermandad":"La Sed","calle":"Calle Trajano"},"geometry":{"type":"Point","coordinates":[-5.99537,37.393742]}},{"type":"Feature","properties":{"id_hdad":29,"hermandad":"La Sed","calle":"Plaza del Duque de la Victoria"},"geometry":{"type":"Point","coordinates":[-5.995633,37.393113]}},{"type":"Feature","properties":{"id_hdad":29,"hermandad":"La Sed","calle":"La Campana"},"geometry":{"type":"Point","coordinates":[-5.995376,37.392725]}},{"type":"Feature","properties":{"id_hdad":29,"hermandad":"La Sed","calle":"Calle Sierpes"},"geometry":{"type":"Point","coordinates":[-5.9945161,37.3909308]}},{"type":"Feature","properties":{"id_hdad":29,"hermandad":"La Sed","calle":"Plaza de San Francisco"},"geometry":{"type":"Point","coordinates":[-5.994154,37.38867]}},{"type":"Feature","properties":{"id_hdad":29,"hermandad":"La Sed","calle":"Avenida de la Constitución"},"geometry":{"type":"Point","coordinates":[-5.9941493,37.386713]}},{"type":"Feature","properties":{"id_hdad":29,"hermandad":"La Sed","calle":"Calle Cardenal Carlos Amigo"},"geometry":{"type":"Point","coordinates":[-5.9929686,37.3855304]}},{"type":"Feature","properties":{"id_hdad":29,"hermandad":"La Sed","calle":"Calle Alemanes"},"geometry":{"type":"Point","coordinates":[-5.992365,37.386288]}},{"type":"Feature","properties":{"id_hdad":29,"hermandad":"La Sed","calle":"Calle Álvarez Quintero"},"geometry":{"type":"Point","coordinates":[-5.992807,37.386777]}},{"type":"Feature","properties":{"id_hdad":29,"hermandad":"La Sed","calle":"Calle Argote de Molina"},"geometry":{"type":"Point","coordinates":[-5.992697,37.387288]}},{"type":"Feature","properties":{"id_hdad":29,"hermandad":"La Sed","calle":"Calle Placentines"},"geometry":{"type":"Point","coordinates":[-5.99277,37.38804]}},{"type":"Feature","properties":{"id_hdad":29,"hermandad":"La Sed","calle":"Calle Francos"},"geometry":{"type":"Point","coordinates":[-5.992621,37.388828]}},{"type":"Feature","properties":{"id_hdad":29,"hermandad":"La Sed","calle":"Cuesta del Rosario"},"geometry":{"type":"Point","coordinates":[-5.991765,37.389785]}},{"type":"Feature","properties":{"id_hdad":29,"hermandad":"La Sed","calle":"Calle Jesús de las Tres Caídas"},"geometry":{"type":"Point","coordinates":[-5.990856,37.389772]}},{"type":"Feature","properties":{"id_hdad":29,"hermandad":"La Sed","calle":"Plaza de La Alfalfa"},"geometry":{"type":"Point","coordinates":[-5.989978,37.390008]}},{"type":"Feature","properties":{"id_hdad":29,"hermandad":"La Sed","calle":"Calle Águilas"},"geometry":{"type":"Point","coordinates":[-5.988967,37.389833]}},{"type":"Feature","properties":{"id_hdad":29,"hermandad":"La Sed","calle":"Plaza de Pilatos"},"geometry":{"type":"Point","coordinates":[-5.987033,37.389815]}},{"type":"Feature","properties":{"id_hdad":29,"hermandad":"La Sed","calle":"Calle San Esteban"},"geometry":{"type":"Point","coordinates":[-5.985625,37.389691]}},{"type":"Feature","properties":{"id_hdad":29,"hermandad":"La Sed","calle":"Calle Puerta de Carmona"},"geometry":{"type":"Point","coordinates":[-5.984131,37.389049]}},{"type":"Feature","properties":{"id_hdad":29,"hermandad":"La Sed","calle":"Calle Luis Montoto"},"geometry":{"type":"Point","coordinates":[-5.9818509,37.3878855]}},{"type":"Feature","properties":{"id_hdad":29,"hermandad":"La Sed","calle":"Calle Rico Cejudo"},"geometry":{"type":"Point","coordinates":[-5.9692264,37.3860472]}},{"type":"Feature","properties":{"id_hdad":29,"hermandad":"La Sed","calle":"Calle Goya"},"geometry":{"type":"Point","coordinates":[-5.9689634,37.38463]}},{"type":"Feature","properties":{"id_hdad":29,"hermandad":"La Sed","calle":"Calle Cristo de la Sed"},"geometry":{"type":"Point","coordinates":[-5.9673295,37.3831148]}}]}