{"type": "FeatureCollection", "features": [{"type": "Feature", "properties": {"id_hdad": 33, "nombre": "Los Panaderos", "dia": "miercoles-santo"}, "geometry": {"type": "LineString", "coordinates": [[-5.9936883, 37.3934217], [-5.9937133, 37.3935036], [-5.995978500352905, 37.3940198419956], [-5.9959864, 37.3938914], [-5.9959496, 37.3937209], [-5.9959193, 37.3936073], [-5.9959583, 37.3934438], [-5.996046, 37.393115], [-5.9961387, 37.3927242], [-5.9962255, 37.3927074], [-5.996404, 37.3927336], [-5.9962468, 37.3927121], [-5.996094, 37.3927308], [-5.9956336, 37.3927225], [-5.995376, 37.392725], [-5.994924, 37.392751], [-5.994861, 37.3922847], [-5.994797, 37.391803], [-5.9946698, 37.3913397], [-5.994503, 37.3908739], [-5.994258, 37.389845], [-5.994175, 37.389143], [-5.994154, 37.38867], [-5.994169, 37.388187], [-5.994296, 37.388071], [-5.9943041, 37.3879286], [-5.9942267, 37.38731], [-5.994185, 37.386838], [-5.9940679, 37.3860718], [-5.9940344, 37.3857616], [-5.993999, 37.385447], [-5.9934331, 37.3854932], [-5.9929686, 37.3855304], [-5.992619, 37.385552], [-5.9926646, 37.3858225], [-5.99271, 37.386038], [-5.992325, 37.386077], [-5.992365, 37.386288], [-5.9924408, 37.3863144], [-5.9924973, 37.3863647], [-5.992537, 37.386555], [-5.992515, 37.38666], [-5.992549, 37.386763], [-5.992807, 37.386777], [-5.993037, 37.386751], [-5.993054, 37.386917], [-5.9930245, 37.3870101], [-5.9929267, 37.3871073], [-5.992697, 37.387288], [-5.992489, 37.387452], [-5.992594, 37.387654], [-5.992704, 37.387858], [-5.99277, 37.38804], [-5.99271, 37.388333], [-5.992748, 37.388584], [-5.992999, 37.388611], [-5.993264, 37.388615], [-5.993288, 37.389051], [-5.99338, 37.389346], [-5.993302, 37.389446], [-5.993273, 37.38953], [-5.993197, 37.389673], [-5.993105, 37.389698], [-5.993128, 37.389988], [-5.993132428703218, 37.39005314738425], [-5.993169, 37.390185], [-5.993243, 37.390261], [-5.993364, 37.390816], [-5.993467, 37.391235], [-5.9934667, 37.3916005], [-5.993729, 37.393322]]}}, {"type": "Feature", "properties": {"id_hdad": 33, "hermandad": "Los Panaderos", "calle": "Calle Orfila"}, "geometry": {"type": "Point", "coordinates": [-5.9936883, 37.3934217]}}, {"type": "Feature", "properties": {"id_hdad": 33, "hermandad": "Los Panaderos", "calle": "Plaza Fernando de Herrera"}, "geometry": {"type": "Point", "coordinates": [-5.9936883, 37.3934217]}}, {"type": "Feature", "properties": {"id_hdad": 33, "hermandad": "Los Panaderos", "calle": "Calle Daoiz"}, "geometry": {"type": "Point", "coordinates": [-5.9936883, 37.3934217]}}, {"type": "Feature", "properties": {"id_hdad": 33, "hermandad": "Los Panaderos", "calle": "Calle García Tassara"}, "geometry": {"type": "Point", "coordinates": [-5.9937133, 37.3935036]}}, {"type": "Feature", "properties": {"id_hdad": 33, "hermandad": "Los Panaderos", "calle": "Calle Amor de Dios"}, "geometry": {"type": "Point", "coordinates": [-5.9937133, 37.3935036]}}, {"type": "Feature", "properties": {"id_hdad": 33, "hermandad": "Los Panaderos", "calle": "Calle San Miguel"}, "geometry": {"type": "Point", "coordinates": [-5.9937133, 37.3935036]}}, {"type": "Feature", "properties": {"id_hdad": 33, "hermandad": "Los Panaderos", "calle": "Calle Jesús del Gran Poder"}, "geometry": {"type": "Point", "coordinates": [-5.995978500352905, 37.3940198419956]}}, {"type": "Feature", "properties": {"id_hdad": 33, "hermandad": "Los Panaderos", "calle": "Plaza del Duque de la Victoria"}, "geometry": {"type": "Point", "coordinates": [-5.9958656, 37.392719]}}, {"type": "Feature", "properties": {"id_hdad": 33, "hermandad": "Los Panaderos", "calle": "Calle Alfonso XII"}, "geometry": {"type": "Point", "coordinates": [-5.9966641, 37.3927681]}}, {"type": "Feature", "properties": {"id_hdad": 33, "hermandad": "Los Panaderos", "calle": "La Campana"}, "geometry": {"type": "Point", "coordinates": [-5.994861, 37.3922847]}}, {"type": "Feature", "properties": {"id_hdad": 33, "hermandad": "Los Panaderos", "calle": "Calle Sierpes"}, "geometry": {"type": "Point", "coordinates": [-5.994175, 37.389143]}}, {"type": "Feature", "properties": {"id_hdad": 33, "hermandad": "Los Panaderos", "calle": "Plaza de San Francisco"}, "geometry": {"type": "Point", "coordinates": [-5.9942267, 37.38731]}}, {"type": "Feature", "properties": {"id_hdad": 33, "hermandad": "Los Panaderos", "calle": "Avenida de la Constitución"}, "geometry": {"type": "Point", "coordinates": [-5.9929686, 37.3855304]}}, {"type": "Feature", "properties": {"id_hdad": 33, "hermandad": "Los Panaderos", "calle": "Calle Cardenal Carlos Amigo"}, "geometry": {"type": "Point", "coordinates": [-5.9924408, 37.3863144]}}, {"type": "Feature", "properties": {"id_hdad": 33, "hermandad": "Los Panaderos", "calle": "Calle Alemanes"}, "geometry": {"type": "Point", "coordinates": [-5.992807, 37.386777]}}, {"type": "Feature", "properties": {"id_hdad": 33, "hermandad": "Los Panaderos", "calle": "Calle Álvarez Quintero"}, "geometry": {"type": "Point", "coordinates": [-5.9930245, 37.3870101]}}, {"type": "Feature", "properties": {"id_hdad": 33, "hermandad": "Los Panaderos", "calle": "Calle Argote de Molina"}, "geometry": {"type": "Point", "coordinates": [-5.992489, 37.387452]}}, {"type": "Feature", "properties": {"id_hdad": 33, "hermandad": "Los Panaderos", "calle": "Calle Placentines"}, "geometry": {"type": "Point", "coordinates": [-5.99277, 37.38804]}}, {"type": "Feature", "properties": {"id_hdad": 33, "hermandad": "Los Panaderos", "calle": "Calle Francos"}, "geometry": {"type": "Point", "coordinates": [-5.992999, 37.388611]}}, {"type": "Feature", "properties": {"id_hdad": 33, "hermandad": "Los Panaderos", "calle": "Calle Chapineros"}, "geometry": {"type": "Point", "coordinates": [-5.99338, 37.389346]}}, {"type": "Feature", "properties": {"id_hdad": 33, "hermandad": "Los Panaderos", "calle": "Calle Álvarez Quintero"}, "geometry": {"type": "Point", "coordinates": [-5.993197, 37.389673]}}, {"type": "Feature", "properties": {"id_hdad": 33, "hermandad": "Los Panaderos", "calle": "Plaza del Salvador"}, "geometry": {"type": "Point", "coordinates": [-5.993132428703218, 37.39005314738425]}}, {"type": "Feature", "properties": {"id_hdad": 33, "hermandad": "Los Panaderos", "calle": "Calle Cuna"}, "geometry": {"type": "Point", "coordinates": [-5.9934667, 37.3916005]}}, {"type": "Feature", "properties": {"id_hdad": 33, "hermandad": "Los Panaderos", "calle": "Calle Orfila"}, "geometry": {"type": "Point", "coordinates": [-5.993729, 37.393322]}}]}