{"type":"FeatureCollection","features":[{"type":"Feature","properties":{"id_hdad":34,"nombre":"Cristo de Burgos","dia":"miercoles-santo"},"geometry":{"type":"LineString","coordinates":[[-5.990366,37.394231],[-5.990316,37.394559],[-5.99027,37.394863],[-5.9909195,37.3951526],[-5.9914514,37.3953855],[-5.991262,37.3958349],[-5.9922441,37.3959471],[-5.9924262,37.3961959],[-5.9927646,37.3961458],[-5.9934936,37.3952807],[-5.9940296,37.39453],[-5.994448,37.3945001],[-5.9946464,37.3944977],[-5.994758,37.393914],[-5.9947526,37.3942963],[-5.995328,37.394392],[-5.9953086,37.3938157],[-5.99537,37.393742],[-5.995446,37.393623],[-5.995615,37.39345],[-5.995644,37.393115],[-5.995643,37.39272],[-5.994924,37.392751],[-5.994797,37.391803],[-5.994542,37.390976],[-5.994258,37.389845],[-5.994175,37.389143],[-5.994151,37.388605],[-5.994169,37.388187],[-5.994296,37.388071],[-5.9943041,37.3879286],[-5.9942267,37.38731],[-5.9941493,37.386713],[-5.9940679,37.3860718],[-5.9940344,37.3857616],[-5.993999,37.385447],[-5.9934331,37.3854932],[-5.9929686,37.3855304],[-5.992619,37.385552],[-5.9926646,37.3858225],[-5.99271,37.386038],[-5.992325,37.386077],[-5.992343,37.386298],[-5.992461,37.386331],[-5.992523,37.386502],[-5.99252,37.386657],[-5.992542,37.386755],[-5.992745,37.386784],[-5.993037,37.386751],[-5.993054,37.386952],[-5.9930245,37.3870101],[-5.9929267,37.3871073],[-5.992697,37.387288],[-5.992489,37.387452],[-5.992594,37.387654],[-5.992704,37.387858],[-5.99277,37.38804],[-5.992784,37.388285],[-5.9927805,37.3884602],[-5.992743,37.3885957],[-5.9926373,37.3887772],[-5.9925861,37.388994],[-5.9925691,37.3891457],[-5.9925516,37.3894219],[-5.99248,37.3895168],[-5.9924118,37.3896116],[-5.9923094,37.3897744],[-5.9923776,37.3903642],[-5.991668,37.3903676],[-5.9911599,37.3904028],[-5.9909996,37.3904435],[-5.9908495,37.390392],[-5.9907336,37.3905881],[-5.9906173,37.3907816],[-5.9904478,37.3907416],[-5.9903251,37.390862],[-5.990158,37.3910193],[-5.9900213,37.3911556],[-5.9899688,37.3912106],[-5.9899556,37.3912991],[-5.989917,37.3914874],[-5.9895836,37.391943],[-5.9895558,37.392526],[-5.9898184,37.3924826],[-5.9899787,37.3924826]]}},{"type":"Feature","properties":{"id_hdad":34,"hermandad":"Cristo de Burgos","calle":"Plaza de San Pedro"},"geometry":{"type":"Point","coordinates":[-5.989692,37.392505]}},{"type":"Feature","properties":{"id_hdad":34,"hermandad":"Cristo de Burgos","calle":"Calle Santa Ángela de la Cruz"},"geometry":{"type":"Point","coordinates":[-5.990366,37.394231]}},{"type":"Feature","properties":{"id_hdad":34,"hermandad":"Cristo de Burgos","calle":"Calle San Juan de la Palma"},"geometry":{"type":"Point","coordinates":[-5.99027,37.394863]}},{"type":"Feature","properties":{"id_hdad":34,"hermandad":"Cristo de Burgos","calle":"Calle Feria"},"geometry":{"type":"Point","coordinates":[-5.991262,37.3958349]}},{"type":"Feature","properties":{"id_hdad":34,"hermandad":"Cristo de Burgos","calle":"Calle Castellar"},"geometry":{"type":"Point","coordinates":[-5.9881471,37.3963447]}},{"type":"Feature","properties":{"id_hdad":34,"hermandad":"Cristo de Burgos","calle":"Calle Alberto Lista"},"geometry":{"type":"Point","coordinates":[-5.9922441,37.3959471]}},{"type":"Feature","properties":{"id_hdad":34,"hermandad":"Cristo de Burgos","calle":"Calle Saavedras"},"geometry":{"type":"Point","coordinates":[-5.9924262,37.3961959]}},{"type":"Feature","properties":{"id_hdad":34,"hermandad":"Cristo de Burgos","calle":"Plaza de San Martín"},"geometry":{"type":"Point","coordinates":[-5.9934936,37.3952807]}},{"type":"Feature","properties":{"id_hdad":34,"hermandad":"Cristo de Burgos","calle":"Calle Cervantes"},"geometry":{"type":"Point","coordinates":[-5.9940296,37.39453]}},{"type":"Feature","properties":{"id_hdad":34,"hermandad":"Cristo de Burgos","calle":"Calle San Andrés"},"geometry":{"type":"Point","coordinates":[-5.994448,37.3945001]}},{"type":"Feature","properties":{"id_hdad":34,"hermandad":"Cristo de Burgos","calle":"Calle García Tassara"},"geometry":{"type":"Point","coordinates":[-5.9946464,37.3944977]}},{"type":"Feature","properties":{"id_hdad":34,"hermandad":"Cristo de Burgos","calle":"Calle Amor de Dios"},"geometry":{"type":"Point","coordinates":[-5.9947526,37.3942963]}},{"type":"Feature","properties":{"id_hdad":34,"hermandad":"Cristo de Burgos","calle":"Calle San Miguel"},"geometry":{"type":"Point","coordinates":[-5.9952711,37.3943445]}},{"type":"Feature","properties":{"id_hdad":34,"hermandad":"Cristo de Burgos","calle":"Calle Trajano"},"geometry":{"type":"Point","coordinates":[-5.995615,37.39345]}},{"type":"Feature","properties":{"id_hdad":34,"hermandad":"Cristo de Burgos","calle":"Plaza del Duque de la Victoria"},"geometry":{"type":"Point","coordinates":[-5.994797,37.391803]}},{"type":"Feature","properties":{"id_hdad":34,"hermandad":"Cristo de Burgos","calle":"La Campana"},"geometry":{"type":"Point","coordinates":[-5.994151,37.388605]}},{"type":"Feature","properties":{"id_hdad":34,"hermandad":"Cristo de Burgos","calle":"Calle Sierpes"},"geometry":{"type":"Point","coordinates":[-5.9941493,37.386713]}},{"type":"Feature","properties":{"id_hdad":34,"hermandad":"Cristo de Burgos","calle":"Plaza de San Francisco"},"geometry":{"type":"Point","coordinates":[-5.9934331,37.3854932]}},{"type":"Feature","properties":{"id_hdad":34,"hermandad":"Cristo de Burgos","calle":"Avenida de la Constitución"},"geometry":{"type":"Point","coordinates":[-5.99271,37.386038]}},{"type":"Feature","properties":{"id_hdad":34,"hermandad":"Cristo de Burgos","calle":"Calle Cardenal Carlos Amigo"},"geometry":{"type":"Point","coordinates":[-5.992523,37.386502]}},{"type":"Feature","properties":{"id_hdad":34,"hermandad":"Cristo de Burgos","calle":"Calle Alemanes"},"geometry":{"type":"Point","coordinates":[-5.992745,37.386784]}},{"type":"Feature","properties":{"id_hdad":34,"hermandad":"Cristo de Burgos","calle":"Calle Álvarez Quintero"},"geometry":{"type":"Point","coordinates":[-5.9929267,37.3871073]}},{"type":"Feature","properties":{"id_hdad":34,"hermandad":"Cristo de Burgos","calle":"Calle Argote de Molina"},"geometry":{"type":"Point","coordinates":[-5.992594,37.387654]}},{"type":"Feature","properties":{"id_hdad":34,"hermandad":"Cristo de Burgos","calle":"Calle Placentines"},"geometry":{"type":"Point","coordinates":[-5.9927805,37.3884602]}},{"type":"Feature","properties":{"id_hdad":34,"hermandad":"Cristo de Burgos","calle":"Calle Francos"},"geometry":{"type":"Point","coordinates":[-5.9925861,37.388994]}},{"type":"Feature","properties":{"id_hdad":34,"hermandad":"Cristo de Burgos","calle":"Plaza de Jesús de la Pasión"},"geometry":{"type":"Point","coordinates":[-5.9924118,37.3896116]}},{"type":"Feature","properties":{"id_hdad":34,"hermandad":"Cristo de Burgos","calle":"Calle Alcaicería de la Loza"},"geometry":{"type":"Point","coordinates":[-5.991668,37.3903676]}},{"type":"Feature","properties":{"id_hdad":34,"hermandad":"Cristo de Burgos","calle":"Plaza de La Alfalfa"},"geometry":{"type":"Point","coordinates":[-5.9909996,37.3904435]}},{"type":"Feature","properties":{"id_hdad":34,"hermandad":"Cristo de Burgos","calle":"Calle San Juan"},"geometry":{"type":"Point","coordinates":[-5.9908495,37.390392]}},{"type":"Feature","properties":{"id_hdad":34,"hermandad":"Cristo de Burgos","calle":"Calle Boteros"},"geometry":{"type":"Point","coordinates":[-5.9906173,37.3907816]}},{"type":"Feature","properties":{"id_hdad":34,"hermandad":"Cristo de Burgos","calle":"Plaza del Cristo de Burgos"},"geometry":{"type":"Point","coordinates":[-5.9895836,37.391943]}},{"type":"Feature","properties":{"id_hdad":34,"hermandad":"Cristo de Burgos","calle":"Plaza de San Pedro"},"geometry":{"type":"Point","coordinates":[-5.9899787,37.3924826]}}]}