{"type":"FeatureCollection","features":[{"type":"Feature","properties":{"id_hdad":37,"nombre":"La Exaltación","dia":"jueves-santo"},"geometry":{"type":"LineString","coordinates":[[-5.9882117,37.3932433],[-5.9882093,37.3933751],[-5.9883887,37.3934437],[-5.9884485,37.3935141],[-5.9886744,37.393771],[-5.98877,37.3938734],[-5.9892354,37.3941735],[-5.9894965,37.3943608],[-5.9902719,37.3948576],[-5.9903779,37.3942538],[-5.990418,37.393942],[-5.990453,37.393595],[-5.990883,37.393616],[-5.991362,37.393635],[-5.991425,37.393054],[-5.991465,37.392787],[-5.991508,37.392727],[-5.991583,37.392717],[-5.992232,37.392791],[-5.992981,37.392804],[-5.9933169,37.3928037],[-5.9936593,37.3928157],[-5.9936853,37.3929311],[-5.993689,37.393287],[-5.9936844,37.3934442],[-5.993838,37.393693],[-5.9940973,37.3936496],[-5.9942892,37.3936065],[-5.994575,37.393545],[-5.9947497,37.3935151],[-5.9950146,37.393693],[-5.9953121,37.3939063],[-5.9956419,37.3939039],[-5.9959824,37.3938867],[-5.995978500352905,37.3940198419956],[-5.9959864,37.3938914],[-5.9959496,37.3937209],[-5.9959193,37.3936073],[-5.9959583,37.3934438],[-5.996046,37.393115],[-5.9960975,37.392915],[-5.9961387,37.3927242],[-5.9958656,37.392719],[-5.9955948,37.3927173],[-5.9954756,37.3927173],[-5.995376,37.392725],[-5.994924,37.392751],[-5.994861,37.3922847],[-5.994797,37.391803],[-5.9946698,37.3913397],[-5.9945161,37.3909308],[-5.9943917,37.3904014],[-5.994327,37.3901151],[-5.9942735,37.3898019],[-5.9941991,37.3894656],[-5.994175,37.389143],[-5.994154,37.38867],[-5.994169,37.388187],[-5.994296,37.388071],[-5.9943041,37.3879286],[-5.9942267,37.38731],[-5.9941493,37.386713],[-5.9940679,37.3860718],[-5.9940344,37.3857616],[-5.993999,37.385447],[-5.9934331,37.3854932],[-5.9929686,37.3855304],[-5.992619,37.385552],[-5.9926646,37.3858225],[-5.99271,37.386038],[-5.992325,37.386077],[-5.992365,37.386288],[-5.9924408,37.3863144],[-5.9924973,37.3863647],[-5.9925107,37.3865266],[-5.992515,37.38666],[-5.992549,37.386763],[-5.992807,37.386777],[-5.993037,37.386751],[-5.993054,37.386917],[-5.9930245,37.3870101],[-5.9929267,37.3871073],[-5.992697,37.387288],[-5.992489,37.387452],[-5.992594,37.387654],[-5.992704,37.387858],[-5.99277,37.38804],[-5.9927937,37.3883437],[-5.992748,37.388584],[-5.992999,37.388611],[-5.993264,37.388615],[-5.993288,37.389051],[-5.99338,37.389346],[-5.993302,37.389446],[-5.993273,37.38953],[-5.992781,37.389701],[-5.991765,37.389785],[-5.9915301,37.3898039],[-5.9913096,37.3898065],[-5.991289194661936,37.389882871212365],[-5.9912497,37.389973],[-5.9912273,37.3900874],[-5.9911748,37.3902722],[-5.9911616,37.3904076],[-5.9910099,37.3904447],[-5.9908985,37.390408],[-5.9904867,37.3902882],[-5.9903819,37.3904418],[-5.9902529,37.3906875],[-5.9904478,37.3907416],[-5.9904478,37.3907416],[-5.9903251,37.390862],[-5.990158,37.3910193],[-5.9900213,37.3911556],[-5.9899688,37.3912106],[-5.9899556,37.3912991],[-5.989917,37.3914874],[-5.9898806,37.3918928],[-5.9898363,37.3923802],[-5.989834,37.3924823],[-5.9895483,37.3925263],[-5.9890174,37.3927246],[-5.9886862,37.392856],[-5.9885206,37.39288],[-5.9884444,37.3930256],[-5.9883554,37.3931825],[-5.9882358,37.3932582]]}},{"type":"Feature","properties":{"id_hdad":37,"hermandad":"La Exaltación","calle":"Calle Santa Catalina"},"geometry":{"type":"Point","coordinates":[-5.9882117,37.3932433]}},{"type":"Feature","properties":{"id_hdad":37,"hermandad":"La Exaltación","calle":"Calle Gerona"},"geometry":{"type":"Point","coordinates":[-5.9886744,37.393771]}},{"type":"Feature","properties":{"id_hdad":37,"hermandad":"La Exaltación","calle":"Calle Santa Ángela de la Cruz"},"geometry":{"type":"Point","coordinates":[-5.9902719,37.3948576]}},{"type":"Feature","properties":{"id_hdad":37,"hermandad":"La Exaltación","calle":"Calle Alcázares"},"geometry":{"type":"Point","coordinates":[-5.990883,37.393616]}},{"type":"Feature","properties":{"id_hdad":37,"hermandad":"La Exaltación","calle":"Plaza de la Encarnación"},"geometry":{"type":"Point","coordinates":[-5.991508,37.392727]}},{"type":"Feature","properties":{"id_hdad":37,"hermandad":"La Exaltación","calle":"Calle Laraña"},"geometry":{"type":"Point","coordinates":[-5.9933169,37.3928037]}},{"type":"Feature","properties":{"id_hdad":37,"hermandad":"La Exaltación","calle":"Calle Orfila"},"geometry":{"type":"Point","coordinates":[-5.9936844,37.3934442]}},{"type":"Feature","properties":{"id_hdad":37,"hermandad":"La Exaltación","calle":"Calle Javier Lasso de la Vega"},"geometry":{"type":"Point","coordinates":[-5.994575,37.393545]}},{"type":"Feature","properties":{"id_hdad":37,"hermandad":"La Exaltación","calle":"Calle Aponte"},"geometry":{"type":"Point","coordinates":[-5.9953121,37.3939063]}},{"type":"Feature","properties":{"id_hdad":37,"hermandad":"La Exaltación","calle":"Calle Jesús del Gran Poder"},"geometry":{"type":"Point","coordinates":[-5.995978500352905,37.3940198419956]}},{"type":"Feature","properties":{"id_hdad":37,"hermandad":"La Exaltación","calle":"Plaza del Duque de la Victoria"},"geometry":{"type":"Point","coordinates":[-5.9960975,37.392915]}},{"type":"Feature","properties":{"id_hdad":37,"hermandad":"La Exaltación","calle":"La Campana"},"geometry":{"type":"Point","coordinates":[-5.994924,37.392751]}},{"type":"Feature","properties":{"id_hdad":37,"hermandad":"La Exaltación","calle":"Calle Sierpes"},"geometry":{"type":"Point","coordinates":[-5.994327,37.3901151]}},{"type":"Feature","properties":{"id_hdad":37,"hermandad":"La Exaltación","calle":"Plaza de San Francisco"},"geometry":{"type":"Point","coordinates":[-5.9943041,37.3879286]}},{"type":"Feature","properties":{"id_hdad":37,"hermandad":"La Exaltación","calle":"Avenida de la Constitución"},"geometry":{"type":"Point","coordinates":[-5.9934331,37.3854932]}},{"type":"Feature","properties":{"id_hdad":37,"hermandad":"La Exaltación","calle":"Calle Cardenal Carlos Amigo"},"geometry":{"type":"Point","coordinates":[-5.992365,37.386288]}},{"type":"Feature","properties":{"id_hdad":37,"hermandad":"La Exaltación","calle":"Calle Alemanes"},"geometry":{"type":"Point","coordinates":[-5.992807,37.386777]}},{"type":"Feature","properties":{"id_hdad":37,"hermandad":"La Exaltación","calle":"Calle Álvarez Quintero"},"geometry":{"type":"Point","coordinates":[-5.9930245,37.3870101]}},{"type":"Feature","properties":{"id_hdad":37,"hermandad":"La Exaltación","calle":"Calle Argote de Molina"},"geometry":{"type":"Point","coordinates":[-5.992697,37.387288]}},{"type":"Feature","properties":{"id_hdad":37,"hermandad":"La Exaltación","calle":"Calle Placentines"},"geometry":{"type":"Point","coordinates":[-5.992704,37.387858]}},{"type":"Feature","properties":{"id_hdad":37,"hermandad":"La Exaltación","calle":"Calle Francos"},"geometry":{"type":"Point","coordinates":[-5.9927937,37.3883437]}},{"type":"Feature","properties":{"id_hdad":37,"hermandad":"La Exaltación","calle":"Calle Chapineros"},"geometry":{"type":"Point","coordinates":[-5.993264,37.388615]}},{"type":"Feature","properties":{"id_hdad":37,"hermandad":"La Exaltación","calle":"Calle Álvarez Quintero"},"geometry":{"type":"Point","coordinates":[-5.99338,37.389346]}},{"type":"Feature","properties":{"id_hdad":37,"hermandad":"La Exaltación","calle":"Calle Villegas"},"geometry":{"type":"Point","coordinates":[-5.992781,37.389701]}},{"type":"Feature","properties":{"id_hdad":37,"hermandad":"La Exaltación","calle":"Cuesta del Rosario"},"geometry":{"type":"Point","coordinates":[-5.9915301,37.3898039]}},{"type":"Feature","properties":{"id_hdad":37,"hermandad":"La Exaltación","calle":"Plaza de la Pescadería"},"geometry":{"type":"Point","coordinates":[-5.9912497,37.389973]}},{"type":"Feature","properties":{"id_hdad":37,"hermandad":"La Exaltación","calle":"Calle Ángel María Camacho"},"geometry":{"type":"Point","coordinates":[-5.9911748,37.3902722]}},{"type":"Feature","properties":{"id_hdad":37,"hermandad":"La Exaltación","calle":"Plaza de La Alfalfa"},"geometry":{"type":"Point","coordinates":[-5.9910099,37.3904447]}},{"type":"Feature","properties":{"id_hdad":37,"hermandad":"La Exaltación","calle":"Calle Odreros"},"geometry":{"type":"Point","coordinates":[-5.9903819,37.3904418]}},{"type":"Feature","properties":{"id_hdad":37,"hermandad":"La Exaltación","calle":"Calle Boteros"},"geometry":{"type":"Point","coordinates":[-5.9904478,37.3907416]}},{"type":"Feature","properties":{"id_hdad":37,"hermandad":"La Exaltación","calle":"Plaza del Cristo de Burgos"},"geometry":{"type":"Point","coordinates":[-5.9898806,37.3918928]}},{"type":"Feature","properties":{"id_hdad":37,"hermandad":"La Exaltación","calle":"Calle Almirante Apodaca"},"geometry":{"type":"Point","coordinates":[-5.9895483,37.3925263]}},{"type":"Feature","properties":{"id_hdad":37,"hermandad":"La Exaltación","calle":"Calle Alhóndiga"},"geometry":{"type":"Point","coordinates":[-5.9885206,37.39288]}},{"type":"Feature","properties":{"id_hdad":37,"hermandad":"La Exaltación","calle":"Calle Santa Catalina"},"geometry":{"type":"Point","coordinates":[-5.9882358,37.3932582]}}]}