{"type":"FeatureCollection","features":[{"type":"Feature","properties":{"id_hdad":38,"nombre":"Las Cigarreras","dia":"jueves-santo"},"geometry":{"type":"LineString","coordinates":[[-5.9876602,37.3939633],[-5.9880115,37.393698],[-5.9882071,37.39353],[-5.9882195,37.3934345],[-5.9882221,37.3933162],[-5.9883752,37.3931489],[-5.9885284,37.3928755],[-5.9886794,37.3928487],[-5.9887739,37.3928231],[-5.989031,37.392704],[-5.989692,37.392505],[-5.9899423,37.3924834],[-5.9901595,37.3924887],[-5.9905204,37.3925657],[-5.99088,37.39261],[-5.991499,37.3927],[-5.9922302,37.392777],[-5.992981,37.392804],[-5.9933169,37.3928037],[-5.9936593,37.3928157],[-5.9936853,37.3929311],[-5.993689,37.393287],[-5.9936844,37.3934442],[-5.993838,37.393693],[-5.9940973,37.3936496],[-5.9942892,37.3936065],[-5.994575,37.393545],[-5.9947522,37.3935137],[-5.99499,37.3936695],[-5.995283,37.393895],[-5.99537,37.393742],[-5.995446,37.393623],[-5.995615,37.39345],[-5.995633,37.393113],[-5.995631,37.392901],[-5.9956364,37.3927183],[-5.995376,37.392725],[-5.994924,37.392751],[-5.994797,37.391803],[-5.9945202,37.3909414],[-5.994258,37.389845],[-5.994175,37.389143],[-5.994154,37.38867],[-5.994169,37.388187],[-5.994296,37.388071],[-5.9943041,37.3879286],[-5.9942267,37.38731],[-5.994185,37.386838],[-5.9940344,37.3857616],[-5.993999,37.385447],[-5.9934331,37.3854932],[-5.9929686,37.3855304],[-5.992619,37.385552],[-5.9926646,37.3858225],[-5.99271,37.386038],[-5.992325,37.386077],[-5.9922162,37.3855949],[-5.9921519,37.3853995],[-5.9920345,37.385324],[-5.9919283,37.3852485],[-5.9918473,37.3851486],[-5.9918473,37.3850842],[-5.9921519,37.3849399],[-5.9924191,37.384767],[-5.9923917,37.3845631],[-5.9922662,37.3843614],[-5.9925309,37.3841793],[-5.9926543,37.3840931],[-5.992504,37.3837765],[-5.992534,37.3836746],[-5.992725,37.3835554],[-5.9927687,37.3834448],[-5.9929542,37.3830633],[-5.9931343,37.3827254],[-5.9932445,37.3823466],[-5.9929076,37.3823011],[-5.9918995,37.3820298],[-5.9893917,37.3814097],[-5.9888042,37.3824466],[-5.9882289,37.38344],[-5.9875125,37.3847282],[-5.9868322,37.3859098],[-5.9872648,37.3863201],[-5.9877116,37.3866645],[-5.9881776,37.3870928],[-5.9889261,37.3880054],[-5.9891188,37.3883243],[-5.9892332,37.3884653],[-5.9896099,37.3885495],[-5.9897983,37.3887241],[-5.989934004001618,37.38901791442554],[-5.9900274,37.3893109],[-5.9900745,37.3894325],[-5.99003,37.3895097],[-5.9899842,37.3896071],[-5.9901589083914715,37.38984005540638],[-5.9902401,37.390061],[-5.9904873,37.3901982],[-5.9904991,37.3903042],[-5.9903819,37.3904418],[-5.9902529,37.3906875],[-5.9904478,37.3907416],[-5.9903251,37.390862],[-5.990158,37.3910193],[-5.9900213,37.3911556],[-5.9899556,37.3912991],[-5.989917,37.3914874],[-5.9898384,37.3923782],[-5.9897195,37.3928768],[-5.9896104,37.3932572],[-5.9895497,37.3934523],[-5.9894588,37.3936786],[-5.9891505,37.3943286],[-5.9890297,37.3945377],[-5.9886372,37.3947981],[-5.9884783,37.394865],[-5.988238,37.3948513],[-5.9879858,37.3948218],[-5.9880645,37.3946768],[-5.988117,37.3945076],[-5.9881633,37.3943335],[-5.9881941,37.3941521],[-5.9882404,37.3937917],[-5.9882281,37.3936249],[-5.9882034,37.3935317],[-5.9880028,37.3937083],[-5.9876571,37.3939731]]}},{"type":"Feature","properties":{"id_hdad":38,"hermandad":"Las Cigarreras","calle":"Calle Sol","osm":"Calle Sol"},"geometry":{"type":"Point","coordinates":[-5.9876324,37.3939706]}},{"type":"Feature","properties":{"id_hdad":38,"hermandad":"Las Cigarreras","calle":"Plaza de Los Terceros","osm":"Plaza de Los Terceros"},"geometry":{"type":"Point","coordinates":[-5.9880871,37.393607]}},{"type":"Feature","properties":{"id_hdad":38,"hermandad":"Las Cigarreras","calle":"Calle Capataz Manuel Santiago","osm":"Calle Capataz Manuel Santiago"},"geometry":{"type":"Point","coordinates":[-5.988081,37.393645]}},{"type":"Feature","properties":{"id_hdad":38,"hermandad":"Las Cigarreras","calle":"Calle Alhóndiga","osm":"Calle Alhóndiga"},"geometry":{"type":"Point","coordinates":[-5.9886539,37.3921907]}},{"type":"Feature","properties":{"id_hdad":38,"hermandad":"Las Cigarreras","calle":"Calle Almirante Apodaca","osm":"Calle Almirante Apodaca"},"geometry":{"type":"Point","coordinates":[-5.989031,37.392704]}},{"type":"Feature","properties":{"id_hdad":38,"hermandad":"Las Cigarreras","calle":"Plaza de San Pedro","osm":"Plaza de San Pedro"},"geometry":{"type":"Point","coordinates":[-5.989692,37.392505]}},{"type":"Feature","properties":{"id_hdad":38,"hermandad":"Las Cigarreras","calle":"Calle Imagen","osm":"Calle Imagen"},"geometry":{"type":"Point","coordinates":[-5.99088,37.39261]}},{"type":"Feature","properties":{"id_hdad":38,"hermandad":"Las Cigarreras","calle":"Plaza de la Encarnación","osm":"Plaza de la Encarnación"},"geometry":{"type":"Point","coordinates":[-5.991499,37.3927]}},{"type":"Feature","properties":{"id_hdad":38,"hermandad":"Las Cigarreras","calle":"Calle Laraña","osm":"Calle Laraña"},"geometry":{"type":"Point","coordinates":[-5.992981,37.392804]}},{"type":"Feature","properties":{"id_hdad":38,"hermandad":"Las Cigarreras","calle":"Calle Orfila","osm":"Calle Orfila"},"geometry":{"type":"Point","coordinates":[-5.993689,37.393287]}},{"type":"Feature","properties":{"id_hdad":38,"hermandad":"Las Cigarreras","calle":"Calle Javier Lasso de la Vega","osm":"Calle Javier Lasso de la Vega"},"geometry":{"type":"Point","coordinates":[-5.994575,37.393545]}},{"type":"Feature","properties":{"id_hdad":38,"hermandad":"Las Cigarreras","calle":"Calle Trajano","osm":"Calle Trajano"},"geometry":{"type":"Point","coordinates":[-5.99537,37.393742]}},{"type":"Feature","properties":{"id_hdad":38,"hermandad":"Las Cigarreras","calle":"Plaza del Duque de la Victoria (lado derecho)","osm":"Plaza del Duque de la Victoria (lado derecho)"},"geometry":{"type":"Point","coordinates":[-5.995633,37.393113]}},{"type":"Feature","properties":{"id_hdad":38,"hermandad":"Las Cigarreras","calle":"La Campana","osm":"La Campana"},"geometry":{"type":"Point","coordinates":[-5.995376,37.392725]}},{"type":"Feature","properties":{"id_hdad":38,"hermandad":"Las Cigarreras","calle":"Calle Sierpes","osm":"Calle Sierpes"},"geometry":{"type":"Point","coordinates":[-5.9947885,37.3908748]}},{"type":"Feature","properties":{"id_hdad":38,"hermandad":"Las Cigarreras","calle":"Plaza de San Francisco","osm":"Plaza de San Francisco"},"geometry":{"type":"Point","coordinates":[-5.994154,37.38867]}},{"type":"Feature","properties":{"id_hdad":38,"hermandad":"Las Cigarreras","calle":"Avenida de la Constitución","osm":"Avenida de la Constitución"},"geometry":{"type":"Point","coordinates":[-5.994185,37.386838]}},{"type":"Feature","properties":{"id_hdad":38,"hermandad":"Las Cigarreras","calle":"Plaza del Triunfo","osm":"Plaza del Triunfo"},"geometry":{"type":"Point","coordinates":[-5.9920842,37.3849667]}},{"type":"Feature","properties":{"id_hdad":38,"hermandad":"Las Cigarreras","calle":"Calle Miguel Mañara","osm":"Calle Miguel Mañara"},"geometry":{"type":"Point","coordinates":[-5.992479,37.3842205]}},{"type":"Feature","properties":{"id_hdad":38,"hermandad":"Las Cigarreras","calle":"Plaza de La Contratación","osm":"Plaza de La Contratación"},"geometry":{"type":"Point","coordinates":[-5.992534,37.383679]}},{"type":"Feature","properties":{"id_hdad":38,"hermandad":"Las Cigarreras","calle":"Calle San Gregorio","osm":"Calle San Gregorio"},"geometry":{"type":"Point","coordinates":[-5.9928723,37.383241]}},{"type":"Feature","properties":{"id_hdad":38,"hermandad":"Las Cigarreras","calle":"Plaza Puerta de Jerez","osm":"Plaza Puerta de Jerez"},"geometry":{"type":"Point","coordinates":[-5.9932597,37.3823431]}},{"type":"Feature","properties":{"id_hdad":38,"hermandad":"Las Cigarreras","calle":"Calle San Fernando","osm":"Calle San Fernando"},"geometry":{"type":"Point","coordinates":[-5.9909424,37.38181]}},{"type":"Feature","properties":{"id_hdad":38,"hermandad":"Las Cigarreras","calle":"Calle Paseo de Catalina de Ribera","osm":"Calle Paseo de Catalina de Ribera"},"geometry":{"type":"Point","coordinates":[-5.9882289,37.38344]}},{"type":"Feature","properties":{"id_hdad":38,"hermandad":"Las Cigarreras","calle":"Calle Cano y Cueto","osm":"Calle Cano y Cueto"},"geometry":{"type":"Point","coordinates":[-5.9870272,37.3856852]}},{"type":"Feature","properties":{"id_hdad":38,"hermandad":"Las Cigarreras","calle":"Calle Santa María la Blanca","osm":"Calle Santa María la Blanca"},"geometry":{"type":"Point","coordinates":[-5.9873414,37.3863291]}},{"type":"Feature","properties":{"id_hdad":38,"hermandad":"Las Cigarreras","calle":"Calle San José","osm":"Calle San José"},"geometry":{"type":"Point","coordinates":[-5.9889261,37.3880054]}},{"type":"Feature","properties":{"id_hdad":38,"hermandad":"Las Cigarreras","calle":"Plaza Nuestro Padre Jesús de la Salud","osm":"Plaza Nuestro Padre Jesús de la Salud"},"geometry":{"type":"Point","coordinates":[-5.9892314,37.3885302]}},{"type":"Feature","properties":{"id_hdad":38,"hermandad":"Las Cigarreras","calle":"Calle Muñoz y Pabón","osm":"Calle Muñoz y Pabón"},"geometry":{"type":"Point","coordinates":[-5.989934004001618,37.38901791442554]}},{"type":"Feature","properties":{"id_hdad":38,"hermandad":"Las Cigarreras","calle":"Calle Cabeza del Rey Don Pedro","osm":"Calle Cabeza del Rey Don Pedro"},"geometry":{"type":"Point","coordinates":[-5.99003,37.3895097]}},{"type":"Feature","properties":{"id_hdad":38,"hermandad":"Las Cigarreras","calle":"Calle Candilejo","osm":"Calle Candilejo"},"geometry":{"type":"Point","coordinates":[-5.9901589083914715,37.38984005540638]}},{"type":"Feature","properties":{"id_hdad":38,"hermandad":"Las Cigarreras","calle":"Calle Alfalfa","osm":"Calle Alfalfa"},"geometry":{"type":"Point","coordinates":[-5.9903449,37.390137]}},{"type":"Feature","properties":{"id_hdad":38,"hermandad":"Las Cigarreras","calle":"Calle Odreros","osm":"Calle Odreros"},"geometry":{"type":"Point","coordinates":[-5.9903819,37.3904418]}},{"type":"Feature","properties":{"id_hdad":38,"hermandad":"Las Cigarreras","calle":"Calle Boteros","osm":"Calle Boteros"},"geometry":{"type":"Point","coordinates":[-5.99075,37.3908772]}},{"type":"Feature","properties":{"id_hdad":38,"hermandad":"Las Cigarreras","calle":"Calle Sales y Ferré","osm":"Calle Sales y Ferré"},"geometry":{"type":"Point","coordinates":[-5.9901652,37.391109]}},{"type":"Feature","properties":{"id_hdad":38,"hermandad":"Las Cigarreras","calle":"Plaza del Cristo de Burgos","osm":"Plaza del Cristo de Burgos"},"geometry":{"type":"Point","coordinates":[-5.9895944,37.3919974]}},{"type":"Feature","properties":{"id_hdad":38,"hermandad":"Las Cigarreras","calle":"Calle Doña María Coronel","osm":"Calle Doña María Coronel"},"geometry":{"type":"Point","coordinates":[-5.988238,37.3948513]}},{"type":"Feature","properties":{"id_hdad":38,"hermandad":"Las Cigarreras","calle":"Calle Bustos Tavera","osm":"Calle Bustos Tavera"},"geometry":{"type":"Point","coordinates":[-5.9881136,37.3941815]}},{"type":"Feature","properties":{"id_hdad":38,"hermandad":"Las Cigarreras","calle":"Calle Sol","osm":"Calle Sol"},"geometry":{"type":"Point","coordinates":[-5.9876417,37.3939706]}}]}