{"type": "FeatureCollection", "features": [{"type": "Feature", "properties": {"id_hdad": 41, "nombre": "El Valle", "dia": "jueves-santo"}, "geometry": {"type": "LineString", "coordinates": [[-5.9924487, 37.3927056], [-5.9924456, 37.3927837], [-5.9933169, 37.3928037], [-5.9936593, 37.3928157], [-5.9936853, 37.3929311], [-5.993689, 37.393287], [-5.9936917, 37.3934516], [-5.9938521, 37.3937374], [-5.9940038, 37.3939681], [-5.9941495, 37.3941918], [-5.9941921, 37.394338], [-5.994239, 37.3945012], [-5.994448, 37.3945001], [-5.9946464, 37.3944977], [-5.9947188, 37.3943658], [-5.9947526, 37.3942963], [-5.9951221, 37.3943326], [-5.995349, 37.3943531], [-5.9956421, 37.3944101], [-5.9959065, 37.3944789], [-5.9959409, 37.3942843], [-5.995978500352905, 37.3940198419956], [-5.9959864, 37.3938914], [-5.9959496, 37.3937209], [-5.9959193, 37.3936073], [-5.9959583, 37.3934438], [-5.996046, 37.393115], [-5.9960975, 37.392915], [-5.9961387, 37.3927242], [-5.9958656, 37.392719], [-5.9955948, 37.3927173], [-5.9954756, 37.3927173], [-5.995376, 37.392725], [-5.994924, 37.392751], [-5.994861, 37.3922847], [-5.994797, 37.391803], [-5.9946698, 37.3913397], [-5.9945161, 37.3909308], [-5.9943917, 37.3904014], [-5.994327, 37.3901151], [-5.9942735, 37.3898019], [-5.9941991, 37.3894656], [-5.994175, 37.389143], [-5.994154, 37.38867], [-5.994169, 37.388187], [-5.994296, 37.388071], [-5.9943041, 37.3879286], [-5.9942267, 37.38731], [-5.9941493, 37.386713], [-5.9940679, 37.3860718], [-5.9940344, 37.3857616], [-5.993999, 37.385447], [-5.9934331, 37.3854932], [-5.9929686, 37.3855304], [-5.992619, 37.385552], [-5.9926646, 37.3858225], [-5.99271, 37.386038], [-5.992325, 37.386077], [-5.992365, 37.386288], [-5.9924408, 37.3863144], [-5.9924973, 37.3863647], [-5.9925107, 37.3865266], [-5.992515, 37.38666], [-5.992549, 37.386763], [-5.992807, 37.386777], [-5.993037, 37.386751], [-5.993054, 37.386917], [-5.9930245, 37.3870101], [-5.9929267, 37.3871073], [-5.992697, 37.387288], [-5.992489, 37.387452], [-5.992594, 37.387654], [-5.992704, 37.387858], [-5.99277, 37.38804], [-5.9927853, 37.3883529], [-5.992748, 37.388584], [-5.992999, 37.388611], [-5.993264, 37.388615], [-5.993288, 37.389051], [-5.99338, 37.389346], [-5.993302, 37.389446], [-5.993273, 37.38953], [-5.993197, 37.389673], [-5.993105, 37.389698], [-5.993128, 37.389988], [-5.993132428703218, 37.39005314738425], [-5.993169, 37.390185], [-5.993243, 37.390261], [-5.993364, 37.390816], [-5.993467, 37.391235], [-5.9935294, 37.3916295], [-5.9935969, 37.3922076], [-5.993653, 37.392822], [-5.9924456, 37.3927813], [-5.9924517, 37.3927105]]}}, {"type": "Feature", "properties": {"id_hdad": 41, "hermandad": "El Valle", "calle": "Calle Laraña", "osm": "Calle Laraña"}, "geometry": {"type": "Point", "coordinates": [-5.992981, 37.392804]}}, {"type": "Feature", "properties": {"id_hdad": 41, "hermandad": "El Valle", "calle": "Calle Orfila", "osm": "Calle Orfila"}, "geometry": {"type": "Point", "coordinates": [-5.993689, 37.393287]}}, {"type": "Feature", "properties": {"id_hdad": 41, "hermandad": "El Valle", "calle": "Plaza Fernando de Herrera", "osm": "Plaza Fernando de Herrera"}, "geometry": {"type": "Point", "coordinates": [-5.994158, 37.394243]}}, {"type": "Feature", "properties": {"id_hdad": 41, "hermandad": "El Valle", "calle": "Calle Daoiz", "osm": "Calle Daoiz"}, "geometry": {"type": "Point", "coordinates": [-5.9941921, 37.394338]}}, {"type": "Feature", "properties": {"id_hdad": 41, "hermandad": "El Valle", "calle": "Calle García Tassara", "osm": "Calle García Tassara"}, "geometry": {"type": "Point", "coordinates": [-5.994448, 37.3945001]}}, {"type": "Feature", "properties": {"id_hdad": 41, "hermandad": "El Valle", "calle": "Calle Amor de Dios", "osm": "Calle Amor de Dios"}, "geometry": {"type": "Point", "coordinates": [-5.994758, 37.393914]}}, {"type": "Feature", "properties": {"id_hdad": 41, "hermandad": "El Valle", "calle": "Calle San Miguel", "osm": "Calle San Miguel"}, "geometry": {"type": "Point", "coordinates": [-5.995328, 37.394392]}}, {"type": "Feature", "properties": {"id_hdad": 41, "hermandad": "El Valle", "calle": "Calle Jesús del Gran Poder", "osm": "Calle Jesús del Gran Poder"}, "geometry": {"type": "Point", "coordinates": [-5.995978500352905, 37.3940198419956]}}, {"type": "Feature", "properties": {"id_hdad": 41, "hermandad": "El Valle", "calle": "Plaza del Duque de la Victoria", "osm": "Plaza del Duque de la Victoria"}, "geometry": {"type": "Point", "coordinates": [-5.996046, 37.393115]}}, {"type": "Feature", "properties": {"id_hdad": 41, "hermandad": "El Valle", "calle": "La Campana", "osm": "La Campana"}, "geometry": {"type": "Point", "coordinates": [-5.995376, 37.392725]}}, {"type": "Feature", "properties": {"id_hdad": 41, "hermandad": "El Valle", "calle": "Calle Sierpes", "osm": "Calle Sierpes"}, "geometry": {"type": "Point", "coordinates": [-5.9947885, 37.3908748]}}, {"type": "Feature", "properties": {"id_hdad": 41, "hermandad": "El Valle", "calle": "Plaza de San Francisco", "osm": "Plaza de San Francisco"}, "geometry": {"type": "Point", "coordinates": [-5.994154, 37.38867]}}, {"type": "Feature", "properties": {"id_hdad": 41, "hermandad": "El Valle", "calle": "Avenida de la Constitución", "osm": "Avenida de la Constitución"}, "geometry": {"type": "Point", "coordinates": [-5.994185, 37.386838]}}, {"type": "Feature", "properties": {"id_hdad": 41, "hermandad": "El Valle", "calle": "Calle Cardenal Carlos Amigo", "osm": "Calle Cardenal Carlos Amigo"}, "geometry": {"type": "Point", "coordinates": [-5.992537, 37.386555]}}, {"type": "Feature", "properties": {"id_hdad": 41, "hermandad": "El Valle", "calle": "Calle Alemanes", "osm": "Calle Alemanes"}, "geometry": {"type": "Point", "coordinates": [-5.992807, 37.386777]}}, {"type": "Feature", "properties": {"id_hdad": 41, "hermandad": "El Valle", "calle": "Calle Álvarez Quintero", "osm": "Calle Álvarez Quintero"}, "geometry": {"type": "Point", "coordinates": [-5.993054, 37.386917]}}, {"type": "Feature", "properties": {"id_hdad": 41, "hermandad": "El Valle", "calle": "Calle Argote de Molina", "osm": "Calle Argote de Molina"}, "geometry": {"type": "Point", "coordinates": [-5.992697, 37.387288]}}, {"type": "Feature", "properties": {"id_hdad": 41, "hermandad": "El Valle", "calle": "Calle Placentines", "osm": "Calle Placentines"}, "geometry": {"type": "Point", "coordinates": [-5.992594, 37.387654]}}, {"type": "Feature", "properties": {"id_hdad": 41, "hermandad": "El Valle", "calle": "Calle Francos", "osm": "Calle Francos"}, "geometry": {"type": "Point", "coordinates": [-5.9927853, 37.388409]}}, {"type": "Feature", "properties": {"id_hdad": 41, "hermandad": "El Valle", "calle": "Calle Chapineros", "osm": "Calle Chapineros"}, "geometry": {"type": "Point", "coordinates": [-5.992999, 37.388611]}}, {"type": "Feature", "properties": {"id_hdad": 41, "hermandad": "El Valle", "calle": "Calle Álvarez Quintero", "osm": "Calle Álvarez Quintero"}, "geometry": {"type": "Point", "coordinates": [-5.993273, 37.38953]}}, {"type": "Feature", "properties": {"id_hdad": 41, "hermandad": "El Valle", "calle": "Plaza del Salvador", "osm": "Plaza del Salvador"}, "geometry": {"type": "Point", "coordinates": [-5.993132428703218, 37.39005314738425]}}, {"type": "Feature", "properties": {"id_hdad": 41, "hermandad": "El Valle", "calle": "Calle Cuna", "osm": "Calle Cuna"}, "geometry": {"type": "Point", "coordinates": [-5.993467, 37.391601]}}, {"type": "Feature", "properties": {"id_hdad": 41, "hermandad": "El Valle", "calle": "Calle Laraña", "osm": "Calle Laraña"}, "geometry": {"type": "Point", "coordinates": [-5.992981, 37.392804]}}]}