{"type":"FeatureCollection","features":[{"type":"Feature","properties":{"id_hdad":45,"nombre":"La Macarena","dia":"madruga"},"geometry":{"type":"LineString","coordinates":[[-5.9892192,37.4030436],[-5.9892339,37.402934],[-5.9892339,37.4028361],[-5.9892004,37.4026983],[-5.9892359,37.40268],[-5.9892882,37.40269],[-5.989399,37.402758],[-5.989424,37.4026252],[-5.9927442,37.3974166],[-5.99308,37.3971746],[-5.9932149,37.3971148],[-5.9932928,37.3970262],[-5.9933836,37.3969767],[-5.9938058,37.3967448],[-5.994027,37.396751],[-5.994374,37.39685],[-5.994618,37.396413],[-5.994787,37.396096],[-5.994908,37.395763],[-5.995151,37.394856],[-5.995272,37.39437],[-5.995298,37.393904],[-5.9953414,37.3937572],[-5.995446,37.393623],[-5.995615,37.39345],[-5.995644,37.393115],[-5.995643,37.39272],[-5.995643,37.39272],[-5.994924,37.392751],[-5.994797,37.391803],[-5.994542,37.390976],[-5.994542,37.390976],[-5.994258,37.389845],[-5.994175,37.389143],[-5.994151,37.388605],[-5.994169,37.388187],[-5.994296,37.388071],[-5.9943041,37.3879286],[-5.9942267,37.38731],[-5.9941493,37.386713],[-5.9940679,37.3860718],[-5.9940344,37.3857616],[-5.993999,37.385447],[-5.9934331,37.3854932],[-5.9929686,37.3855304],[-5.992619,37.385552],[-5.9926646,37.3858225],[-5.99271,37.386038],[-5.992325,37.386077],[-5.992365,37.386288],[-5.9924408,37.3863144],[-5.9924973,37.3863647],[-5.992537,37.386555],[-5.992515,37.38666],[-5.992549,37.386763],[-5.992807,37.386777],[-5.993037,37.386751],[-5.993054,37.386917],[-5.9930245,37.3870101],[-5.9929267,37.3871073],[-5.992697,37.387288],[-5.992489,37.387452],[-5.992594,37.387654],[-5.992704,37.387858],[-5.99277,37.38804],[-5.9927937,37.3883437],[-5.992748,37.388584],[-5.992999,37.388611],[-5.993264,37.388615],[-5.993288,37.389051],[-5.99338,37.389346],[-5.993302,37.389446],[-5.993273,37.38953],[-5.992781,37.389701],[-5.991765,37.389785],[-5.991357,37.389798],[-5.991092,37.38979],[-5.990856,37.389772],[-5.990668,37.389983],[-5.9903819,37.3904418],[-5.9902529,37.3906875],[-5.9904359,37.3907404],[-5.9903251,37.390862],[-5.990158,37.3910193],[-5.9900213,37.3911556],[-5.9899727,37.3912233],[-5.9899556,37.3912991],[-5.989917,37.3914874],[-5.9898587,37.392028],[-5.9895558,37.392526],[-5.9898184,37.3924826],[-5.9898312,37.3924759],[-5.9901148,37.3924879],[-5.9903768,37.3925363],[-5.9902164,37.3928756],[-5.9903347,37.393151],[-5.990432,37.3934597],[-5.9904658,37.3935916],[-5.9904319,37.3938626],[-5.9903777,37.3942539],[-5.990316,37.394559],[-5.99027,37.394863],[-5.991097,37.39524],[-5.99157,37.39655],[-5.9912923,37.3972341],[-5.9914681,37.397566],[-5.9916071,37.3979461],[-5.9915662,37.3981474],[-5.9917011,37.3990958],[-5.9917749,37.400301],[-5.9907855,37.4003335],[-5.9905279,37.4003432],[-5.9901518,37.4004537],[-5.9901856,37.4007084],[-5.9902254,37.4009993],[-5.9902949,37.4012137],[-5.9903399,37.4016424],[-5.990438,37.4023798],[-5.9909447,37.4023668],[-5.9909509,37.4027819],[-5.9909365,37.4031982],[-5.989697,37.4030428],[-5.9892192,37.4030436]]}},{"type":"Feature","properties":{"id_hdad":45,"hermandad":"La Macarena","calle":"Plaza de la Esperanza Macarena"},"geometry":{"type":"Point","coordinates":[-5.9892192,37.4030436]}},{"type":"Feature","properties":{"id_hdad":45,"hermandad":"La Macarena","calle":"Calle Resolana"},"geometry":{"type":"Point","coordinates":[-5.9892359,37.40268]}},{"type":"Feature","properties":{"id_hdad":45,"hermandad":"La Macarena","calle":"Calle Feria"},"geometry":{"type":"Point","coordinates":[-5.989424,37.4026252]}},{"type":"Feature","properties":{"id_hdad":45,"hermandad":"La Macarena","calle":"Calle Correduría"},"geometry":{"type":"Point","coordinates":[-5.9927442,37.3974166]}},{"type":"Feature","properties":{"id_hdad":45,"hermandad":"La Macarena","calle":"Alameda de Hércules"},"geometry":{"type":"Point","coordinates":[-5.9933836,37.3969767]}},{"type":"Feature","properties":{"id_hdad":45,"hermandad":"La Macarena","calle":"Calle Trajano"},"geometry":{"type":"Point","coordinates":[-5.994618,37.396413]}},{"type":"Feature","properties":{"id_hdad":45,"hermandad":"La Macarena","calle":"Plaza del Duque de la Victoria"},"geometry":{"type":"Point","coordinates":[-5.995272,37.39437]}},{"type":"Feature","properties":{"id_hdad":45,"hermandad":"La Macarena","calle":"La Campana"},"geometry":{"type":"Point","coordinates":[-5.995644,37.393115]}},{"type":"Feature","properties":{"id_hdad":45,"hermandad":"La Macarena","calle":"Calle Sierpes"},"geometry":{"type":"Point","coordinates":[-5.994542,37.390976]}},{"type":"Feature","properties":{"id_hdad":45,"hermandad":"La Macarena","calle":"Plaza de San Francisco"},"geometry":{"type":"Point","coordinates":[-5.994169,37.388187]}},{"type":"Feature","properties":{"id_hdad":45,"hermandad":"La Macarena","calle":"Avenida de la Constitución"},"geometry":{"type":"Point","coordinates":[-5.994185,37.386838]}},{"type":"Feature","properties":{"id_hdad":45,"hermandad":"La Macarena","calle":"Calle Cardenal Carlos Amigo"},"geometry":{"type":"Point","coordinates":[-5.9934331,37.3854932]}},{"type":"Feature","properties":{"id_hdad":45,"hermandad":"La Macarena","calle":"Calle Alemanes"},"geometry":{"type":"Point","coordinates":[-5.99271,37.386038]}},{"type":"Feature","properties":{"id_hdad":45,"hermandad":"La Macarena","calle":"Calle Álvarez Quintero"},"geometry":{"type":"Point","coordinates":[-5.9924973,37.3863647]}},{"type":"Feature","properties":{"id_hdad":45,"hermandad":"La Macarena","calle":"Calle Argote de Molina"},"geometry":{"type":"Point","coordinates":[-5.992807,37.386777]}},{"type":"Feature","properties":{"id_hdad":45,"hermandad":"La Macarena","calle":"Calle Placentines"},"geometry":{"type":"Point","coordinates":[-5.9929267,37.3871073]}},{"type":"Feature","properties":{"id_hdad":45,"hermandad":"La Macarena","calle":"Calle Francos"},"geometry":{"type":"Point","coordinates":[-5.992704,37.387858]}},{"type":"Feature","properties":{"id_hdad":45,"hermandad":"La Macarena","calle":"Calle Chapineros"},"geometry":{"type":"Point","coordinates":[-5.992999,37.388611]}},{"type":"Feature","properties":{"id_hdad":45,"hermandad":"La Macarena","calle":"Calle Álvarez Quintero"},"geometry":{"type":"Point","coordinates":[-5.993288,37.389051]}},{"type":"Feature","properties":{"id_hdad":45,"hermandad":"La Macarena","calle":"Calle Villegas"},"geometry":{"type":"Point","coordinates":[-5.993273,37.38953]}},{"type":"Feature","properties":{"id_hdad":45,"hermandad":"La Macarena","calle":"Cuesta del Rosario"},"geometry":{"type":"Point","coordinates":[-5.991765,37.389785]}},{"type":"Feature","properties":{"id_hdad":45,"hermandad":"La Macarena","calle":"Calle Jesús de las Tres Caídas"},"geometry":{"type":"Point","coordinates":[-5.991092,37.38979]}},{"type":"Feature","properties":{"id_hdad":45,"hermandad":"La Macarena","calle":"Calle Odreros"},"geometry":{"type":"Point","coordinates":[-5.9903819,37.3904418]}},{"type":"Feature","properties":{"id_hdad":45,"hermandad":"La Macarena","calle":"Calle Boteros"},"geometry":{"type":"Point","coordinates":[-5.9904478,37.3907416]}},{"type":"Feature","properties":{"id_hdad":45,"hermandad":"La Macarena","calle":"Plaza del Cristo de Burgos"},"geometry":{"type":"Point","coordinates":[-5.9895836,37.391943]}},{"type":"Feature","properties":{"id_hdad":45,"hermandad":"La Macarena","calle":"Plaza de San Pedro"},"geometry":{"type":"Point","coordinates":[-5.9899787,37.3924826]}},{"type":"Feature","properties":{"id_hdad":45,"hermandad":"La Macarena","calle":"Calle Santa Ángela de la Cruz"},"geometry":{"type":"Point","coordinates":[-5.990366,37.394231]}},{"type":"Feature","properties":{"id_hdad":45,"hermandad":"La Macarena","calle":"Calle San Juan de la Palma"},"geometry":{"type":"Point","coordinates":[-5.991095,37.39524]}},{"type":"Feature","properties":{"id_hdad":45,"hermandad":"La Macarena","calle":"Calle Madre María Purísima de la Cruz"},"geometry":{"type":"Point","coordinates":[-5.99157,37.39655]}},{"type":"Feature","properties":{"id_hdad":45,"hermandad":"La Macarena","calle":"Calle Feria"},"geometry":{"type":"Point","coordinates":[-5.99132,37.395688]}},{"type":"Feature","properties":{"id_hdad":45,"hermandad":"La Macarena","calle":"Calle Relator"},"geometry":{"type":"Point","coordinates":[-5.9909346,37.4003346]}},{"type":"Feature","properties":{"id_hdad":45,"hermandad":"La Macarena","calle":"Calle Parras"},"geometry":{"type":"Point","coordinates":[-5.9901856,37.4007084]}},{"type":"Feature","properties":{"id_hdad":45,"hermandad":"La Macarena","calle":"Calle Escoberos"},"geometry":{"type":"Point","coordinates":[-5.990438,37.4023798]}},{"type":"Feature","properties":{"id_hdad":45,"hermandad":"La Macarena","calle":"Calle Resolana"},"geometry":{"type":"Point","coordinates":[-5.9904787,37.4031758]}},{"type":"Feature","properties":{"id_hdad":45,"hermandad":"La Macarena","calle":"Arco de la Macarena"},"geometry":{"type":"Point","coordinates":[-5.9892187,37.4027797]}},{"type":"Feature","properties":{"id_hdad":45,"hermandad":"La Macarena","calle":"Plaza de la Esperanza Macarena"},"geometry":{"type":"Point","coordinates":[-5.9876,37.4035]}}]}