{"type":"FeatureCollection","features":[{"type":"Feature","properties":{"id_hdad":47,"nombre":"Esperanza de Triana","dia":"madruga"},"geometry":{"type":"LineString","coordinates":[[-6.003157,37.385451],[-6.002392,37.386329],[-6.0014333,37.3873918],[-6.0009286,37.3879185],[-6.00009,37.388725],[-5.999537,37.389252],[-5.997009,37.3882207],[-5.9968262,37.3885158],[-5.9949315,37.3886551],[-5.9950228,37.3895868],[-5.995125,37.3900509],[-5.9953197,37.3907871],[-5.995383,37.391055],[-5.9954178,37.3914794],[-5.9954615,37.3920765],[-5.995386,37.3924668],[-5.9954141,37.3927175],[-5.994924,37.392751],[-5.994797,37.391803],[-5.994542,37.390976],[-5.994258,37.389845],[-5.994175,37.389143],[-5.994151,37.388605],[-5.994169,37.388187],[-5.994296,37.388071],[-5.9943041,37.3879286],[-5.9942267,37.38731],[-5.9941493,37.386713],[-5.9940679,37.3860718],[-5.9940344,37.3857616],[-5.993999,37.385447],[-5.9934331,37.3854932],[-5.9929686,37.3855304],[-5.992619,37.385552],[-5.9926646,37.3858225],[-5.99271,37.386038],[-5.992325,37.386077],[-5.9922097,37.3856128],[-5.9921552,37.3853873],[-5.9920569,37.3853223],[-5.9919205,37.3852486],[-5.9918789,37.3851052],[-5.9920842,37.3849667],[-5.9925765,37.3851605],[-5.9927047,37.3851581],[-5.9928389,37.3851581],[-5.993126,37.38514],[-5.993709,37.3851],[-5.9939062,37.385106],[-5.9940433,37.385177],[-5.994367,37.385114],[-5.994479,37.385092],[-5.994578,37.385095],[-5.994644,37.385178],[-5.99475,37.38523],[-5.994849,37.385252],[-5.994996,37.385234],[-5.99533,37.385144],[-5.995319,37.385249],[-5.9953389,37.3853752],[-5.995359,37.385525],[-5.995383,37.385608],[-5.995439,37.385668],[-5.995601,37.385837],[-5.9959447,37.386045],[-5.9964187,37.3862747],[-5.9965767,37.3862818],[-5.9966661,37.3862179],[-5.997544,37.386488],[-6.0010719,37.3838877],[-6.0003456,37.38316],[-6.0008969,37.3827991],[-6.0014042,37.3832769],[-6.0017254,37.382998],[-6.0019334,37.3827402],[-6.0021391,37.3824519],[-6.002634,37.3826858],[-6.0032246,37.3828885],[-6.0041016,37.383115],[-6.0046144,37.3833026],[-6.0050874,37.3837082],[-6.0017226,37.3844884]]}},{"type":"Feature","properties":{"id_hdad":47,"hermandad":"Esperanza de Triana","calle":"Calle Pureza"},"geometry":{"type":"Point","coordinates":[-6.0017226,37.3844884]}},{"type":"Feature","properties":{"id_hdad":47,"hermandad":"Esperanza de Triana","calle":"Plaza del Altozano"},"geometry":{"type":"Point","coordinates":[-6.003157,37.385451]}},{"type":"Feature","properties":{"id_hdad":47,"hermandad":"Esperanza de Triana","calle":"Puente de Isabel II"},"geometry":{"type":"Point","coordinates":[-6.0014333,37.3873918]}},{"type":"Feature","properties":{"id_hdad":47,"hermandad":"Esperanza de Triana","calle":"Calle Reyes Católicos"},"geometry":{"type":"Point","coordinates":[-6.0009286,37.3879185]}},{"type":"Feature","properties":{"id_hdad":47,"hermandad":"Esperanza de Triana","calle":"Calle Puerta de Triana"},"geometry":{"type":"Point","coordinates":[-5.999537,37.389252]}},{"type":"Feature","properties":{"id_hdad":47,"hermandad":"Esperanza de Triana","calle":"Calle Zaragoza"},"geometry":{"type":"Point","coordinates":[-5.997009,37.3882207]}},{"type":"Feature","properties":{"id_hdad":47,"hermandad":"Esperanza de Triana","calle":"Calle Madrid"},"geometry":{"type":"Point","coordinates":[-5.9949315,37.3886551]}},{"type":"Feature","properties":{"id_hdad":47,"hermandad":"Esperanza de Triana","calle":"Plaza Nueva"},"geometry":{"type":"Point","coordinates":[-5.9950228,37.3895868]}},{"type":"Feature","properties":{"id_hdad":47,"hermandad":"Esperanza de Triana","calle":"Calle Tetuán"},"geometry":{"type":"Point","coordinates":[-5.9953197,37.3907871]}},{"type":"Feature","properties":{"id_hdad":47,"hermandad":"Esperanza de Triana","calle":"Calle Velázquez"},"geometry":{"type":"Point","coordinates":[-5.995383,37.391055]}},{"type":"Feature","properties":{"id_hdad":47,"hermandad":"Esperanza de Triana","calle":"Calle O'Donnell"},"geometry":{"type":"Point","coordinates":[-5.9954615,37.3920765]}},{"type":"Feature","properties":{"id_hdad":47,"hermandad":"Esperanza de Triana","calle":"Avenida de la Constitución"},"geometry":{"type":"Point","coordinates":[-5.994185,37.386838]}},{"type":"Feature","properties":{"id_hdad":47,"hermandad":"Esperanza de Triana","calle":"Plaza de San Francisco"},"geometry":{"type":"Point","coordinates":[-5.994169,37.388187]}},{"type":"Feature","properties":{"id_hdad":47,"hermandad":"Esperanza de Triana","calle":"Calle Sierpes"},"geometry":{"type":"Point","coordinates":[-5.9946698,37.3913397]}},{"type":"Feature","properties":{"id_hdad":47,"hermandad":"Esperanza de Triana","calle":"La Campana"},"geometry":{"type":"Point","coordinates":[-5.995376,37.392725]}},{"type":"Feature","properties":{"id_hdad":47,"hermandad":"Esperanza de Triana","calle":"Plaza del Triunfo"},"geometry":{"type":"Point","coordinates":[-5.9923797,37.3851842]}},{"type":"Feature","properties":{"id_hdad":47,"hermandad":"Esperanza de Triana","calle":"Calle Fray Ceferino González"},"geometry":{"type":"Point","coordinates":[-5.993126,37.38514]}},{"type":"Feature","properties":{"id_hdad":47,"hermandad":"Esperanza de Triana","calle":"Calle Almirantazgo"},"geometry":{"type":"Point","coordinates":[-5.994479,37.385092]}},{"type":"Feature","properties":{"id_hdad":47,"hermandad":"Esperanza de Triana","calle":"Calle Arco del Postigo"},"geometry":{"type":"Point","coordinates":[-5.994849,37.385252]}},{"type":"Feature","properties":{"id_hdad":47,"hermandad":"Esperanza de Triana","calle":"Calle Dos de Mayo"},"geometry":{"type":"Point","coordinates":[-5.9953389,37.3853752]}},{"type":"Feature","properties":{"id_hdad":47,"hermandad":"Esperanza de Triana","calle":"Calle Arfe"},"geometry":{"type":"Point","coordinates":[-5.9959447,37.386045]}},{"type":"Feature","properties":{"id_hdad":47,"hermandad":"Esperanza de Triana","calle":"Calle Adriano"},"geometry":{"type":"Point","coordinates":[-5.997544,37.386488]}},{"type":"Feature","properties":{"id_hdad":47,"hermandad":"Esperanza de Triana","calle":"Calle Reyes Católicos"},"geometry":{"type":"Point","coordinates":[-6.0010719,37.3838877]}},{"type":"Feature","properties":{"id_hdad":47,"hermandad":"Esperanza de Triana","calle":"Puente de Isabel II"},"geometry":{"type":"Point","coordinates":[-6.0017254,37.382998]}},{"type":"Feature","properties":{"id_hdad":47,"hermandad":"Esperanza de Triana","calle":"Plaza del Altozano"},"geometry":{"type":"Point","coordinates":[-6.002634,37.3826858]}},{"type":"Feature","properties":{"id_hdad":47,"hermandad":"Esperanza de Triana","calle":"Calle San Jacinto"},"geometry":{"type":"Point","coordinates":[-6.0050874,37.3837082]}},{"type":"Feature","properties":{"id_hdad":47,"hermandad":"Esperanza de Triana","calle":"Calle Pureza"},"geometry":{"type":"Point","coordinates":[-6.0017226,37.3844884]}}]}