{"type": "FeatureCollection", "features": [{"type": "Feature", "properties": {"id_hdad": 54, "nombre": "Montserrat", "dia": "viernes-santo"}, "geometry": {"type": "LineString", "coordinates": [[-5.9988822, 37.39042], [-5.9982008, 37.3902826], [-5.9981625, 37.390293], [-5.997833, 37.3904967], [-5.9977859, 37.3906297], [-5.9975412, 37.3908855], [-5.9972471, 37.391091], [-5.9970127, 37.3912675], [-5.996081, 37.390949], [-5.9953857, 37.3910684], [-5.9954119, 37.3915315], [-5.9954456, 37.3918072], [-5.9954729, 37.3920186], [-5.995454, 37.392155], [-5.994185, 37.386838], [-5.9942267, 37.38731], [-5.9943041, 37.3879286], [-5.994296, 37.388071], [-5.994169, 37.388187], [-5.994151, 37.388605], [-5.994175, 37.389143], [-5.9942789, 37.389891], [-5.9945265, 37.3909721], [-5.9946698, 37.3913397], [-5.994797, 37.391803], [-5.994861, 37.3922847], [-5.994924, 37.392751], [-5.995414, 37.392722], [-5.992202, 37.384901], [-5.992298, 37.384886], [-5.99238, 37.384912], [-5.992547, 37.384984], [-5.992681, 37.385092], [-5.992824, 37.38514], [-5.993126, 37.38514], [-5.993709, 37.3851], [-5.993972, 37.385152], [-5.994367, 37.385114], [-5.9946016, 37.3850918], [-5.9947139, 37.3852071], [-5.9948075, 37.3852443], [-5.9949385, 37.3852331], [-5.9951972, 37.385176], [-5.9953598, 37.3851215], [-5.9953224, 37.3852665], [-5.9953317, 37.385378], [-5.9953972, 37.3856197], [-5.9954957, 37.3857758], [-5.9961928, 37.3861699], [-5.9961737, 37.3862092], [-5.9960848, 37.3862575], [-5.9961784, 37.3863579], [-5.9972329, 37.3872018], [-5.9978829, 37.3877064], [-5.9976929, 37.3878993], [-5.9974462, 37.3881554], [-5.997383, 37.3883309], [-5.9977618, 37.38845], [-5.998247, 37.3886694], [-5.9986533, 37.3888826], [-5.9989897, 37.3890495], [-5.9994237, 37.3893473], [-5.9990725, 37.3897046], [-5.9985321, 37.3900494], [-5.9981573, 37.3902876], [-5.9988822, 37.39042]]}}, {"type": "Feature", "properties": {"id_hdad": 54, "hermandad": "Montserrat", "calle": "Calle Cristo del Calvario"}, "geometry": {"type": "Point", "coordinates": [-5.9988822, 37.39042]}}, {"type": "Feature", "properties": {"id_hdad": 54, "hermandad": "Montserrat", "calle": "Calle San Pablo"}, "geometry": {"type": "Point", "coordinates": [-5.9982828, 37.3903844]}}, {"type": "Feature", "properties": {"id_hdad": 54, "hermandad": "Montserrat", "calle": "Calle Murillo"}, "geometry": {"type": "Point", "coordinates": [-5.9977859, 37.3906297]}}, {"type": "Feature", "properties": {"id_hdad": 54, "hermandad": "Montserrat", "calle": "Plaza de la Magdalena"}, "geometry": {"type": "Point", "coordinates": [-5.996838, 37.390749]}}, {"type": "Feature", "properties": {"id_hdad": 54, "hermandad": "Montserrat", "calle": "Calle Rioja"}, "geometry": {"type": "Point", "coordinates": [-5.9953857, 37.3910684]}}, {"type": "Feature", "properties": {"id_hdad": 54, "hermandad": "Montserrat", "calle": "Calle Velázquez"}, "geometry": {"type": "Point", "coordinates": [-5.9954456, 37.3918072]}}, {"type": "Feature", "properties": {"id_hdad": 54, "hermandad": "Montserrat", "calle": "Calle O'Donnell"}, "geometry": {"type": "Point", "coordinates": [-5.995454, 37.392155]}}, {"type": "Feature", "properties": {"id_hdad": 54, "hermandad": "Montserrat", "calle": "Avenida de la Constitución"}, "geometry": {"type": "Point", "coordinates": [-5.994185, 37.386838]}}, {"type": "Feature", "properties": {"id_hdad": 54, "hermandad": "Montserrat", "calle": "Plaza de San Francisco"}, "geometry": {"type": "Point", "coordinates": [-5.994169, 37.388187]}}, {"type": "Feature", "properties": {"id_hdad": 54, "hermandad": "Montserrat", "calle": "Calle Sierpes"}, "geometry": {"type": "Point", "coordinates": [-5.9946698, 37.3913397]}}, {"type": "Feature", "properties": {"id_hdad": 54, "hermandad": "Montserrat", "calle": "La Campana"}, "geometry": {"type": "Point", "coordinates": [-5.995414, 37.392722]}}, {"type": "Feature", "properties": {"id_hdad": 54, "hermandad": "Montserrat", "calle": "Plaza del Triunfo"}, "geometry": {"type": "Point", "coordinates": [-5.992202, 37.384901]}}, {"type": "Feature", "properties": {"id_hdad": 54, "hermandad": "Montserrat", "calle": "Calle Fray Ceferino González"}, "geometry": {"type": "Point", "coordinates": [-5.992547, 37.384984]}}, {"type": "Feature", "properties": {"id_hdad": 54, "hermandad": "Montserrat", "calle": "Calle Almirantazgo"}, "geometry": {"type": "Point", "coordinates": [-5.993709, 37.3851]}}, {"type": "Feature", "properties": {"id_hdad": 54, "hermandad": "Montserrat", "calle": "Calle Arco del Postigo"}, "geometry": {"type": "Point", "coordinates": [-5.9946016, 37.3850918]}}, {"type": "Feature", "properties": {"id_hdad": 54, "hermandad": "Montserrat", "calle": "Calle Dos de Mayo"}, "geometry": {"type": "Point", "coordinates": [-5.9951972, 37.385176]}}, {"type": "Feature", "properties": {"id_hdad": 54, "hermandad": "Montserrat", "calle": "Calle Arfe"}, "geometry": {"type": "Point", "coordinates": [-5.9953317, 37.385378]}}, {"type": "Feature", "properties": {"id_hdad": 54, "hermandad": "Montserrat", "calle": "Calle Puerta del Arenal"}, "geometry": {"type": "Point", "coordinates": [-5.9961737, 37.3862092]}}, {"type": "Feature", "properties": {"id_hdad": 54, "hermandad": "Montserrat", "calle": "Calle Castelar"}, "geometry": {"type": "Point", "coordinates": [-5.9972329, 37.3872018]}}, {"type": "Feature", "properties": {"id_hdad": 54, "hermandad": "Montserrat", "calle": "Plaza de Molviedro"}, "geometry": {"type": "Point", "coordinates": [-5.9974462, 37.3881554]}}, {"type": "Feature", "properties": {"id_hdad": 54, "hermandad": "Montserrat", "calle": "Calle Doña Guiomar"}, "geometry": {"type": "Point", "coordinates": [-5.9977618, 37.38845]}}, {"type": "Feature", "properties": {"id_hdad": 54, "hermandad": "Montserrat", "calle": "Calle Zaragoza"}, "geometry": {"type": "Point", "coordinates": [-5.9989897, 37.3890495]}}, {"type": "Feature", "properties": {"id_hdad": 54, "hermandad": "Montserrat", "calle": "Calle San Pablo"}, "geometry": {"type": "Point", "coordinates": [-5.9990725, 37.3897046]}}, {"type": "Feature", "properties": {"id_hdad": 54, "hermandad": "Montserrat", "calle": "Calle Cristo del Calvario"}, "geometry": {"type": "Point", "coordinates": [-5.9988822, 37.39042]}}]}