{"type": "FeatureCollection", "features": [{"type": "Feature", "properties": {"id_hdad": 55, "nombre": "La Mortaja", "dia": "viernes-santo"}, "geometry": {"type": "LineString", "coordinates": [[-5.9879513, 37.3950582], [-5.987947, 37.3949451], [-5.9879858, 37.3948218], [-5.988238, 37.3948513], [-5.9896128, 37.394734], [-5.991095, 37.39524], [-5.99157, 37.39655], [-5.99132, 37.395688], [-5.9881471, 37.3963447], [-5.9922441, 37.3959471], [-5.9924262, 37.3961959], [-5.9927646, 37.3961458], [-5.9934936, 37.3952807], [-5.9940296, 37.39453], [-5.994448, 37.3945001], [-5.9946464, 37.3944977], [-5.994758, 37.393914], [-5.9947526, 37.3942963], [-5.995328, 37.394392], [-5.99537, 37.393742], [-5.995446, 37.393623], [-5.995615, 37.39345], [-5.995644, 37.393115], [-5.995643, 37.39272], [-5.994924, 37.392751], [-5.994797, 37.391803], [-5.994542, 37.390976], [-5.994258, 37.389845], [-5.994175, 37.389143], [-5.994151, 37.388605], [-5.994169, 37.388187], [-5.994296, 37.388071], [-5.9943041, 37.3879286], [-5.9942267, 37.38731], [-5.9941493, 37.386713], [-5.9940679, 37.3860718], [-5.9940344, 37.3857616], [-5.993999, 37.385447], [-5.9934331, 37.3854932], [-5.9929686, 37.3855304], [-5.992619, 37.385552], [-5.9926646, 37.3858225], [-5.99271, 37.386038], [-5.992325, 37.386077], [-5.992343, 37.386298], [-5.992461, 37.386331], [-5.992523, 37.386502], [-5.99252, 37.386657], [-5.992542, 37.386755], [-5.992745, 37.386784], [-5.993037, 37.386751], [-5.993054, 37.386917], [-5.9930245, 37.3870101], [-5.9929267, 37.3871073], [-5.992697, 37.387288], [-5.992489, 37.387452], [-5.992594, 37.387654], [-5.992704, 37.387858], [-5.99277, 37.38804], [-5.992784, 37.388285], [-5.992744, 37.388583], [-5.992621, 37.388828], [-5.992568, 37.389176], [-5.992542, 37.389426], [-5.992353, 37.389737], [-5.991765, 37.389785], [-5.991357, 37.389798], [-5.991092, 37.38979], [-5.990856, 37.389772], [-5.990668, 37.389983], [-5.9903819, 37.3904418], [-5.9902529, 37.3906875], [-5.9904478, 37.3907416], [-5.9903251, 37.390862], [-5.990158, 37.3910193], [-5.9900213, 37.3911556], [-5.9899556, 37.3912991], [-5.989917, 37.3914874], [-5.9898384, 37.3923782], [-5.9897195, 37.3928768], [-5.9896104, 37.3932572], [-5.9895497, 37.3934523], [-5.9894588, 37.3936786], [-5.9891505, 37.3943286], [-5.9890297, 37.3945377], [-5.9886372, 37.3947981], [-5.988238, 37.3948513], [-5.9879858, 37.3948218], [-5.987947, 37.3949451], [-5.9879513, 37.3950582]]}}, {"type": "Feature", "properties": {"id_hdad": 55, "hermandad": "La Mortaja", "calle": "Calle Bustos Tavera", "osm": "Calle Bustos Tavera"}, "geometry": {"type": "Point", "coordinates": [-5.9879513, 37.3950582]}}, {"type": "Feature", "properties": {"id_hdad": 55, "hermandad": "La Mortaja", "calle": "Calle Doña María Coronel", "osm": "Calle Doña María Coronel"}, "geometry": {"type": "Point", "coordinates": [-5.988238, 37.3948513]}}, {"type": "Feature", "properties": {"id_hdad": 55, "hermandad": "La Mortaja", "calle": "Calle Dueñas", "osm": "Calle Dueñas"}, "geometry": {"type": "Point", "coordinates": [-5.9896128, 37.394734]}}, {"type": "Feature", "properties": {"id_hdad": 55, "hermandad": "La Mortaja", "calle": "Calle San Juan de la Palma", "osm": "Calle San Juan de la Palma"}, "geometry": {"type": "Point", "coordinates": [-5.991095, 37.39524]}}, {"type": "Feature", "properties": {"id_hdad": 55, "hermandad": "La Mortaja", "calle": "Calle Madre María Purísima de la Cruz", "osm": "Calle Madre María Purísima de la Cruz"}, "geometry": {"type": "Point", "coordinates": [-5.99157, 37.39655]}}, {"type": "Feature", "properties": {"id_hdad": 55, "hermandad": "La Mortaja", "calle": "Calle Feria", "osm": "Calle Feria"}, "geometry": {"type": "Point", "coordinates": [-5.99132, 37.395688]}}, {"type": "Feature", "properties": {"id_hdad": 55, "hermandad": "La Mortaja", "calle": "Calle Castellar", "osm": "Calle Castellar"}, "geometry": {"type": "Point", "coordinates": [-5.9881471, 37.3963447]}}, {"type": "Feature", "properties": {"id_hdad": 55, "hermandad": "La Mortaja", "calle": "Calle Alberto Lista", "osm": "Calle Alberto Lista"}, "geometry": {"type": "Point", "coordinates": [-5.9922441, 37.3959471]}}, {"type": "Feature", "properties": {"id_hdad": 55, "hermandad": "La Mortaja", "calle": "Calle Saavedras", "osm": "Calle Saavedras"}, "geometry": {"type": "Point", "coordinates": [-5.9924262, 37.3961959]}}, {"type": "Feature", "properties": {"id_hdad": 55, "hermandad": "La Mortaja", "calle": "Plaza de San Martín", "osm": "Plaza de San Martín"}, "geometry": {"type": "Point", "coordinates": [-5.9927646, 37.3961458]}}, {"type": "Feature", "properties": {"id_hdad": 55, "hermandad": "La Mortaja", "calle": "Calle Cervantes", "osm": "Calle Cervantes"}, "geometry": {"type": "Point", "coordinates": [-5.9934936, 37.3952807]}}, {"type": "Feature", "properties": {"id_hdad": 55, "hermandad": "La Mortaja", "calle": "Calle San Andrés", "osm": "Calle San Andrés"}, "geometry": {"type": "Point", "coordinates": [-5.9940296, 37.39453]}}, {"type": "Feature", "properties": {"id_hdad": 55, "hermandad": "La Mortaja", "calle": "Calle García Tassara", "osm": "Calle García Tassara"}, "geometry": {"type": "Point", "coordinates": [-5.994448, 37.3945001]}}, {"type": "Feature", "properties": {"id_hdad": 55, "hermandad": "La Mortaja", "calle": "Calle Amor de Dios", "osm": "Calle Amor de Dios"}, "geometry": {"type": "Point", "coordinates": [-5.994758, 37.393914]}}, {"type": "Feature", "properties": {"id_hdad": 55, "hermandad": "La Mortaja", "calle": "Calle San Miguel", "osm": "Calle San Miguel"}, "geometry": {"type": "Point", "coordinates": [-5.995328, 37.394392]}}, {"type": "Feature", "properties": {"id_hdad": 55, "hermandad": "La Mortaja", "calle": "Calle Trajano", "osm": "Calle Trajano"}, "geometry": {"type": "Point", "coordinates": [-5.99537, 37.393742]}}, {"type": "Feature", "properties": {"id_hdad": 55, "hermandad": "La Mortaja", "calle": "Plaza del Duque de la Victoria (lado derecho)", "osm": "Plaza del Duque de la Victoria (lado derecho)"}, "geometry": {"type": "Point", "coordinates": [-5.995633, 37.393113]}}, {"type": "Feature", "properties": {"id_hdad": 55, "hermandad": "La Mortaja", "calle": "La Campana", "osm": "La Campana"}, "geometry": {"type": "Point", "coordinates": [-5.995376, 37.392725]}}, {"type": "Feature", "properties": {"id_hdad": 55, "hermandad": "La Mortaja", "calle": "Calle Sierpes", "osm": "Calle Sierpes"}, "geometry": {"type": "Point", "coordinates": [-5.9947885, 37.3908748]}}, {"type": "Feature", "properties": {"id_hdad": 55, "hermandad": "La Mortaja", "calle": "Plaza de San Francisco", "osm": "Plaza de San Francisco"}, "geometry": {"type": "Point", "coordinates": [-5.994154, 37.38867]}}, {"type": "Feature", "properties": {"id_hdad": 55, "hermandad": "La Mortaja", "calle": "Avenida de la Constitución", "osm": "Avenida de la Constitución"}, "geometry": {"type": "Point", "coordinates": [-5.994185, 37.386838]}}, {"type": "Feature", "properties": {"id_hdad": 55, "hermandad": "La Mortaja", "calle": "Calle Cardenal Carlos Amigo", "osm": "Calle Cardenal Carlos Amigo"}, "geometry": {"type": "Point", "coordinates": [-5.992537, 37.386555]}}, {"type": "Feature", "properties": {"id_hdad": 55, "hermandad": "La Mortaja", "calle": "Calle Alemanes", "osm": "Calle Alemanes"}, "geometry": {"type": "Point", "coordinates": [-5.992807, 37.386777]}}, {"type": "Feature", "properties": {"id_hdad": 55, "hermandad": "La Mortaja", "calle": "Calle Álvarez Quintero", "osm": "Calle Álvarez Quintero"}, "geometry": {"type": "Point", "coordinates": [-5.993054, 37.386917]}}, {"type": "Feature", "properties": {"id_hdad": 55, "hermandad": "La Mortaja", "calle": "Calle Argote de Molina", "osm": "Calle Argote de Molina"}, "geometry": {"type": "Point", "coordinates": [-5.992697, 37.387288]}}, {"type": "Feature", "properties": {"id_hdad": 55, "hermandad": "La Mortaja", "calle": "Calle Placentines", "osm": "Calle Placentines"}, "geometry": {"type": "Point", "coordinates": [-5.992594, 37.387654]}}, {"type": "Feature", "properties": {"id_hdad": 55, "hermandad": "La Mortaja", "calle": "Calle Francos", "osm": "Calle Francos"}, "geometry": {"type": "Point", "coordinates": [-5.992784, 37.388285]}}, {"type": "Feature", "properties": {"id_hdad": 55, "hermandad": "La Mortaja", "calle": "Cuesta del Rosario", "osm": "Cuesta del Rosario"}, "geometry": {"type": "Point", "coordinates": [-5.991765, 37.389785]}}, {"type": "Feature", "properties": {"id_hdad": 55, "hermandad": "La Mortaja", "calle": "Calle Jesús de las Tres Caídas", "osm": "Calle Jesús de las Tres Caídas"}, "geometry": {"type": "Point", "coordinates": [-5.990668, 37.389983]}}, {"type": "Feature", "properties": {"id_hdad": 55, "hermandad": "La Mortaja", "calle": "Calle Odreros", "osm": "Calle Odreros"}, "geometry": {"type": "Point", "coordinates": [-5.9903819, 37.3904418]}}, {"type": "Feature", "properties": {"id_hdad": 55, "hermandad": "La Mortaja", "calle": "Calle Boteros", "osm": "Calle Boteros"}, "geometry": {"type": "Point", "coordinates": [-5.99075, 37.3908772]}}, {"type": "Feature", "properties": {"id_hdad": 55, "hermandad": "La Mortaja", "calle": "Calle Sales y Ferré", "osm": "Calle Sales y Ferré"}, "geometry": {"type": "Point", "coordinates": [-5.9901652, 37.391109]}}, {"type": "Feature", "properties": {"id_hdad": 55, "hermandad": "La Mortaja", "calle": "Plaza del Cristo de Burgos", "osm": "Plaza del Cristo de Burgos"}, "geometry": {"type": "Point", "coordinates": [-5.9895944, 37.3919974]}}, {"type": "Feature", "properties": {"id_hdad": 55, "hermandad": "La Mortaja", "calle": "Calle Doña María Coronel", "osm": "Calle Doña María Coronel"}, "geometry": {"type": "Point", "coordinates": [-5.9891982, 37.3942806]}}, {"type": "Feature", "properties": {"id_hdad": 55, "hermandad": "La Mortaja", "calle": "Calle Bustos Tavera", "osm": "Calle Bustos Tavera"}, "geometry": {"type": "Point", "coordinates": [-5.9879513, 37.3950582]}}]}