{"type": "FeatureCollection", "features": [{"type": "Feature", "properties": {"id_hdad": 56, "nombre": "El Sol", "dia": "sabado-santo"}, "geometry": {"type": "LineString", "coordinates": [[-5.9740269, 37.3757497], [-5.9737084, 37.3755256], [-5.9734423, 37.3757955], [-5.9733327, 37.375978], [-5.9730508, 37.3765837], [-5.973946, 37.3768476], [-5.9751673, 37.3772123], [-5.9762881, 37.3775866], [-5.9785116, 37.3785252], [-5.9794129, 37.3788031], [-5.9801633, 37.3788792], [-5.9813265, 37.3791377], [-5.9826058, 37.3795293], [-5.9842341, 37.3799597], [-5.986409, 37.3805365], [-5.9875664, 37.3808503], [-5.9880872, 37.3811107], [-5.9882708, 37.3812471], [-5.9886858, 37.3813803], [-5.9892706, 37.3813886], [-5.9893698, 37.3814716], [-5.9882289, 37.38344], [-5.9868146, 37.3859135], [-5.9873414, 37.3863291], [-5.9881782, 37.3870909], [-5.9889261, 37.3880054], [-5.9892054, 37.3884397], [-5.9896388, 37.3885641], [-5.9897954, 37.3887342], [-5.989934004001618, 37.38901791442554], [-5.9900158, 37.3892774], [-5.9900672, 37.3894256], [-5.9899891, 37.389595], [-5.9901589083914715, 37.38984005540638], [-5.9902418, 37.3900667], [-5.9903449, 37.390137], [-5.9904676, 37.3902018], [-5.9907215, 37.3898973], [-5.9908586, 37.3897675], [-5.9912822, 37.389819], [-5.9919081, 37.3897769], [-5.99276171628195, 37.38971492214055], [-5.993087, 37.389679], [-5.9931304, 37.3900138], [-5.9931499, 37.3901788], [-5.993218, 37.3902098], [-5.9937884, 37.390125], [-5.9941893, 37.3900872], [-5.9944847, 37.3900666], [-5.9945761, 37.3900455], [-5.9946339, 37.3899897], [-5.9947437, 37.3899779], [-5.9948499, 37.3899568], [-5.9950795, 37.3899109], [-5.9951669, 37.3902317], [-5.9954035, 37.3911654], [-5.9954456, 37.3918072], [-5.995454, 37.392155], [-5.995386, 37.3924668], [-5.9954113, 37.3927179], [-5.994924, 37.392751], [-5.994861, 37.3922847], [-5.994797, 37.391803], [-5.9946698, 37.3913397], [-5.9945017, 37.3908622], [-5.994258, 37.389845], [-5.994175, 37.389143], [-5.994154, 37.38867], [-5.994169, 37.388187], [-5.994296, 37.388071], [-5.9943041, 37.3879286], [-5.9942267, 37.38731], [-5.994185, 37.386838], [-5.9940344, 37.3857616], [-5.993999, 37.385447], [-5.9934331, 37.3854932], [-5.9929686, 37.3855304], [-5.992619, 37.385552], [-5.9926646, 37.3858225], [-5.99271, 37.386038], [-5.992325, 37.386077], [-5.9922162, 37.3855949], [-5.9921519, 37.3853995], [-5.9920345, 37.385324], [-5.9919283, 37.3852485], [-5.9918473, 37.3851486], [-5.9918473, 37.3850842], [-5.9921519, 37.3849399], [-5.9924191, 37.384767], [-5.9923917, 37.3845631], [-5.9922662, 37.3843614], [-5.9925309, 37.3841793], [-5.9926543, 37.3840931], [-5.992504, 37.3837765], [-5.992534, 37.3836746], [-5.992725, 37.3835554], [-5.9927687, 37.3834448], [-5.9929542, 37.3830633], [-5.9931343, 37.3827254], [-5.9932445, 37.3823466], [-5.9909424, 37.38181], [-5.9896477, 37.3814278], [-5.9889892, 37.3813771], [-5.9886899, 37.3813771], [-5.9885292, 37.3813223], [-5.9882708, 37.3812471], [-5.9880872, 37.3811107], [-5.9875664, 37.3808503], [-5.986409, 37.3805365], [-5.9842341, 37.3799597], [-5.9826058, 37.3795293], [-5.9813265, 37.3791377], [-5.9801734, 37.3788825], [-5.9794102, 37.378796], [-5.9788736, 37.3786345], [-5.9787548, 37.378406], [-5.9784332, 37.3783528], [-5.9780987, 37.3782163], [-5.9775048, 37.3779629], [-5.9773016, 37.3774839], [-5.9769484, 37.3771585], [-5.9768625, 37.377051], [-5.9758935, 37.3762537], [-5.9747552, 37.3752678], [-5.9744064, 37.3749953], [-5.9736907, 37.3755243], [-5.974022, 37.3757603]]}}, {"type": "Feature", "properties": {"id_hdad": 56, "hermandad": "El Sol", "calle": "Plaza del Aljarafe", "osm": "Plaza del Aljarafe"}, "geometry": {"type": "Point", "coordinates": [-5.974098, 37.3758385]}}, {"type": "Feature", "properties": {"id_hdad": 56, "hermandad": "El Sol", "calle": "Calle Virgen del Sol", "osm": "Calle Virgen del Sol"}, "geometry": {"type": "Point", "coordinates": [-5.9734578, 37.3757912]}}, {"type": "Feature", "properties": {"id_hdad": 56, "hermandad": "El Sol", "calle": "Calle Ramón y Cajal", "osm": "Calle Ramón y Cajal"}, "geometry": {"type": "Point", "coordinates": [-5.9734173, 37.3766599]}}, {"type": "Feature", "properties": {"id_hdad": 56, "hermandad": "El Sol", "calle": "Calle Enramadilla", "osm": "Calle Enramadilla"}, "geometry": {"type": "Point", "coordinates": [-5.9813265, 37.3791377]}}, {"type": "Feature", "properties": {"id_hdad": 56, "hermandad": "El Sol", "calle": "Glorieta Doña María de las Mercedes de Borbón y Orleans", "osm": "Glorieta Doña María de las Mercedes de Borbón y Orleans"}, "geometry": {"type": "Point", "coordinates": [-5.9826, 37.3794]}}, {"type": "Feature", "properties": {"id_hdad": 56, "hermandad": "El Sol", "calle": "Avenida de Carlos V", "osm": "Avenida de Carlos V"}, "geometry": {"type": "Point", "coordinates": [-5.9842341, 37.3799597]}}, {"type": "Feature", "properties": {"id_hdad": 56, "hermandad": "El Sol", "calle": "Plaza de Don Juan de Austria", "osm": "Plaza de Don Juan de Austria"}, "geometry": {"type": "Point", "coordinates": [-5.9884405, 37.3812823]}}, {"type": "Feature", "properties": {"id_hdad": 56, "hermandad": "El Sol", "calle": "Calle Paseo de Catalina de Ribera", "osm": "Calle Paseo de Catalina de Ribera"}, "geometry": {"type": "Point", "coordinates": [-5.9882289, 37.38344]}}, {"type": "Feature", "properties": {"id_hdad": 56, "hermandad": "El Sol", "calle": "Calle Cano y Cueto", "osm": "Calle Cano y Cueto"}, "geometry": {"type": "Point", "coordinates": [-5.9870272, 37.3856852]}}, {"type": "Feature", "properties": {"id_hdad": 56, "hermandad": "El Sol", "calle": "Calle Santa María la Blanca", "osm": "Calle Santa María la Blanca"}, "geometry": {"type": "Point", "coordinates": [-5.9873414, 37.3863291]}}, {"type": "Feature", "properties": {"id_hdad": 56, "hermandad": "El Sol", "calle": "Calle San José", "osm": "Calle San José"}, "geometry": {"type": "Point", "coordinates": [-5.9889261, 37.3880054]}}, {"type": "Feature", "properties": {"id_hdad": 56, "hermandad": "El Sol", "calle": "Plaza Nuestro Padre Jesús de la Salud", "osm": "Plaza Nuestro Padre Jesús de la Salud"}, "geometry": {"type": "Point", "coordinates": [-5.9892314, 37.3885302]}}, {"type": "Feature", "properties": {"id_hdad": 56, "hermandad": "El Sol", "calle": "Calle Muñoz y Pabón", "osm": "Calle Muñoz y Pabón"}, "geometry": {"type": "Point", "coordinates": [-5.989934004001618, 37.38901791442554]}}, {"type": "Feature", "properties": {"id_hdad": 56, "hermandad": "El Sol", "calle": "Calle Cabeza del Rey Don Pedro", "osm": "Calle Cabeza del Rey Don Pedro"}, "geometry": {"type": "Point", "coordinates": [-5.99003, 37.3895097]}}, {"type": "Feature", "properties": {"id_hdad": 56, "hermandad": "El Sol", "calle": "Calle Candilejo", "osm": "Calle Candilejo"}, "geometry": {"type": "Point", "coordinates": [-5.9901589083914715, 37.38984005540638]}}, {"type": "Feature", "properties": {"id_hdad": 56, "hermandad": "El Sol", "calle": "Calle Alfalfa", "osm": "Calle Alfalfa"}, "geometry": {"type": "Point", "coordinates": [-5.9903449, 37.390137]}}, {"type": "Feature", "properties": {"id_hdad": 56, "hermandad": "El Sol", "calle": "Calle Jesús de las Tres Caídas", "osm": "Calle Jesús de las Tres Caídas"}, "geometry": {"type": "Point", "coordinates": [-5.990668, 37.389983]}}, {"type": "Feature", "properties": {"id_hdad": 56, "hermandad": "El Sol", "calle": "Cuesta del Rosario", "osm": "Cuesta del Rosario"}, "geometry": {"type": "Point", "coordinates": [-5.991877737588801, 37.389764333519445]}}, {"type": "Feature", "properties": {"id_hdad": 56, "hermandad": "El Sol", "calle": "Calle Villegas", "osm": "Calle Villegas"}, "geometry": {"type": "Point", "coordinates": [-5.99276171628195, 37.38971492214055]}}, {"type": "Feature", "properties": {"id_hdad": 56, "hermandad": "El Sol", "calle": "Plaza del Salvador", "osm": "Plaza del Salvador"}, "geometry": {"type": "Point", "coordinates": [-5.993152, 37.390033]}}, {"type": "Feature", "properties": {"id_hdad": 56, "hermandad": "El Sol", "calle": "Calle Sagasta", "osm": "Calle Sagasta"}, "geometry": {"type": "Point", "coordinates": [-5.9937797, 37.3901395]}}, {"type": "Feature", "properties": {"id_hdad": 56, "hermandad": "El Sol", "calle": "Calle Jovellanos", "osm": "Calle Jovellanos"}, "geometry": {"type": "Point", "coordinates": [-5.9947086, 37.3899991]}}, {"type": "Feature", "properties": {"id_hdad": 56, "hermandad": "El Sol", "calle": "Calle Tetuán", "osm": "Calle Tetuán"}, "geometry": {"type": "Point", "coordinates": [-5.9951669, 37.3902317]}}, {"type": "Feature", "properties": {"id_hdad": 56, "hermandad": "El Sol", "calle": "Calle Velázquez", "osm": "Calle Velázquez"}, "geometry": {"type": "Point", "coordinates": [-5.9954035, 37.3911654]}}, {"type": "Feature", "properties": {"id_hdad": 56, "hermandad": "El Sol", "calle": "Calle O'Donnell", "osm": "Calle O'Donnell"}, "geometry": {"type": "Point", "coordinates": [-5.995454, 37.392155]}}, {"type": "Feature", "properties": {"id_hdad": 56, "hermandad": "El Sol", "calle": "La Campana", "osm": "La Campana"}, "geometry": {"type": "Point", "coordinates": [-5.995376, 37.392725]}}, {"type": "Feature", "properties": {"id_hdad": 56, "hermandad": "El Sol", "calle": "Calle Sierpes", "osm": "Calle Sierpes"}, "geometry": {"type": "Point", "coordinates": [-5.9947314, 37.3915295]}}, {"type": "Feature", "properties": {"id_hdad": 56, "hermandad": "El Sol", "calle": "Plaza de San Francisco", "osm": "Plaza de San Francisco"}, "geometry": {"type": "Point", "coordinates": [-5.994154, 37.38867]}}, {"type": "Feature", "properties": {"id_hdad": 56, "hermandad": "El Sol", "calle": "Avenida de la Constitución", "osm": "Avenida de la Constitución"}, "geometry": {"type": "Point", "coordinates": [-5.994185, 37.386838]}}, {"type": "Feature", "properties": {"id_hdad": 56, "hermandad": "El Sol", "calle": "Plaza del Triunfo", "osm": "Plaza del Triunfo"}, "geometry": {"type": "Point", "coordinates": [-5.9920842, 37.3849667]}}, {"type": "Feature", "properties": {"id_hdad": 56, "hermandad": "El Sol", "calle": "Calle Miguel Mañara", "osm": "Calle Miguel Mañara"}, "geometry": {"type": "Point", "coordinates": [-5.992479, 37.3842205]}}, {"type": "Feature", "properties": {"id_hdad": 56, "hermandad": "El Sol", "calle": "Plaza de La Contratación", "osm": "Plaza de La Contratación"}, "geometry": {"type": "Point", "coordinates": [-5.992534, 37.383679]}}, {"type": "Feature", "properties": {"id_hdad": 56, "hermandad": "El Sol", "calle": "Calle San Gregorio", "osm": "Calle San Gregorio"}, "geometry": {"type": "Point", "coordinates": [-5.9928723, 37.383241]}}, {"type": "Feature", "properties": {"id_hdad": 56, "hermandad": "El Sol", "calle": "Plaza Puerta de Jerez", "osm": "Plaza Puerta de Jerez"}, "geometry": {"type": "Point", "coordinates": [-5.9932597, 37.3823431]}}, {"type": "Feature", "properties": {"id_hdad": 56, "hermandad": "El Sol", "calle": "Calle San Fernando", "osm": "Calle San Fernando"}, "geometry": {"type": "Point", "coordinates": [-5.9909424, 37.38181]}}, {"type": "Feature", "properties": {"id_hdad": 56, "hermandad": "El Sol", "calle": "Plaza de Don Juan de Austria", "osm": "Plaza de Don Juan de Austria"}, "geometry": {"type": "Point", "coordinates": [-5.9884405, 37.3812823]}}, {"type": "Feature", "properties": {"id_hdad": 56, "hermandad": "El Sol", "calle": "Avenida de Carlos V", "osm": "Avenida de Carlos V"}, "geometry": {"type": "Point", "coordinates": [-5.9842341, 37.3799597]}}, {"type": "Feature", "properties": {"id_hdad": 56, "hermandad": "El Sol", "calle": "Glorieta Doña María de las Mercedes de Borbón y Orleans", "osm": "Glorieta Doña María de las Mercedes de Borbón y Orleans"}, "geometry": {"type": "Point", "coordinates": [-5.9826, 37.3794]}}, {"type": "Feature", "properties": {"id_hdad": 56, "hermandad": "El Sol", "calle": "Calle Enramadilla", "osm": "Calle Enramadilla"}, "geometry": {"type": "Point", "coordinates": [-5.9813265, 37.3791377]}}, {"type": "Feature", "properties": {"id_hdad": 56, "hermandad": "El Sol", "calle": "Calle Avión Cuatro Vientos", "osm": "Calle Avión Cuatro Vientos"}, "geometry": {"type": "Point", "coordinates": [-5.9760976, 37.376421]}}, {"type": "Feature", "properties": {"id_hdad": 56, "hermandad": "El Sol", "calle": "Calle Virgen del Sol", "osm": "Calle Virgen del Sol"}, "geometry": {"type": "Point", "coordinates": [-5.9741783, 37.3752892]}}, {"type": "Feature", "properties": {"id_hdad": 56, "hermandad": "El Sol", "calle": "Plaza del Aljarafe", "osm": "Plaza del Aljarafe"}, "geometry": {"type": "Point", "coordinates": [-5.9740999, 37.3758375]}}]}