{"type":"FeatureCollection","features":[{"type":"Feature","properties":{"id_hdad":57,"nombre":"Los Servitas","dia":"sabado-santo"},"geometry":{"type":"LineString","coordinates":[[-5.987468,37.3961784],[-5.9878402,37.3961666],[-5.9879772,37.3955213],[-5.9879513,37.3950582],[-5.987947,37.3949451],[-5.9879858,37.3948218],[-5.988238,37.3948513],[-5.9896128,37.394734],[-5.990366,37.394231],[-5.990418,37.393942],[-5.990453,37.393595],[-5.990883,37.393616],[-5.991362,37.393635],[-5.991425,37.393054],[-5.991465,37.392787],[-5.991508,37.392727],[-5.991583,37.392717],[-5.992232,37.392791],[-5.992981,37.392804],[-5.9933169,37.3928037],[-5.9936593,37.3928157],[-5.9936853,37.3929311],[-5.993689,37.393287],[-5.9936844,37.3934442],[-5.993838,37.393693],[-5.9940973,37.3936496],[-5.9942892,37.3936065],[-5.994575,37.393545],[-5.9947522,37.3935137],[-5.99499,37.3936695],[-5.995283,37.393895],[-5.99537,37.393742],[-5.995446,37.393623],[-5.995615,37.39345],[-5.995633,37.393113],[-5.995631,37.392901],[-5.9956364,37.3927183],[-5.995376,37.392725],[-5.994924,37.392751],[-5.994797,37.391803],[-5.9945202,37.3909414],[-5.994258,37.389845],[-5.994175,37.389143],[-5.994154,37.38867],[-5.994169,37.388187],[-5.994296,37.388071],[-5.9943041,37.3879286],[-5.9942267,37.38731],[-5.994185,37.386838],[-5.9940679,37.3860718],[-5.9940344,37.3857616],[-5.993999,37.385447],[-5.9934331,37.3854932],[-5.9929686,37.3855304],[-5.992619,37.385552],[-5.9926646,37.3858225],[-5.99271,37.386038],[-5.992325,37.386077],[-5.992365,37.386288],[-5.9924408,37.3863144],[-5.9924973,37.3863647],[-5.992537,37.386555],[-5.992515,37.38666],[-5.992549,37.386763],[-5.992807,37.386777],[-5.993037,37.386751],[-5.993054,37.386917],[-5.9930245,37.3870101],[-5.9929267,37.3871073],[-5.992697,37.387288],[-5.992489,37.387452],[-5.992594,37.387654],[-5.992704,37.387858],[-5.99277,37.38804],[-5.992784,37.388285],[-5.992744,37.388583],[-5.992621,37.388828],[-5.992568,37.389176],[-5.992542,37.389426],[-5.992353,37.389737],[-5.991765,37.389785],[-5.991357,37.389798],[-5.991092,37.38979],[-5.990856,37.389772],[-5.990668,37.389983],[-5.9903819,37.3904418],[-5.9902529,37.3906875],[-5.9904478,37.3907416],[-5.9904478,37.3907416],[-5.9903251,37.390862],[-5.990158,37.3910193],[-5.9900213,37.3911556],[-5.9899688,37.3912106],[-5.9899556,37.3912991],[-5.989917,37.3914874],[-5.9898384,37.3923782],[-5.9897195,37.3928768],[-5.9896104,37.3932572],[-5.9895497,37.3934523],[-5.9894588,37.3936786],[-5.9891505,37.3943286],[-5.9890297,37.3945377],[-5.9886372,37.3947981],[-5.988238,37.3948513],[-5.9879858,37.3948218],[-5.987947,37.3949451],[-5.9879513,37.3950582],[-5.9879772,37.3955213],[-5.9878402,37.3961666],[-5.9877955,37.3964689],[-5.9875151,37.3964792],[-5.98762,37.39632],[-5.987468,37.3961784]]}},{"type":"Feature","properties":{"id_hdad":57,"hermandad":"Los Servitas","calle":"Calle Siete Dolores de Nuestra Señora"},"geometry":{"type":"Point","coordinates":[-5.987468,37.3961784]}},{"type":"Feature","properties":{"id_hdad":57,"hermandad":"Los Servitas","calle":"Plaza de San Marcos"},"geometry":{"type":"Point","coordinates":[-5.9879772,37.3955213]}},{"type":"Feature","properties":{"id_hdad":57,"hermandad":"Los Servitas","calle":"Calle Bustos Tavera"},"geometry":{"type":"Point","coordinates":[-5.987947,37.3949451]}},{"type":"Feature","properties":{"id_hdad":57,"hermandad":"Los Servitas","calle":"Calle Doña María Coronel"},"geometry":{"type":"Point","coordinates":[-5.988238,37.3948513]}},{"type":"Feature","properties":{"id_hdad":57,"hermandad":"Los Servitas","calle":"Calle Dueñas"},"geometry":{"type":"Point","coordinates":[-5.990418,37.393942]}},{"type":"Feature","properties":{"id_hdad":57,"hermandad":"Los Servitas","calle":"Calle Santa Ángela de la Cruz"},"geometry":{"type":"Point","coordinates":[-5.990883,37.393616]}},{"type":"Feature","properties":{"id_hdad":57,"hermandad":"Los Servitas","calle":"Calle Alcázares"},"geometry":{"type":"Point","coordinates":[-5.991425,37.393054]}},{"type":"Feature","properties":{"id_hdad":57,"hermandad":"Los Servitas","calle":"Plaza de la Encarnación"},"geometry":{"type":"Point","coordinates":[-5.991508,37.392727]}},{"type":"Feature","properties":{"id_hdad":57,"hermandad":"Los Servitas","calle":"Calle Laraña"},"geometry":{"type":"Point","coordinates":[-5.9933169,37.3928037]}},{"type":"Feature","properties":{"id_hdad":57,"hermandad":"Los Servitas","calle":"Calle Orfila"},"geometry":{"type":"Point","coordinates":[-5.993689,37.393287]}},{"type":"Feature","properties":{"id_hdad":57,"hermandad":"Los Servitas","calle":"Calle Javier Lasso de la Vega"},"geometry":{"type":"Point","coordinates":[-5.9942892,37.3936065]}},{"type":"Feature","properties":{"id_hdad":57,"hermandad":"Los Servitas","calle":"Calle Trajano"},"geometry":{"type":"Point","coordinates":[-5.99499,37.3936695]}},{"type":"Feature","properties":{"id_hdad":57,"hermandad":"Los Servitas","calle":"Plaza del Duque de la Victoria"},"geometry":{"type":"Point","coordinates":[-5.995615,37.39345]}},{"type":"Feature","properties":{"id_hdad":57,"hermandad":"Los Servitas","calle":"La Campana"},"geometry":{"type":"Point","coordinates":[-5.9956364,37.3927183]}},{"type":"Feature","properties":{"id_hdad":57,"hermandad":"Los Servitas","calle":"Calle Sierpes"},"geometry":{"type":"Point","coordinates":[-5.9945202,37.3909414]}},{"type":"Feature","properties":{"id_hdad":57,"hermandad":"Los Servitas","calle":"Plaza de San Francisco"},"geometry":{"type":"Point","coordinates":[-5.994169,37.388187]}},{"type":"Feature","properties":{"id_hdad":57,"hermandad":"Los Servitas","calle":"Avenida de la Constitución"},"geometry":{"type":"Point","coordinates":[-5.9940679,37.3860718]}},{"type":"Feature","properties":{"id_hdad":57,"hermandad":"Los Servitas","calle":"Calle Cardenal Carlos Amigo"},"geometry":{"type":"Point","coordinates":[-5.9929686,37.3855304]}},{"type":"Feature","properties":{"id_hdad":57,"hermandad":"Los Servitas","calle":"Calle Alemanes"},"geometry":{"type":"Point","coordinates":[-5.992365,37.386288]}},{"type":"Feature","properties":{"id_hdad":57,"hermandad":"Los Servitas","calle":"Calle Álvarez Quintero"},"geometry":{"type":"Point","coordinates":[-5.992515,37.38666]}},{"type":"Feature","properties":{"id_hdad":57,"hermandad":"Los Servitas","calle":"Calle Argote de Molina"},"geometry":{"type":"Point","coordinates":[-5.9930245,37.3870101]}},{"type":"Feature","properties":{"id_hdad":57,"hermandad":"Los Servitas","calle":"Calle Placentines"},"geometry":{"type":"Point","coordinates":[-5.992594,37.387654]}},{"type":"Feature","properties":{"id_hdad":57,"hermandad":"Los Servitas","calle":"Calle Francos"},"geometry":{"type":"Point","coordinates":[-5.992784,37.388285]}},{"type":"Feature","properties":{"id_hdad":57,"hermandad":"Los Servitas","calle":"Cuesta del Rosario"},"geometry":{"type":"Point","coordinates":[-5.992568,37.389176]}},{"type":"Feature","properties":{"id_hdad":57,"hermandad":"Los Servitas","calle":"Calle Jesús de las Tres Caídas"},"geometry":{"type":"Point","coordinates":[-5.991357,37.389798]}},{"type":"Feature","properties":{"id_hdad":57,"hermandad":"Los Servitas","calle":"Calle Odreros"},"geometry":{"type":"Point","coordinates":[-5.990668,37.389983]}},{"type":"Feature","properties":{"id_hdad":57,"hermandad":"Los Servitas","calle":"Calle Boteros"},"geometry":{"type":"Point","coordinates":[-5.9904478,37.3907416]}},{"type":"Feature","properties":{"id_hdad":57,"hermandad":"Los Servitas","calle":"Plaza del Cristo de Burgos"},"geometry":{"type":"Point","coordinates":[-5.9898384,37.3923782]}},{"type":"Feature","properties":{"id_hdad":57,"hermandad":"Los Servitas","calle":"Calle Doña María Coronel"},"geometry":{"type":"Point","coordinates":[-5.9895497,37.3934523]}},{"type":"Feature","properties":{"id_hdad":57,"hermandad":"Los Servitas","calle":"Calle Bustos Tavera"},"geometry":{"type":"Point","coordinates":[-5.9890297,37.3945377]}},{"type":"Feature","properties":{"id_hdad":57,"hermandad":"Los Servitas","calle":"Plaza de San Marcos"},"geometry":{"type":"Point","coordinates":[-5.988238,37.3948513]}},{"type":"Feature","properties":{"id_hdad":57,"hermandad":"Los Servitas","calle":"Calle Vergara"},"geometry":{"type":"Point","coordinates":[-5.9879513,37.3950582]}},{"type":"Feature","properties":{"id_hdad":57,"hermandad":"Los Servitas","calle":"Plaza de Santa Isabel"},"geometry":{"type":"Point","coordinates":[-5.9877955,37.3964689]}},{"type":"Feature","properties":{"id_hdad":57,"hermandad":"Los Servitas","calle":"Calle Siete Dolores de Nuestra Señora"},"geometry":{"type":"Point","coordinates":[-5.987468,37.3961784]}}]}