{"type": "FeatureCollection", "features": [{"type": "Feature", "properties": {"id_hdad": 60, "nombre": "Soledad de San Lorenzo", "dia": "sabado-santo"}, "geometry": {"type": "LineString", "coordinates": [[-5.9966795, 37.3971947], [-5.9967218, 37.3969386], [-5.9953951, 37.3966827], [-5.9959065, 37.3944789], [-5.9956421, 37.3944101], [-5.9952785, 37.3943415], [-5.9952921, 37.3939756], [-5.9953172, 37.3938065], [-5.99537, 37.393742], [-5.995446, 37.393623], [-5.995615, 37.39345], [-5.995644, 37.393115], [-5.995643, 37.39272], [-5.994924, 37.392751], [-5.994797, 37.391803], [-5.994542, 37.390976], [-5.994258, 37.389845], [-5.994175, 37.389143], [-5.994151, 37.388605], [-5.994169, 37.388187], [-5.994296, 37.388071], [-5.9943041, 37.3879286], [-5.9942267, 37.38731], [-5.9941493, 37.386713], [-5.9940679, 37.3860718], [-5.9940344, 37.3857616], [-5.993999, 37.385447], [-5.9934331, 37.3854932], [-5.9929686, 37.3855304], [-5.992619, 37.385552], [-5.9926646, 37.3858225], [-5.99271, 37.386038], [-5.992325, 37.386077], [-5.992343, 37.386298], [-5.992461, 37.386331], [-5.992523, 37.386502], [-5.99252, 37.386657], [-5.992542, 37.386755], [-5.992745, 37.386784], [-5.993037, 37.386751], [-5.993054, 37.386917], [-5.9930245, 37.3870101], [-5.9929267, 37.3871073], [-5.992697, 37.387288], [-5.992489, 37.387452], [-5.992594, 37.387654], [-5.992704, 37.387858], [-5.99277, 37.38804], [-5.9927796, 37.3883387], [-5.992748, 37.388584], [-5.992999, 37.388611], [-5.993264, 37.388615], [-5.993288, 37.389051], [-5.99338, 37.389346], [-5.993302, 37.389446], [-5.993273, 37.38953], [-5.993197, 37.389673], [-5.993105, 37.389698], [-5.993128, 37.389988], [-5.993132428703218, 37.39005314738425], [-5.993169, 37.390185], [-5.993243, 37.390261], [-5.993364, 37.390816], [-5.993467, 37.391235], [-5.9935038, 37.3915601], [-5.9936079, 37.3923895], [-5.9936905, 37.3932322], [-5.9936844, 37.3934442], [-5.993838, 37.393693], [-5.9940973, 37.3936496], [-5.9942892, 37.3936065], [-5.994575, 37.393545], [-5.9947497, 37.3935151], [-5.9950146, 37.393693], [-5.9953121, 37.3939063], [-5.9956419, 37.3939039], [-5.9959824, 37.3938867], [-5.9959867, 37.3940371], [-5.9959477, 37.3942225], [-5.9963843, 37.3942981], [-5.9966511, 37.3943577], [-5.9968246, 37.3943777], [-5.9967692, 37.3946353], [-5.9972896, 37.3947155], [-5.9969224, 37.3965357], [-5.9968645, 37.3969428], [-5.9967429, 37.3969344], [-5.9966742, 37.3971947]]}}, {"type": "Feature", "properties": {"id_hdad": 60, "hermandad": "Soledad de San Lorenzo", "calle": "Plaza de San Lorenzo", "osm": "Plaza de San Lorenzo"}, "geometry": {"type": "Point", "coordinates": [-5.9966561, 37.3970955]}}, {"type": "Feature", "properties": {"id_hdad": 60, "hermandad": "Soledad de San Lorenzo", "calle": "Calle Conde de Barajas", "osm": "Calle Conde de Barajas"}, "geometry": {"type": "Point", "coordinates": [-5.995966, 37.3968127]}}, {"type": "Feature", "properties": {"id_hdad": 60, "hermandad": "Soledad de San Lorenzo", "calle": "Calle Jesús del Gran Poder", "osm": "Calle Jesús del Gran Poder"}, "geometry": {"type": "Point", "coordinates": [-5.9958629, 37.3946597]}}, {"type": "Feature", "properties": {"id_hdad": 60, "hermandad": "Soledad de San Lorenzo", "calle": "Calle San Miguel", "osm": "Calle San Miguel"}, "geometry": {"type": "Point", "coordinates": [-5.995328, 37.394392]}}, {"type": "Feature", "properties": {"id_hdad": 60, "hermandad": "Soledad de San Lorenzo", "calle": "Calle Trajano", "osm": "Calle Trajano"}, "geometry": {"type": "Point", "coordinates": [-5.99537, 37.393742]}}, {"type": "Feature", "properties": {"id_hdad": 60, "hermandad": "Soledad de San Lorenzo", "calle": "Plaza del Duque de la Victoria (lado derecho)", "osm": "Plaza del Duque de la Victoria (lado derecho)"}, "geometry": {"type": "Point", "coordinates": [-5.995644, 37.393115]}}, {"type": "Feature", "properties": {"id_hdad": 60, "hermandad": "Soledad de San Lorenzo", "calle": "La Campana", "osm": "La Campana"}, "geometry": {"type": "Point", "coordinates": [-5.995376, 37.392725]}}, {"type": "Feature", "properties": {"id_hdad": 60, "hermandad": "Soledad de San Lorenzo", "calle": "Calle Sierpes", "osm": "Calle Sierpes"}, "geometry": {"type": "Point", "coordinates": [-5.9947885, 37.3908748]}}, {"type": "Feature", "properties": {"id_hdad": 60, "hermandad": "Soledad de San Lorenzo", "calle": "Plaza de San Francisco", "osm": "Plaza de San Francisco"}, "geometry": {"type": "Point", "coordinates": [-5.994154, 37.38867]}}, {"type": "Feature", "properties": {"id_hdad": 60, "hermandad": "Soledad de San Lorenzo", "calle": "Avenida de la Constitución", "osm": "Avenida de la Constitución"}, "geometry": {"type": "Point", "coordinates": [-5.994185, 37.386838]}}, {"type": "Feature", "properties": {"id_hdad": 60, "hermandad": "Soledad de San Lorenzo", "calle": "Calle Cardenal Carlos Amigo", "osm": "Calle Cardenal Carlos Amigo"}, "geometry": {"type": "Point", "coordinates": [-5.992537, 37.386555]}}, {"type": "Feature", "properties": {"id_hdad": 60, "hermandad": "Soledad de San Lorenzo", "calle": "Calle Alemanes", "osm": "Calle Alemanes"}, "geometry": {"type": "Point", "coordinates": [-5.992807, 37.386777]}}, {"type": "Feature", "properties": {"id_hdad": 60, "hermandad": "Soledad de San Lorenzo", "calle": "Calle Álvarez Quintero", "osm": "Calle Álvarez Quintero"}, "geometry": {"type": "Point", "coordinates": [-5.993054, 37.386917]}}, {"type": "Feature", "properties": {"id_hdad": 60, "hermandad": "Soledad de San Lorenzo", "calle": "Calle Argote de Molina", "osm": "Calle Argote de Molina"}, "geometry": {"type": "Point", "coordinates": [-5.992697, 37.387288]}}, {"type": "Feature", "properties": {"id_hdad": 60, "hermandad": "Soledad de San Lorenzo", "calle": "Calle Placentines", "osm": "Calle Placentines"}, "geometry": {"type": "Point", "coordinates": [-5.992594, 37.387654]}}, {"type": "Feature", "properties": {"id_hdad": 60, "hermandad": "Soledad de San Lorenzo", "calle": "Calle Francos", "osm": "Calle Francos"}, "geometry": {"type": "Point", "coordinates": [-5.9927725, 37.3883982]}}, {"type": "Feature", "properties": {"id_hdad": 60, "hermandad": "Soledad de San Lorenzo", "calle": "Calle Chapineros", "osm": "Calle Chapineros"}, "geometry": {"type": "Point", "coordinates": [-5.992999, 37.388611]}}, {"type": "Feature", "properties": {"id_hdad": 60, "hermandad": "Soledad de San Lorenzo", "calle": "Calle Álvarez Quintero", "osm": "Calle Álvarez Quintero"}, "geometry": {"type": "Point", "coordinates": [-5.993273, 37.38953]}}, {"type": "Feature", "properties": {"id_hdad": 60, "hermandad": "Soledad de San Lorenzo", "calle": "Plaza del Salvador", "osm": "Plaza del Salvador"}, "geometry": {"type": "Point", "coordinates": [-5.993132428703218, 37.39005314738425]}}, {"type": "Feature", "properties": {"id_hdad": 60, "hermandad": "Soledad de San Lorenzo", "calle": "Calle Cuna", "osm": "Calle Cuna"}, "geometry": {"type": "Point", "coordinates": [-5.9934667, 37.3916005]}}, {"type": "Feature", "properties": {"id_hdad": 60, "hermandad": "Soledad de San Lorenzo", "calle": "Calle Orfila", "osm": "Calle Orfila"}, "geometry": {"type": "Point", "coordinates": [-5.9937493, 37.3932616]}}, {"type": "Feature", "properties": {"id_hdad": 60, "hermandad": "Soledad de San Lorenzo", "calle": "Calle Javier Lasso de la Vega", "osm": "Calle Javier Lasso de la Vega"}, "geometry": {"type": "Point", "coordinates": [-5.994575, 37.393545]}}, {"type": "Feature", "properties": {"id_hdad": 60, "hermandad": "Soledad de San Lorenzo", "calle": "Calle Aponte", "osm": "Calle Aponte"}, "geometry": {"type": "Point", "coordinates": [-5.9956419, 37.3939039]}}, {"type": "Feature", "properties": {"id_hdad": 60, "hermandad": "Soledad de San Lorenzo", "calle": "Calle Jesús del Gran Poder", "osm": "Calle Jesús del Gran Poder"}, "geometry": {"type": "Point", "coordinates": [-5.9959771, 37.3939894]}}, {"type": "Feature", "properties": {"id_hdad": 60, "hermandad": "Soledad de San Lorenzo", "calle": "Calle Las Cortes", "osm": "Calle Las Cortes"}, "geometry": {"type": "Point", "coordinates": [-5.9963843, 37.3942981]}}, {"type": "Feature", "properties": {"id_hdad": 60, "hermandad": "Soledad de San Lorenzo", "calle": "Plaza de La Concordia", "osm": "Plaza de La Concordia"}, "geometry": {"type": "Point", "coordinates": [-5.9967933, 37.3945045]}}, {"type": "Feature", "properties": {"id_hdad": 60, "hermandad": "Soledad de San Lorenzo", "calle": "Plaza de la Gavidia", "osm": "Plaza de la Gavidia"}, "geometry": {"type": "Point", "coordinates": [-5.9972659, 37.3948514]}}, {"type": "Feature", "properties": {"id_hdad": 60, "hermandad": "Soledad de San Lorenzo", "calle": "Calle Cardenal Spínola", "osm": "Calle Cardenal Spínola"}, "geometry": {"type": "Point", "coordinates": [-5.9969224, 37.3965357]}}, {"type": "Feature", "properties": {"id_hdad": 60, "hermandad": "Soledad de San Lorenzo", "calle": "Plaza de San Lorenzo", "osm": "Plaza de San Lorenzo"}, "geometry": {"type": "Point", "coordinates": [-5.9966561, 37.3970955]}}]}